{
"type": "FeatureCollection",
"name": "shoreline_2021-12-21",
"crs": { "type": "name", "properties": { "name": "urn:ogc:def:crs:OGC:1.3:CRS84" } },
"features": [
{ "type": "Feature", "properties": { "date": "2021-12-21", "scene_id": "S2B_MSIL2A_20211221T100329_N0500_R122_T31NEH_20221226T132339", "tile": "31NEH", "cloud_cover": 5.2 }, "geometry": { "type": "LineString", "coordinates": [ [ 3.013835211923801, 6.393939236368322 ], [ 3.015643833882494, 6.397148426752761 ], [ 3.017271522047071, 6.397329298348784 ], [ 3.063931994462595, 6.399315772297809 ], [ 3.131933491099309, 6.400750198321716 ], [ 3.165572959096751, 6.402549687667932 ], [ 3.199754889608053, 6.403623066491892 ], [ 3.266128522685535, 6.403773880162991 ], [ 3.278245338682737, 6.403043771291181 ], [ 3.279872724518344, 6.402500122332198 ], [ 3.280385605764853, 6.347861475765068 ], [ 3.281281051534565, 6.331758934280519 ], [ 3.331740989258236, 6.345660076450483 ], [ 3.595374060043214, 6.331312878597697 ], [ 3.595555502619789, 6.33185541425888 ], [ 3.596821248809577, 6.331853960903637 ], [ 3.597185801172343, 6.334386344918697 ], [ 3.598090118020997, 6.334566218103643 ], [ 3.598635502261857, 6.337098391589322 ], [ 3.599539824185177, 6.33727826173717 ], [ 3.600264369570521, 6.338362910193616 ], [ 3.60098766157902, 6.338362072667306 ], [ 3.601712211524378, 6.339446718627642 ], [ 3.605148908463107, 6.34034729092929 ], [ 3.607140718528468, 6.342696846320955 ], [ 3.609130422571938, 6.343237254157186 ], [ 3.609856272499927, 6.345407368871148 ], [ 3.613114332823797, 6.348117232283933 ], [ 3.614563299952545, 6.35010556712156 ], [ 3.615105779802124, 6.350104922931778 ], [ 3.616011418171817, 6.351370242639163 ], [ 3.617277638200687, 6.351730561742846 ], [ 3.618002241390267, 6.352815179314907 ], [ 3.62071595324082, 6.353897413314523 ], [ 3.622346881497775, 6.356790070819179 ], [ 3.622711150596708, 6.358960594376116 ], [ 3.62433927006392, 6.359501371285204 ], [ 3.624521846497152, 6.360948458147909 ], [ 3.626149316871657, 6.360946489231165 ], [ 3.626511853251923, 6.361669703324255 ], [ 3.627234296835445, 6.360945173773665 ], [ 3.627777664868661, 6.361668167340823 ], [ 3.629585966636565, 6.361665967701757 ], [ 3.629767237276187, 6.362027573318475 ], [ 3.631213437681413, 6.361663982617958 ], [ 3.631755044213306, 6.360939668190686 ], [ 3.632478363422632, 6.360938783628813 ], [ 3.632840908207356, 6.361661992410191 ], [ 3.639350785095341, 6.361653980339614 ], [ 3.639532285889393, 6.362196494471629 ], [ 3.641522088425655, 6.362736766715206 ], [ 3.642246756752285, 6.363821343317512 ], [ 3.64369452618926, 6.364724105284856 ], [ 3.644965081452575, 6.368521686731898 ], [ 3.64641196354836, 6.36870078980954 ], [ 3.646955818699751, 6.369785584099908 ], [ 3.648584445420556, 6.370688102922106 ], [ 3.648947247115869, 6.371592209395663 ], [ 3.649851866949378, 6.371952895933817 ], [ 3.650214671886347, 6.372857001156641 ], [ 3.650757399831283, 6.373037229324804 ], [ 3.652207494838951, 6.375749083736784 ], [ 3.652569163364167, 6.37574862621464 ], [ 3.653114642572825, 6.378099795821678 ], [ 3.653657606121623, 6.378460932234649 ], [ 3.655115321129909, 6.387142867676621 ], [ 3.656744017393653, 6.388045353078048 ], [ 3.656924394419487, 6.387683298689762 ], [ 3.657286532613596, 6.388044660600613 ], [ 3.658914077912934, 6.388042579738128 ], [ 3.660361712071856, 6.388764372497728 ], [ 3.660543478647697, 6.389487787126206 ], [ 3.661628743640966, 6.389667304906589 ], [ 3.664524498317097, 6.39147269184352 ], [ 3.665430097907853, 6.392556991937823 ], [ 3.666153456583799, 6.392556055643625 ], [ 3.666335467176904, 6.393460378568824 ], [ 3.667963261381091, 6.393639178682504 ], [ 3.66832611594517, 6.394543265553464 ], [ 3.671039427005201, 6.395082466574902 ], [ 3.671944809997965, 6.395985841751956 ], [ 3.672126832396837, 6.396890161319591 ], [ 3.673031510481871, 6.397250800532159 ], [ 3.674299532246301, 6.398877341330952 ], [ 3.675023135953481, 6.399057302696885 ], [ 3.675205878032483, 6.40050435353736 ], [ 3.675748642120209, 6.400684551247898 ], [ 3.677017157981981, 6.402672905265258 ], [ 3.679368113899066, 6.402669800751543 ], [ 3.6797307564156, 6.403392965623135 ], [ 3.681177499865532, 6.403391048568025 ], [ 3.681720748538859, 6.403933060966054 ], [ 3.683710503362434, 6.404292237439907 ], [ 3.684616165269104, 6.405376496563209 ], [ 3.685701225976772, 6.40537504838512 ], [ 3.687873526978595, 6.407000339919891 ], [ 3.693299085628405, 6.407173950150494 ], [ 3.694384881945702, 6.407715214025448 ], [ 3.694748283125532, 6.408981096252101 ], [ 3.696015419692101, 6.409883931516779 ], [ 3.696198227209326, 6.41133096756023 ], [ 3.70216611249627, 6.411322832047331 ], [ 3.702709390224845, 6.411864818771708 ], [ 3.704156150486027, 6.411862834371261 ], [ 3.705061369613232, 6.412585231342611 ], [ 3.712114578911174, 6.412756394957684 ], [ 3.712478027375134, 6.414022259203381 ], [ 3.715552651100255, 6.414198886881018 ], [ 3.716097460152001, 6.41582631366795 ], [ 3.717363128464303, 6.415643634093747 ], [ 3.717722795121505, 6.414195853307198 ], [ 3.718446176228896, 6.414194840074933 ], [ 3.718990994113464, 6.415822262764056 ], [ 3.721161143358587, 6.415819213868214 ], [ 3.721532001391503, 6.422331433276675 ], [ 3.722797937274645, 6.422329647793198 ], [ 3.722985424735417, 6.42703302714061 ], [ 3.725156132005736, 6.427391773840732 ], [ 3.725881326214882, 6.428657110224242 ], [ 3.736915250410706, 6.430088604104476 ], [ 3.73782028346457, 6.430630025500999 ], [ 3.742341800588522, 6.43080439037718 ], [ 3.743789390535657, 6.431345012417203 ], [ 3.74993909148082, 6.431878754581245 ], [ 3.753195726023542, 6.432778508027257 ], [ 3.755908481229553, 6.432774503940247 ], [ 3.756813535577549, 6.433315888781117 ], [ 3.763144106143093, 6.433849199870812 ], [ 3.76350634700525, 6.434210474274248 ], [ 3.76820900029123, 6.434565242490047 ], [ 3.768752095384895, 6.434926240787769 ], [ 3.773273629197229, 6.435100326336168 ], [ 3.773455026862248, 6.435461866356163 ], [ 3.777977387875083, 6.436178629495709 ], [ 3.784126857094637, 6.436531042674521 ], [ 3.785393643599676, 6.437071817157349 ], [ 3.788829802592732, 6.437066522957505 ], [ 3.789192061971452, 6.437427776649515 ], [ 3.804566889177925, 6.439031946189685 ], [ 3.834768790200338, 6.438983473873068 ], [ 3.857554786559408, 6.438403011070614 ], [ 3.859724350112751, 6.438037556923888 ], [ 3.903126535592446, 6.437419957130931 ], [ 3.918134377789437, 6.436126898997304 ], [ 3.919218465562565, 6.435582247976119 ], [ 3.923557731350468, 6.43503172225288 ], [ 3.935854059446899, 6.434466651876938 ], [ 3.940915647318486, 6.433371960898329 ], [ 3.949052847142903, 6.432995118915068 ], [ 3.95085991395839, 6.432268164618406 ], [ 3.956103619360296, 6.431896587194302 ], [ 3.958091847694951, 6.431350169187141 ] ] } }
]
}
