{
"type": "FeatureCollection",
"name": "shoreline_2018-01-06",
"crs": { "type": "name", "properties": { "name": "urn:ogc:def:crs:OGC:1.3:CRS84" } },
"features": [
{ "type": "Feature", "properties": { "date": "2018-01-06", "scene_id": "S2A_MSIL2A_20180106T100401_N0500_R122_T31NEH_20230802T011345", "tile": "31NEH", "cloud_cover": 0.01 }, "geometry": { "type": "LineString", "coordinates": [ [ 3.000090426818387, 6.39732958850928 ], [ 3.015101278493949, 6.397329366689213 ], [ 3.060314931118112, 6.399497133185213 ], [ 3.085996355427, 6.400217170973913 ], [ 3.107156319278393, 6.400213193589249 ], [ 3.126146150997184, 6.400751651941294 ], [ 3.136093236737378, 6.401110959619328 ], [ 3.141338214254379, 6.401833235952528 ], [ 3.149295818179092, 6.401830984726431 ], [ 3.162317631133856, 6.402731649745968 ], [ 3.190893004746973, 6.403626437208395 ], [ 3.26703288636388, 6.403954332417325 ], [ 3.283851795816342, 6.403040703162938 ], [ 3.306639194241218, 6.402846681722029 ], [ 3.330510711531666, 6.401203587630776 ], [ 3.33394666332475, 6.400839524168329 ], [ 3.334127162381799, 6.400296644785441 ], [ 3.340637817219378, 6.400292369460384 ], [ 3.356009301971635, 6.399015506294552 ], [ 3.357817431325076, 6.398471489739713 ], [ 3.364689362404048, 6.397923898907541 ], [ 3.36486995589241, 6.397561930510203 ], [ 3.369391205410968, 6.397558701127859 ], [ 3.378432632706208, 6.39610476507748 ], [ 3.397060083246763, 6.396090716102008 ], [ 3.397242049668266, 6.397537931141717 ], [ 3.399593512323365, 6.398078866615655 ], [ 3.414971982903147, 6.405846198042902 ], [ 3.420397536749846, 6.405841783483027 ], [ 3.426367443707348, 6.408007884521985 ], [ 3.436135462225321, 6.410351616130105 ], [ 3.448615569787303, 6.411788199239202 ], [ 3.448804814028874, 6.421376694706804 ], [ 3.453688418981353, 6.42191514551244 ], [ 3.458029299245154, 6.422273116919608 ], [ 3.522233456607663, 6.422573493160335 ], [ 3.530915238808026, 6.423288228255777 ], [ 3.568895061824645, 6.423609263381961 ], [ 3.574863441093266, 6.423783510759313 ], [ 3.575225554979496, 6.42414493315471 ], [ 3.592407068249119, 6.424487165687191 ], [ 3.666738023364777, 6.424938476670387 ], [ 3.674876789996194, 6.425289632281038 ], [ 3.680845345649918, 6.425643549072325 ], [ 3.685729524960834, 6.426541581962208 ], [ 3.717922901215089, 6.427944703388834 ], [ 3.726425160185014, 6.429560884318546 ], [ 3.740171598164863, 6.43080753624779 ], [ 3.755366731787714, 6.433318028825814 ], [ 3.759164859198737, 6.43349330995339 ], [ 3.768390938049837, 6.435288598913393 ], [ 3.801492431242216, 6.439036780363763 ], [ 3.839470861523795, 6.438975766651063 ], [ 3.850140022215088, 6.438415406514929 ], [ 3.905477201444861, 6.437234894587951 ], [ 3.917592170598495, 6.436308773720032 ], [ 3.923738901430945, 6.435212295165746 ], [ 3.937119624842972, 6.434283433091003 ], [ 3.941819856181225, 6.433370295625291 ], [ 3.949234024091184, 6.433175681602028 ], [ 3.953030003878163, 6.4322641237518 ], [ 3.979968241163552, 6.428595245718759 ], [ 3.982498583721731, 6.427866802202525 ], [ 3.992625475493535, 6.427847252692518 ] ] } }
]
}
