{
"type": "FeatureCollection",
"name": "shoreline_2024-12-20",
"crs": { "type": "name", "properties": { "name": "urn:ogc:def:crs:OGC:1.3:CRS84" } },
"features": [
{ "type": "Feature", "properties": { "date": "2024-12-20", "scene_id": "S2A_MSIL2A_20241220T100431_N0511_R122_T31NEH_20241220T144159", "tile": "31NEH", "cloud_cover": 0.01 }, "geometry": { "type": "LineString", "coordinates": [ [ 2.999909573181596, 6.39732958850928 ], [ 3.019080065032825, 6.397510158104733 ], [ 3.077496168210218, 6.400037599849567 ], [ 3.133561274259907, 6.401111624137822 ], [ 3.171179635142254, 6.40309061828415 ], [ 3.191797278929221, 6.403626100264 ], [ 3.267213740352485, 6.40395423833588 ], [ 3.308085909455578, 6.40266489479601 ], [ 3.359083510969423, 6.398651526897556 ], [ 3.377890084982487, 6.396105164156367 ], [ 3.396155839046303, 6.396091413676404 ], [ 3.396337942343429, 6.397719548550718 ], [ 3.397603888174252, 6.397718570805138 ], [ 3.404840709174017, 6.40133130697846 ], [ 3.406287656025009, 6.401511083834142 ], [ 3.407735321183625, 6.402595451905891 ], [ 3.415152980967379, 6.406026970690178 ], [ 3.420759388385882, 6.406022405885822 ], [ 3.431432523967963, 6.409451000008595 ], [ 3.438667557627241, 6.410530375532209 ], [ 3.440476397360968, 6.410890662258778 ], [ 3.44065756101946, 6.411252343391622 ], [ 3.445540908603784, 6.411609961227437 ], [ 3.445904815839823, 6.414142500178424 ], [ 3.446809716270673, 6.414865385132127 ], [ 3.446994828519419, 6.41975001438619 ], [ 3.448623007309297, 6.420291345359918 ], [ 3.451335848950658, 6.420288962081361 ], [ 3.45205975193014, 6.420831077768316 ], [ 3.454592220393662, 6.421371590097704 ], [ 3.470146017389151, 6.421538464827534 ], [ 3.471955077386208, 6.422079553353204 ], [ 3.475391511772879, 6.422257291972731 ], [ 3.511924534145113, 6.422402987481334 ], [ 3.530010776744687, 6.423108249462609 ], [ 3.530734571264557, 6.423469331493724 ], [ 3.536884018554982, 6.423824750945519 ], [ 3.537065252890582, 6.424186392296399 ], [ 3.538874184288506, 6.42454632256037 ], [ 3.594034749273541, 6.424485279307538 ], [ 3.676866388142036, 6.425467915980122 ], [ 3.682835668538916, 6.426364540943736 ], [ 3.717561200930385, 6.427945210844038 ], [ 3.721540922461, 6.428663251006991 ], [ 3.721722282876132, 6.429024813970141 ], [ 3.72841425628201, 6.429377146203258 ], [ 3.738363095318278, 6.430810150772553 ], [ 3.741799250084244, 6.430805177708105 ], [ 3.743246839637044, 6.431345801349947 ], [ 3.745236192599512, 6.431342905782696 ], [ 3.745598420312381, 6.431704194597252 ], [ 3.75590874856752, 6.432955411557729 ], [ 3.75753720522464, 6.433495724768789 ], [ 3.761516183187599, 6.433670720115138 ], [ 3.765134542316099, 6.434569854618256 ], [ 3.775444656202029, 6.43563975811595 ], [ 3.775626055547099, 6.436001297150587 ], [ 3.785212237293788, 6.43671028248649 ], [ 3.802939235270214, 6.43903450776321 ], [ 3.8351304881983, 6.43898288254637 ], [ 3.904934986735953, 6.437416756668471 ], [ 3.916507430520934, 6.436491621457892 ], [ 3.922111637272314, 6.435396134640189 ], [ 3.936939113957125, 6.434464663764436 ], [ 3.942000697925092, 6.433369962378806 ], [ 3.948510658849734, 6.433177024399493 ], [ 3.953752692352439, 6.43190097826737 ], [ 3.961346629407497, 6.431163161415082 ], [ 3.9662265715001, 6.429706777232929 ], [ 3.968938472847618, 6.429339850318241 ], [ 3.969118626655159, 6.428977712807113 ], [ 3.976530936401077, 6.427878228611759 ], [ 3.977434089908071, 6.427333810797449 ], [ 3.979242466614511, 6.427330352697098 ], [ 3.97978428703716, 6.426967520260904 ], [ 3.992623371037235, 6.426761875633278 ] ] } }
]
}
