{
"type": "FeatureCollection",
"name": "shoreline_2022-12-26",
"crs": { "type": "name", "properties": { "name": "urn:ogc:def:crs:OGC:1.3:CRS84" } },
"features": [
{ "type": "Feature", "properties": { "date": "2022-12-26", "scene_id": "S2B_MSIL2A_20221226T100329_N0510_R122_T31NEH_20240803T090404", "tile": "31NEH", "cloud_cover": 0.011075 }, "geometry": { "type": "LineString", "coordinates": [ [ 2.999909573213399, 6.397148664792121 ], [ 3.031558980193586, 6.397690467092186 ], [ 3.057963804798975, 6.399316480167085 ], [ 3.133380372849259, 6.400930747928776 ], [ 3.175881860666359, 6.403089029428309 ], [ 3.260341286895062, 6.403957768652917 ], [ 3.307181645008684, 6.402665436433429 ], [ 3.320021629542945, 6.401752991768614 ], [ 3.322914925838367, 6.401208418455622 ], [ 3.337744312238075, 6.400475200321017 ], [ 3.348232840399298, 6.399201755295361 ], [ 3.355285899080985, 6.399016006948108 ], [ 3.363061966241506, 6.398286891352827 ], [ 3.377709235733571, 6.396105297055434 ], [ 3.396155839046303, 6.396091413676404 ], [ 3.396337942343429, 6.397719548550718 ], [ 3.397603888174252, 6.397718570805138 ], [ 3.403574329510758, 6.400789545589822 ], [ 3.406287656025009, 6.401511083834142 ], [ 3.409544550605476, 6.403498608099402 ], [ 3.415152980967379, 6.406026970690178 ], [ 3.420759388385882, 6.406022405885822 ], [ 3.427091154018429, 6.408369120128018 ], [ 3.43233693996649, 6.409631157255419 ], [ 3.446445489088466, 6.411971011071764 ], [ 3.446634062424401, 6.420835838026382 ], [ 3.453868955088608, 6.421553149583229 ], [ 3.455859019632096, 6.422275053647965 ], [ 3.508488104814017, 6.422225495094759 ], [ 3.527840330812671, 6.422929575754463 ], [ 3.537245538766604, 6.423643455945157 ], [ 3.537426773271984, 6.424005097154661 ], [ 3.539597414354574, 6.424364645006777 ], [ 3.587704668313911, 6.42431167221253 ], [ 3.672525490677352, 6.425111816107525 ], [ 3.68482502845572, 6.426361882453921 ], [ 3.701825722537126, 6.426881578627267 ], [ 3.718465451587469, 6.427943941726636 ], [ 3.722445684277453, 6.429023792749732 ], [ 3.72787144830908, 6.429197009790664 ], [ 3.738905646251059, 6.430809367086558 ], [ 3.743065463870162, 6.430984247872742 ], [ 3.753014875615222, 6.43277877445467 ], [ 3.755185080009892, 6.432775573104014 ], [ 3.755366464626244, 6.43313712118817 ], [ 3.764591179267051, 6.434027944880267 ], [ 3.766762468071029, 6.434748322353119 ], [ 3.777434286004307, 6.435817641960246 ], [ 3.778701065575982, 6.436358434124016 ], [ 3.788106122035232, 6.436886733236514 ], [ 3.794075865938689, 6.437962927507795 ], [ 3.808545882174299, 6.439206568022372 ], [ 3.843087835545412, 6.438969808568632 ], [ 3.852310198652849, 6.438411789718685 ], [ 3.903488225894569, 6.437419317550455 ], [ 3.915422365413195, 6.436493566804353 ], [ 3.924100261150267, 6.435030741451124 ], [ 3.931695339848703, 6.434836050394097 ], [ 3.937662151749281, 6.434282438007449 ], [ 3.942181539659393, 6.433369629068361 ], [ 3.947787293454191, 6.433178366173655 ], [ 3.953029666867611, 6.432083225472902 ], [ 3.961708309264071, 6.431162481274707 ], [ 3.969300150602794, 6.429339165001731 ], [ 3.96948030413508, 6.428977027401656 ], [ 3.971830863313108, 6.428791668736338 ], [ 3.972011014785942, 6.428429530535509 ], [ 3.975446597882193, 6.428242092882094 ], [ 3.982135173219897, 6.426963012941958 ], [ 3.992623721754756, 6.426942771813055 ] ] } }
]
}
