{
"type": "FeatureCollection",
"name": "shoreline_2018-01-01",
"crs": { "type": "name", "properties": { "name": "urn:ogc:def:crs:OGC:1.3:CRS84" } },
"features": [
{ "type": "Feature", "properties": { "date": "2018-01-01", "scene_id": "S2B_MSIL2A_20180101T100409_N0500_R122_T31NEH_20230904T020713", "tile": "31NEH", "cloud_cover": 0.02 }, "geometry": { "type": "LineString", "coordinates": [ [ 3.000090426786584, 6.397148664792121 ], [ 3.021431155450601, 6.397329141751207 ], [ 3.053804138145916, 6.399136008916063 ], [ 3.075325835575867, 6.399495151973637 ], [ 3.08364521810947, 6.400036635609777 ], [ 3.111677677244556, 6.40021223072385 ], [ 3.117103429484673, 6.400753792707811 ], [ 3.133742081666428, 6.400930653891607 ], [ 3.162136719254856, 6.402550783921992 ], [ 3.184020325048337, 6.403086177743567 ], [ 3.189446165954688, 6.403626973007366 ], [ 3.267575354117492, 6.403773128297187 ], [ 3.284936916233684, 6.40304010226253 ], [ 3.304830664383963, 6.402847758340968 ], [ 3.315862024571498, 6.401755566420294 ], [ 3.334670070413693, 6.400839053420655 ], [ 3.336478232695886, 6.400295110434786 ], [ 3.34027611428964, 6.400292609142781 ], [ 3.346786154827335, 6.399383654085595 ], [ 3.360711038672496, 6.398469466932486 ], [ 3.363785239524914, 6.398105459771202 ], [ 3.363965705709958, 6.397562571614507 ], [ 3.367401855909871, 6.397560126955509 ], [ 3.377528253730853, 6.395924510118462 ], [ 3.396155699746788, 6.395910494303621 ], [ 3.397060083246763, 6.396090716102008 ], [ 3.397242049668266, 6.397537931141717 ], [ 3.398327145604142, 6.39753709138002 ], [ 3.405021132080501, 6.400788406998889 ], [ 3.409180975983376, 6.401146948949076 ], [ 3.409363123025064, 6.402775076188947 ], [ 3.410086959688798, 6.403317256108734 ], [ 3.4126188744001, 6.403315228007599 ], [ 3.415332224126736, 6.404036716739575 ], [ 3.421662013991335, 6.404031557854504 ], [ 3.426184039551339, 6.404932418309033 ], [ 3.427631451963241, 6.405654889623807 ], [ 3.430706078434445, 6.405833237849935 ], [ 3.433057909976624, 6.406735852116849 ], [ 3.435770992661038, 6.407095392876442 ], [ 3.436135308523347, 6.410170697780494 ], [ 3.439933683197208, 6.410710209627773 ], [ 3.441200120458253, 6.411251876977456 ], [ 3.441381440340173, 6.411794476017683 ], [ 3.442828266806991, 6.411793228824427 ], [ 3.443011931739381, 6.41504959951325 ], [ 3.443373796970373, 6.415230204928369 ], [ 3.443559816388658, 6.421200346179419 ], [ 3.444825969442471, 6.421380166189755 ], [ 3.457667586022734, 6.422273440346405 ], [ 3.502700734580668, 6.422231209519199 ], [ 3.52114832670734, 6.422574598784862 ], [ 3.535617655253118, 6.423464245949431 ], [ 3.569075915743154, 6.423609062374161 ], [ 3.593492188986287, 6.42448590867577 ], [ 3.678493805817661, 6.425284849962562 ], [ 3.678675136028672, 6.425646431661462 ], [ 3.686814630189911, 6.426540126659281 ], [ 3.704900427259233, 6.427058262090295 ], [ 3.718827151799247, 6.427943433632247 ], [ 3.719370464754545, 6.428485398447561 ], [ 3.722083983591456, 6.429024303487796 ], [ 3.732031776727464, 6.429733799524681 ], [ 3.738905646251059, 6.430809367086558 ], [ 3.742341800588522, 6.43080439037718 ], [ 3.742704288670508, 6.431346589707129 ], [ 3.743789653528825, 6.431525920548888 ], [ 3.750663023207017, 6.432239508672714 ], [ 3.757356354744588, 6.433495992761752 ], [ 3.759888260764655, 6.433492235038829 ], [ 3.760431618783701, 6.434034150444002 ], [ 3.77707340997217, 6.436360912243029 ], [ 3.780690421555154, 6.43635539827194 ], [ 3.781957204998961, 6.436896181773656 ], [ 3.803120085737044, 6.439034223400029 ], [ 3.831875204997249, 6.438988195267425 ], [ 3.903849916159996, 6.437418677713971 ], [ 3.91216781366365, 6.436861189743513 ], [ 3.913975288000012, 6.436315256744701 ], [ 3.917592170598495, 6.436308773720032 ], [ 3.923558058091008, 6.435212622044952 ], [ 3.937842994032345, 6.434282106184997 ], [ 3.940735470987728, 6.43373409159095 ], [ 3.940915647318486, 6.433371960898329 ], [ 3.949053182795274, 6.433176017397329 ], [ 3.95411471092161, 6.432081201643851 ], [ 3.962793348599384, 6.431160439319141 ], [ 3.963334846377693, 6.430616724257615 ], [ 3.979968241163552, 6.428595245718759 ], [ 3.98087104461793, 6.427869925397236 ], [ 3.992625475493535, 6.427847252692518 ] ] } }
]
}
