{
"type": "FeatureCollection",
"name": "shoreline_2021-01-20",
"crs": { "type": "name", "properties": { "name": "urn:ogc:def:crs:OGC:1.3:CRS84" } },
"features": [
{ "type": "Feature", "properties": { "date": "2021-01-20", "scene_id": "S2A_MSIL2A_20210120T100331_N0500_R122_T31NEH_20230603T115026", "tile": "31NEH", "cloud_cover": 4.42 }, "geometry": { "type": "LineString", "coordinates": [ [ 2.999909573181596, 6.39732958850928 ], [ 3.034633518022303, 6.398052116481668 ], [ 3.046931661973247, 6.398955758878414 ], [ 3.073698080610018, 6.399029493285077 ], [ 3.081112037383335, 6.392303940808278 ], [ 3.23899292324493, 6.387685152116308 ], [ 3.242610662931729, 6.389311759502479 ], [ 3.243158425072477, 6.40034775119641 ], [ 3.245510724297931, 6.40287954131212 ], [ 3.245692010676287, 6.403784064825263 ], [ 3.270830724202258, 6.403771421694843 ], [ 3.278607143753734, 6.403224496717035 ], [ 3.305734929351392, 6.402847220827542 ], [ 3.329967923369044, 6.400842095073034 ], [ 3.330510246308681, 6.400479904983141 ], [ 3.332318763298952, 6.400478738366456 ], [ 3.333222552680521, 6.399754470202613 ], [ 3.34280719023312, 6.399024482934861 ], [ 3.343530110719457, 6.398300318111827 ], [ 3.344976916255668, 6.398299348991744 ], [ 3.34515436878688, 6.393233455719137 ], [ 3.345519468274008, 6.398298984521703 ], [ 3.346604572215928, 6.398298253863432 ], [ 3.346782008691728, 6.393232360892561 ], [ 3.349675221348941, 6.392687640749949 ], [ 3.349855209363101, 6.39142107526801 ], [ 3.350578478819423, 6.391239662492276 ], [ 3.352204874127749, 6.389429347597948 ], [ 3.352565330701998, 6.387619896632077 ], [ 3.35310749904379, 6.387076763785804 ], [ 3.354554271554175, 6.387075769444048 ], [ 3.355277034017943, 6.386170669295638 ], [ 3.355457131525678, 6.385085022716691 ], [ 3.357988470212626, 6.38435958793912 ], [ 3.35853062928274, 6.383816449821811 ], [ 3.359254136645278, 6.383996866026239 ], [ 3.359435486642509, 6.384720420753458 ], [ 3.359977391783123, 6.383815440753174 ], [ 3.361604999316458, 6.383814300693879 ], [ 3.361785590647243, 6.38345233333897 ], [ 3.36196668983909, 6.383814046648967 ], [ 3.362502741971617, 6.374586734972755 ], [ 3.363406187936035, 6.37350057742542 ], [ 3.366660565622373, 6.372412753256367 ], [ 3.366839094169733, 6.369156061661517 ], [ 3.370274794646401, 6.368791768461821 ], [ 3.370805558261365, 6.352387951253303 ], [ 3.434653977102224, 6.369284338196665 ], [ 3.435016111193365, 6.369826789536337 ], [ 3.435205796323581, 6.380319917012442 ], [ 3.437944763222476, 6.411254666854343 ], [ 3.441019422766038, 6.411432950735784 ], [ 3.441208524587783, 6.421021458961761 ], [ 3.449528081384448, 6.421195142264131 ], [ 3.453869435816112, 6.422095903074424 ], [ 3.493296072658998, 6.422059439170907 ], [ 3.519701486543975, 6.422576069373934 ], [ 3.527840330812671, 6.422929575754463 ], [ 3.530192006133767, 6.423469893679473 ], [ 3.537788103454585, 6.423642886268953 ], [ 3.537969338326777, 6.424004527254445 ], [ 3.540501498827523, 6.424182775542461 ], [ 3.587704253178083, 6.423949844317272 ], [ 3.592405603713357, 6.423220769117456 ], [ 3.592766053907771, 6.422134867699679 ], [ 3.592948162767922, 6.42322014102409 ], [ 3.594033700272595, 6.423580710603321 ], [ 3.602895920771311, 6.423932177894073 ], [ 3.603619972018374, 6.424474065655809 ], [ 3.606513835022249, 6.42465155845679 ], [ 3.637258765296027, 6.424614204279353 ], [ 3.643044208818372, 6.423159669930412 ], [ 3.64467073181266, 6.422253062905486 ], [ 3.645755837052131, 6.422251695576753 ], [ 3.648832362672985, 6.423876015720954 ], [ 3.651364050419777, 6.423691888562327 ], [ 3.652086303639825, 6.422786408904325 ], [ 3.653352259179081, 6.42278479499713 ], [ 3.654258592414885, 6.424411845219037 ], [ 3.6548011463139, 6.424411151451161 ], [ 3.655161460585638, 6.423325218875785 ], [ 3.655884864105365, 6.42332429260424 ], [ 3.656245870618578, 6.422781094314249 ], [ 3.656608267518538, 6.423323365310685 ], [ 3.657693140185194, 6.423141060917759 ], [ 3.658412359066822, 6.419883723697487 ], [ 3.659855895456987, 6.417349101082552 ], [ 3.660218291488108, 6.417891369640657 ], [ 3.66148469966913, 6.418251559735036 ], [ 3.661845229799538, 6.417346535514255 ], [ 3.663110233667076, 6.416621253331976 ], [ 3.664014943267161, 6.416981905211296 ], [ 3.664375936798019, 6.416438702398188 ], [ 3.665100502423246, 6.417342320655757 ], [ 3.666366441186617, 6.417340675960279 ], [ 3.666911104148989, 6.418968171234846 ], [ 3.668538744199581, 6.418966049766206 ], [ 3.669263320585851, 6.419869660918557 ], [ 3.669450551714759, 6.424754024565297 ], [ 3.670174191871941, 6.424933988959468 ], [ 3.680664013988732, 6.425281968303787 ], [ 3.680845345649918, 6.425643549072325 ], [ 3.684282234077024, 6.426181697738272 ], [ 3.698389070265784, 6.426524460278376 ], [ 3.7106886388512, 6.42777389442231 ], [ 3.717380350777102, 6.42794546447576 ], [ 3.723712148056898, 6.429383821082075 ], [ 3.731489226094211, 6.429734575788659 ], [ 3.741256699512175, 6.430805964463513 ], [ 3.741438336151389, 6.431348426968918 ], [ 3.755547047845142, 6.432955946282703 ], [ 3.763866696992426, 6.433305397434527 ], [ 3.764952609403043, 6.433846496438198 ], [ 3.767484512661618, 6.43384270088471 ], [ 3.77616723420154, 6.435095939581453 ], [ 3.781052951717713, 6.436897565023964 ], [ 3.784127412063603, 6.436892855444437 ], [ 3.788288088316998, 6.437610079017171 ], [ 3.793171051952973, 6.437602520474907 ], [ 3.793714164954126, 6.437963489672058 ], [ 3.806918229310559, 6.439209142345692 ], [ 3.83241804706928, 6.439168215457447 ], [ 3.867500784527417, 6.43802440892597 ], [ 3.902765164758137, 6.437601497283866 ], [ 3.910359690290063, 6.437045315982935 ], [ 3.913071066769791, 6.436316873501485 ], [ 3.918134377789437, 6.436126898997304 ], [ 3.924461947636554, 6.435030087263403 ], [ 3.940375117644852, 6.434458352881977 ], [ 3.945436689239167, 6.433363618543471 ], [ 3.957009513752109, 6.43279938577704 ], [ 3.958455900460228, 6.432615777277649 ], [ 3.959177227729011, 6.431529032804171 ], [ 3.960623269577233, 6.431164520928609 ], [ 3.979606565086967, 6.428595938498724 ], [ 3.979966855878286, 6.427871658268886 ], [ 3.992624423220034, 6.427304564168725 ] ] } }
]
}
