{
"type": "FeatureCollection",
"name": "shoreline_2017-05-21",
"crs": { "type": "name", "properties": { "name": "urn:ogc:def:crs:OGC:1.3:CRS84" } },
"features": [
{ "type": "Feature", "properties": { "date": "2017-05-21", "scene_id": "S2A_MSIL2A_20170521T100031_N0500_R122_T31NFH_20230908T033050", "tile": "31NFH", "cloud_cover": 3.83 }, "geometry": { "type": "LineString", "coordinates": [ [ 3.904933385512317, 6.436512253050633 ], [ 3.918676909582316, 6.43612592378767 ], [ 3.919580152938059, 6.435581597187824 ], [ 3.93531153206348, 6.434467645069593 ], [ 3.940011438216907, 6.4333736245724 ], [ 3.950319071664181, 6.433173665487146 ], [ 3.962793348599384, 6.431160439319141 ], [ 3.964962061589433, 6.430432757887718 ], [ 3.972193914864277, 6.4295145705407 ], [ 3.973819054142641, 6.428245193823515 ], [ 3.98321984964745, 6.426780032304108 ], [ 3.988825099634762, 6.426407436150118 ], [ 3.989547747449656, 6.426044245067032 ], [ 4.001120915794576, 6.425840837590181 ], [ 4.005640388995827, 6.425108391245709 ], [ 4.005820158571631, 6.424565349489276 ], [ 4.007808633064222, 6.424199645839033 ], [ 4.014679278408606, 6.423643384801347 ], [ 4.015219988968288, 6.422737834430706 ], [ 4.019559282252971, 6.422367420473649 ], [ 4.022631647344802, 6.421456816833468 ], [ 4.028960074368066, 6.421082349621926 ], [ 4.036190445983243, 6.419620614397408 ], [ 4.042157519119956, 6.419427614179865 ], [ 4.051014160935384, 6.417419687533887 ], [ 4.060596269563296, 6.416495476999874 ], [ 4.064210599141425, 6.415402626145549 ], [ 4.068368523686778, 6.414851297793216 ], [ 4.069271533133983, 6.414306736851501 ], [ 4.072887710886022, 6.414118288711811 ], [ 4.076863638018946, 6.413024598749041 ], [ 4.079937314855882, 6.412837241881725 ], [ 4.080297825843499, 6.412293806313556 ], [ 4.082106090753288, 6.412289993567749 ], [ 4.084274096225739, 6.411380954829437 ], [ 4.090059369554493, 6.410826016494743 ], [ 4.091865699509751, 6.40991771741612 ], [ 4.096926090015222, 6.408640683636383 ], [ 4.106689803746512, 6.408257935050868 ], [ 4.113557951540387, 6.406795954404595 ], [ 4.115002961109822, 6.406069256903489 ], [ 4.12639117014741, 6.404416387110454 ], [ 4.127836149155141, 6.403689657742058 ], [ 4.136512724660207, 6.402404304522568 ], [ 4.141753273991243, 6.400945572848289 ], [ 4.153141181657426, 6.399292144597339 ], [ 4.154044050913794, 6.398747454412246 ], [ 4.162357542018111, 6.396919844026625 ], [ 4.172841140579626, 6.395268050091484 ], [ 4.173020718216808, 6.394724980862534 ], [ 4.175732935449417, 6.39471878589752 ], [ 4.184227036319789, 6.392890433973669 ], [ 4.193988413837329, 6.391782553586082 ], [ 4.205194087075639, 6.389766691779745 ], [ 4.213690471667742, 6.389023185165152 ], [ 4.21423204834946, 6.388660139786433 ], [ 4.222908753141156, 6.387735177928059 ], [ 4.225619162403712, 6.38700519837554 ], [ 4.227969670071712, 6.386999596541036 ], [ 4.249658668331319, 6.383691532063211 ], [ 4.265386926970727, 6.382929606297487 ], [ 4.273339618255735, 6.381824727810717 ], [ 4.280390036428174, 6.381445493939479 ], [ 4.283281526038511, 6.380895661871969 ], [ 4.290693952937474, 6.380696267870187 ], [ 4.300996885679686, 6.379585087904819 ], [ 4.303527176872357, 6.379216938088441 ], [ 4.303707062716517, 6.378854727348602 ], [ 4.30623826182767, 6.378848318379895 ], [ 4.320154256396128, 6.376642340820484 ], [ 4.322141180538511, 6.375913743034944 ], [ 4.335152962487946, 6.373709707006022 ], [ 4.33786255633187, 6.37279830878319 ], [ 4.348528989226088, 6.372589661458933 ] ] } }
]
}
