{
"type": "FeatureCollection",
"name": "shoreline_2023-01-10",
"crs": { "type": "name", "properties": { "name": "urn:ogc:def:crs:OGC:1.3:CRS84" } },
"features": [
{ "type": "Feature", "properties": { "date": "2023-01-10", "scene_id": "S2A_MSIL2A_20230110T100401_N0510_R122_T31NEH_20240810T212703", "tile": "31NEH", "cloud_cover": 0.0 }, "geometry": { "type": "LineString", "coordinates": [ [ 3.017633217417319, 6.396982515625385 ], [ 3.045303910879519, 6.398232210347674 ], [ 3.051272161371923, 6.39895534414819 ], [ 3.136093236737378, 6.401110959619328 ], [ 3.137359362896955, 6.401653392174579 ], [ 3.143689375373775, 6.402013506759836 ], [ 3.162498314346625, 6.402188823712057 ], [ 3.165934726927459, 6.402730493850914 ], [ 3.178594808279633, 6.403449938776734 ], [ 3.189988596747937, 6.403264927215745 ], [ 3.206627441148598, 6.403801269669327 ], [ 3.242075010737796, 6.403966704752523 ], [ 3.263054097931916, 6.403956386094184 ], [ 3.299043472037505, 6.403032081922908 ], [ 3.308447615212453, 6.402664677695272 ], [ 3.309894110881533, 6.402121043693402 ], [ 3.312425937839102, 6.401938588878596 ], [ 3.349320158566314, 6.402457584336781 ], [ 3.349679647748251, 6.399200772798824 ], [ 3.356190152685267, 6.399015380972054 ], [ 3.363604389282817, 6.39810558774849 ], [ 3.380242462118821, 6.397912627763818 ], [ 3.382593644193469, 6.398091802690688 ], [ 3.387297363424496, 6.4002453985082 ], [ 3.390914383279361, 6.400256576101794 ], [ 3.391999899591575, 6.400798507644117 ], [ 3.394712935886258, 6.401158269296793 ], [ 3.399415192338213, 6.401335554139818 ], [ 3.402671778429699, 6.402961285386118 ], [ 3.40646907878588, 6.402234617169658 ], [ 3.410266944273663, 6.402231597600989 ], [ 3.412256882100449, 6.402953680577292 ], [ 3.4128001613962, 6.403857839503684 ], [ 3.413704563037766, 6.40403803069896 ], [ 3.413886434415925, 6.405304317352771 ], [ 3.420397092610707, 6.405299027213515 ], [ 3.422749353350532, 6.406744446182224 ], [ 3.424015317202948, 6.406743401921518 ], [ 3.424920924141779, 6.408370921837827 ], [ 3.427091154018429, 6.408369120128018 ], [ 3.431432980063443, 6.409993755408287 ], [ 3.437220888001039, 6.410712529066705 ], [ 3.439391898595354, 6.411615265984165 ], [ 3.443732689621899, 6.411973365408935 ], [ 3.44427556283095, 6.412334731964402 ], [ 3.444463942376321, 6.421018644108049 ], [ 3.451517820750391, 6.421555227956047 ], [ 3.453507882632525, 6.422277141390864 ], [ 3.512105208528815, 6.422221890366378 ], [ 3.515903711678642, 6.422760826376281 ], [ 3.52892546029571, 6.422928455886282 ], [ 3.532542933285855, 6.423286537721906 ], [ 3.534894613457119, 6.423826833492835 ], [ 3.53507584644752, 6.424188475664756 ], [ 3.540501880635778, 6.42454460638866 ], [ 3.594577099502652, 6.4243037356439 ], [ 3.595843493629023, 6.42466409093789 ], [ 3.616279891415358, 6.424639893117592 ], [ 3.619535677172223, 6.424997789023707 ], [ 3.645035850531475, 6.424966287250832 ], [ 3.668185539549314, 6.425479323328735 ], [ 3.670175138820532, 6.425657633207746 ], [ 3.671803748387061, 6.426379143142824 ], [ 3.680484365321714, 6.426186762157275 ], [ 3.685910618196089, 6.426722250032259 ], [ 3.70688978051846, 6.427055517529821 ], [ 3.710507035273904, 6.427231417112162 ], [ 3.711773992421475, 6.427953295355434 ], [ 3.715572101725564, 6.428128906575302 ], [ 3.717924169849479, 6.42884924939787 ], [ 3.729137914837659, 6.429557024207029 ], [ 3.731128559483859, 6.430458727614703 ], [ 3.745236719616323, 6.431704721925299 ], [ 3.747046279475575, 6.432425714697284 ], [ 3.757717251718575, 6.432952734094858 ], [ 3.763144106143093, 6.433849199870812 ], [ 3.76603960790858, 6.435111221557102 ], [ 3.779604766690225, 6.435995241981494 ], [ 3.782861735130228, 6.437075703361261 ], [ 3.792267641117664, 6.438146641788056 ], [ 3.800949596060886, 6.438856725902987 ], [ 3.824460966800645, 6.439362028165884 ], [ 3.849598680906714, 6.439139922888186 ], [ 3.85249134839298, 6.438592391171902 ], [ 3.872565427079321, 6.438558490742549 ], [ 3.875459908743363, 6.439096245651627 ], [ 3.87781433931642, 6.441082132544329 ], [ 3.879624061958227, 6.441802627702543 ], [ 3.883783247678923, 6.441614541818559 ], [ 3.884144316652769, 6.441252112079646 ], [ 3.89626107603347, 6.441230984464637 ], [ 3.896438748818662, 6.439421655707734 ], [ 3.908012565585028, 6.439220306786945 ], [ 3.909458685804095, 6.438855931413039 ], [ 3.909817478237857, 6.437227182975645 ], [ 3.910902224240426, 6.437044348890809 ], [ 3.91831652155253, 6.436850174192294 ], [ 3.919400935835944, 6.436486422604773 ], [ 3.924465218662233, 6.436839084662519 ], [ 3.927900265507986, 6.436290156674284 ], [ 3.930248926300739, 6.435019585456684 ], [ 3.935673216995259, 6.434466983005127 ], [ 3.942002697136727, 6.43445535545641 ], [ 3.943628273189256, 6.433366960282306 ], [ 3.944893830333447, 6.43318372303728 ], [ 3.958997743963153, 6.432252963888211 ], [ 3.962070329239542, 6.431342698683793 ], [ 3.964420906942379, 6.431157372070178 ], [ 3.966588591482963, 6.429886991368921 ], [ 3.972735399680819, 6.428970847248273 ], [ 3.980691246605525, 6.428412962570735 ], [ 3.982136561372124, 6.427686599945461 ], [ 3.99262477396779, 6.427485460344617 ] ] } }
]
}
