{
"type": "FeatureCollection",
"name": "shoreline_2019-01-06",
"crs": { "type": "name", "properties": { "name": "urn:ogc:def:crs:OGC:1.3:CRS84" } },
"features": [
{ "type": "Feature", "properties": { "date": "2019-01-06", "scene_id": "S2B_MSIL2A_20190106T100409_N0500_R122_T31NEH_20221202T051220", "tile": "31NEH", "cloud_cover": 0.03 }, "geometry": { "type": "LineString", "coordinates": [ [ 2.999909573213399, 6.397148664792121 ], [ 3.018175790186935, 6.397329267169258 ], [ 3.056336096775312, 6.399135737577041 ], [ 3.081113227961376, 6.399856118046242 ], [ 3.133018617217569, 6.400749918510197 ], [ 3.133561274259907, 6.401111624137822 ], [ 3.138263490074135, 6.401110380099699 ], [ 3.139348714747127, 6.401471933201949 ], [ 3.157796038299965, 6.402009366830239 ], [ 3.165753872153662, 6.402730552250672 ], [ 3.18022231202253, 6.402906601803403 ], [ 3.194329246379788, 6.403625148348476 ], [ 3.26341571328526, 6.40377527892423 ], [ 3.307543242543531, 6.402484298913306 ], [ 3.314776799167657, 6.40157531159135 ], [ 3.345701291869837, 6.399746226022622 ], [ 3.378070801286834, 6.395924111432628 ], [ 3.397240792393731, 6.395909657047382 ], [ 3.397422899001005, 6.397537791340504 ], [ 3.399774361794326, 6.398078725975254 ], [ 3.415333686611445, 6.405845905522799 ], [ 3.420578388478853, 6.405841635343521 ], [ 3.431432371944897, 6.409270081539477 ], [ 3.446807038104172, 6.411789777999175 ], [ 3.447169059742504, 6.412151298891847 ], [ 3.447357803775822, 6.421197042643738 ], [ 3.450974932758565, 6.421193870235338 ], [ 3.458390850600971, 6.422091875523856 ], [ 3.495647195046451, 6.4220571688159 ], [ 3.526573974295988, 6.422569047667515 ], [ 3.526936056096063, 6.42293050722131 ], [ 3.540320071347869, 6.423640220177769 ], [ 3.569075915743154, 6.423609062374161 ], [ 3.594939016298304, 6.424484229082681 ], [ 3.630567014537786, 6.424441579011924 ], [ 3.679940611375466, 6.425282929879017 ], [ 3.686814387531129, 6.426359216231644 ], [ 3.717560947353169, 6.427764301623974 ], [ 3.722626534609449, 6.429023537284808 ], [ 3.731850667824474, 6.429553149710303 ], [ 3.738362834273055, 6.430629242412732 ], [ 3.74288435102496, 6.430803602470743 ], [ 3.744693905195096, 6.431524604344632 ], [ 3.75844145750948, 6.433494383844399 ], [ 3.761335063526, 6.433490082139056 ], [ 3.761516721913197, 6.434032534864126 ], [ 3.762421244002666, 6.434212094122535 ], [ 3.776168607291518, 6.436000473269598 ], [ 3.782318075733843, 6.436352908633022 ], [ 3.78249947995983, 6.436714444600393 ], [ 3.788287251364695, 6.437067360419942 ], [ 3.792629061807061, 6.437965174628491 ], [ 3.802938951029676, 6.438853602222116 ], [ 3.824822082020166, 6.438999635001828 ], [ 3.904934666472849, 6.437235855947491 ], [ 3.915964573889499, 6.436311694248641 ], [ 3.924461620585614, 6.434849187516373 ], [ 3.937119624842972, 6.434283433091003 ], [ 3.942723731380679, 6.433187729940288 ], [ 3.947787293454191, 6.433178366173655 ], [ 3.953571851745534, 6.431901315594621 ], [ 3.9579116849177, 6.431712304069596 ], [ 3.965503897368949, 6.430069938603978 ], [ 3.980690206889911, 6.427870272099369 ], [ 3.992625124725623, 6.427666356519215 ] ] } }
]
}
