{
"type": "FeatureCollection",
"name": "shoreline_2020-01-26",
"crs": { "type": "name", "properties": { "name": "urn:ogc:def:crs:OGC:1.3:CRS84" } },
"features": [
{ "type": "Feature", "properties": { "date": "2020-01-26", "scene_id": "S2A_MSIL2A_20200126T100321_N0500_R122_T31NEH_20230429T154603", "tile": "31NEH", "cloud_cover": 1.29 }, "geometry": { "type": "LineString", "coordinates": [ [ 2.999909573245201, 6.39696774107369 ], [ 3.022697130812465, 6.39732908740975 ], [ 3.026314230976242, 6.397871686054147 ], [ 3.046931612444471, 6.398412987940665 ], [ 3.063570308382865, 6.39949674076202 ], [ 3.117465014403272, 6.400210940198122 ], [ 3.117826805856124, 6.400572703995687 ], [ 3.120720518459211, 6.400752955500838 ], [ 3.131210073660322, 6.400750383589422 ], [ 3.140795600694631, 6.401652461820381 ], [ 3.15616829194001, 6.401828941278551 ], [ 3.167743274572469, 6.402729906350667 ], [ 3.181669149546164, 6.402906092049466 ], [ 3.187275841605639, 6.403446846362513 ], [ 3.265043492310703, 6.403955363109327 ], [ 3.277883925151513, 6.403586731731132 ], [ 3.27987302006814, 6.403042886849178 ], [ 3.308809320956801, 6.402664460339808 ], [ 3.324904527532053, 6.401569005614691 ], [ 3.343169254367377, 6.39956700282693 ], [ 3.356913555503611, 6.399014879045623 ], [ 3.35854083324941, 6.398470985565221 ], [ 3.364870212560349, 6.397923770552105 ], [ 3.368486566903636, 6.397016590334033 ], [ 3.372645979383963, 6.396832671885336 ], [ 3.377889952105343, 6.395924244391518 ], [ 3.394528060505024, 6.395911745894209 ], [ 3.397060083246763, 6.396090716102008 ], [ 3.397242189385601, 6.397718850479166 ], [ 3.399955351944804, 6.39825950454488 ], [ 3.400317473450411, 6.398801980727138 ], [ 3.402488377684729, 6.3997048816433 ], [ 3.402669794385639, 6.400428416748043 ], [ 3.407373189256613, 6.40205298169209 ], [ 3.410991938502193, 6.404221128150162 ], [ 3.415152980967379, 6.406026970690178 ], [ 3.420397684804763, 6.406022702236982 ], [ 3.424015914629537, 6.407467076565378 ], [ 3.431975234391213, 6.409631461935069 ], [ 3.442647101454379, 6.411431548584027 ], [ 3.449158287535127, 6.411968642386165 ], [ 3.44952015238097, 6.412149243485475 ], [ 3.449708937822208, 6.421194983484053 ], [ 3.454954414998046, 6.421914022301219 ], [ 3.465625437002695, 6.422447183464502 ], [ 3.526754829133009, 6.422568861640221 ], [ 3.526936056096063, 6.42293050722131 ], [ 3.539777697519127, 6.423821707986368 ], [ 3.568895262736036, 6.42379017793604 ], [ 3.594034959091827, 6.424666193044534 ], [ 3.680302312695914, 6.425282449219188 ], [ 3.680483644115423, 6.425644030142825 ], [ 3.686452928474762, 6.426540612015882 ], [ 3.705081277591351, 6.42705801290435 ], [ 3.71900800189419, 6.427943179489172 ], [ 3.722083983591456, 6.429024303487796 ], [ 3.725339288707849, 6.429019697639418 ], [ 3.725882352472339, 6.429380745739118 ], [ 3.72986131579728, 6.429555992414454 ], [ 3.738363095318278, 6.430810150772553 ], [ 3.742160950427965, 6.430804652884767 ], [ 3.744694168515486, 6.431705512437706 ], [ 3.751568072073543, 6.432780903571228 ], [ 3.757175504256845, 6.433496260690741 ], [ 3.760792512548426, 6.43349088995626 ], [ 3.761155020900943, 6.43403307364666 ], [ 3.766219645387706, 6.434568228919717 ], [ 3.769657164722555, 6.435467600781421 ], [ 3.78937291247673, 6.437427497223513 ], [ 3.798417688313971, 6.438860690292756 ], [ 3.826811718390255, 6.439177322730571 ], [ 3.846342510043688, 6.43860261728558 ], [ 3.848331540900566, 6.438418413470077 ], [ 3.848873183997391, 6.437874801729008 ], [ 3.851223302899751, 6.437328179269078 ], [ 3.852664351822146, 6.433888604091801 ], [ 3.853026044540757, 6.433888000567832 ], [ 3.853740374171693, 6.428459694909559 ], [ 3.854643991979874, 6.428096378507353 ], [ 3.85482392996359, 6.427553366646323 ], [ 3.855547306001436, 6.427552157472739 ], [ 3.856259794734328, 6.42103843242213 ], [ 3.856802319671154, 6.421037525031823 ], [ 3.857647652080394, 6.385759873725793 ], [ 3.858551797867658, 6.385758366926755 ], [ 3.858731722663336, 6.385215355338968 ], [ 3.861263326920474, 6.385211127331258 ], [ 3.864684261083946, 6.376371268334975 ], [ 3.86595003972871, 6.376369144188583 ], [ 3.866490643316884, 6.375252664128385 ], [ 3.867214652732814, 6.375673555412817 ], [ 3.869381050728362, 6.373589518387184 ], [ 3.870101655449551, 6.371990323387942 ], [ 3.870816717589387, 6.367104725514727 ], [ 3.872441672670503, 6.365654755956296 ], [ 3.873345779692136, 6.365653227986104 ], [ 3.873525684075987, 6.365110213875059 ], [ 3.875876052243242, 6.364925330603384 ], [ 3.876778623363099, 6.364019283676204 ], [ 3.878224266544918, 6.363474118970833 ], [ 3.880575854926766, 6.364012825339487 ], [ 3.881481499114979, 6.364915795502449 ], [ 3.884558236073876, 6.366538660878 ], [ 3.892332912418266, 6.366163480697979 ], [ 3.89305525730127, 6.365619525050263 ], [ 3.894140179569175, 6.365617648009898 ], [ 3.895222282461306, 6.363987653253515 ], [ 3.896126067484666, 6.363805184141823 ], [ 3.897209415778559, 6.362898793052675 ], [ 3.898836474246079, 6.362715063204502 ], [ 3.901894005990727, 6.353302832683842 ], [ 3.923914471431729, 6.331374964822712 ], [ 3.924279624270132, 6.333364226481704 ], [ 3.924822690930009, 6.333725061231889 ], [ 3.925375428461005, 6.339512906944483 ], [ 3.925557205790589, 6.340055285345193 ], [ 3.926280445090796, 6.340053993912049 ], [ 3.926466099235772, 6.342767175395543 ], [ 3.927190958640058, 6.343670383394384 ], [ 3.927555492108554, 6.345297838299855 ], [ 3.927743425142534, 6.349277318827864 ], [ 3.928289752568769, 6.351447148380115 ], [ 3.929195767543073, 6.352530926784903 ], [ 3.929926494863571, 6.356690328424494 ], [ 3.935895360988697, 6.35776496384312 ], [ 3.936258300894244, 6.358487907937891 ], [ 3.936981891217247, 6.358667497435776 ], [ 3.950362894705236, 6.359004874617593 ], [ 3.951265972861711, 6.358460515329488 ], [ 3.952712491963905, 6.358457852070449 ], [ 3.953975528398042, 6.357008328390621 ], [ 3.960302679870692, 6.356273022578855 ], [ 3.961383531446252, 6.354100226740665 ], [ 3.96626547529966, 6.354091132723208 ], [ 3.966447300657028, 6.354633489355018 ], [ 3.967170551709616, 6.354632137808102 ], [ 3.967353392125528, 6.355717188101123 ], [ 3.9718747355749, 6.356251408419304 ], [ 3.972056567611757, 6.356793762026149 ], [ 3.974045512606726, 6.356790020012058 ], [ 3.974408841453532, 6.357693827133723 ], [ 3.979474352262514, 6.359131441629677 ], [ 3.979656878325833, 6.36003558584953 ], [ 3.981829391544159, 6.361478647179809 ], [ 3.982009519083082, 6.361116509202356 ], [ 3.982915652405196, 6.362200173690995 ], [ 3.991956713634171, 6.362363795179583 ] ] } }
]
}
