{
"type": "FeatureCollection",
"name": "shoreline_2025-01-24",
"crs": { "type": "name", "properties": { "name": "urn:ogc:def:crs:OGC:1.3:CRS84" } },
"features": [
{ "type": "Feature", "properties": { "date": "2025-01-24", "scene_id": "S2B_MSIL2A_20250124T100219_N0511_R022_T31NEH_20250124T125425", "tile": "31NEH", "cloud_cover": 11.306559 }, "geometry": { "type": "LineString", "coordinates": [ [ 2.999909573213399, 6.397148664792121 ], [ 3.033910102589243, 6.398052164719974 ], [ 3.058687242410664, 6.399497321662936 ], [ 3.138263538731664, 6.40129130325878 ], [ 3.142965906197374, 6.401832785503438 ], [ 3.151646927875005, 6.401830295999495 ], [ 3.159423897906647, 6.402551633146549 ], [ 3.189084456237345, 6.403627106320176 ], [ 3.268841426127614, 6.403953388736583 ], [ 3.306096635316647, 6.402847005376387 ], [ 3.357275131204964, 6.398833707535765 ], [ 3.377528386480821, 6.396105429890888 ], [ 3.394528199232251, 6.396092665302678 ], [ 3.397964047479711, 6.395728178270097 ], [ 3.39814643632695, 6.397718150816876 ], [ 3.399231532523159, 6.397717309122356 ], [ 3.406287513040864, 6.401330164724936 ], [ 3.408277298991597, 6.40187134466229 ], [ 3.415149619250323, 6.401865836231665 ], [ 3.420030658501727, 6.399509922084165 ], [ 3.420934906007226, 6.399509182124701 ], [ 3.43830368953231, 6.407997828462087 ], [ 3.4388487199103, 6.410892057404781 ], [ 3.446264321203544, 6.411609332292096 ], [ 3.446632958889992, 6.419569411868488 ], [ 3.448984719587499, 6.420291028419548 ], [ 3.451154992873245, 6.420289121413578 ], [ 3.452421624126267, 6.421011676247431 ], [ 3.454411364015996, 6.421371750606642 ], [ 3.467794888525737, 6.421540617923927 ], [ 3.473944662405658, 6.422258633201666 ], [ 3.511743678939602, 6.422403168265792 ], [ 3.529829921812659, 6.42310843665558 ], [ 3.530553716226347, 6.423469518952856 ], [ 3.536884018554982, 6.423824750945519 ], [ 3.537065632271772, 6.424548223347953 ], [ 3.578843040891286, 6.424502684262066 ], [ 3.675781044209108, 6.425288439097457 ], [ 3.685728798155294, 6.425998850551549 ], [ 3.694592682877022, 6.4276150904146 ], [ 3.702550365314645, 6.427785134949258 ], [ 3.705625823396054, 6.428504542497138 ], [ 3.723530274706906, 6.428660441052243 ], [ 3.724073081079502, 6.428840582311873 ], [ 3.724440160058708, 6.432639157600156 ], [ 3.726069364348145, 6.433722301527034 ], [ 3.726615775874889, 6.436435162633328 ], [ 3.73873263462786, 6.436236878130511 ] ] } }
]
}
