{
"type": "FeatureCollection",
"name": "baseline",
"crs": { "type": "name", "properties": { "name": "urn:ogc:def:crs:OGC:1.3:CRS84" } },
"features": [
{ "type": "Feature", "properties": { "name": "smoothed_baseline" }, "geometry": { "type": "LineString", "coordinates": [ [ 3.000000505725131, 6.397206407658268 ], [ 3.002219726557859, 6.397198792177119 ], [ 3.004449241820746, 6.397203890691071 ], [ 3.006688173662114, 6.397220959843973 ], [ 3.008935644218539, 6.397249256294309 ], [ 3.011190775614542, 6.397288036715348 ], [ 3.013452689962291, 6.397336557795316 ], [ 3.015720509361351, 6.397394076237515 ], [ 3.017993355898435, 6.397459848760454 ], [ 3.020270351647196, 6.397533132097958 ], [ 3.02255061866804, 6.397613182999258 ], [ 3.024833279007963, 6.397699258229071 ], [ 3.027117454700415, 6.39779061456766 ], [ 3.029402267765188, 6.397886508810881 ], [ 3.031686840208328, 6.397986197770229 ], [ 3.033970294021914, 6.398088938272607 ], [ 3.036253505377275, 6.398193072465884 ], [ 3.038534509503918, 6.398298443558073 ], [ 3.040811658089387, 6.398404244871377 ], [ 3.043083224192288, 6.398509715728188 ], [ 3.045347553107256, 6.398614107354403 ], [ 3.047603017275892, 6.398716751128648 ], [ 3.049848106044784, 6.398817103226421 ], [ 3.052081435676008, 6.398914740875486 ], [ 3.054301784945215, 6.39900901030044 ], [ 3.05650814311432, 6.399099605214749 ], [ 3.058699687955939, 6.399185970862199 ], [ 3.060875859837169, 6.399267807248803 ], [ 3.06303638226437, 6.399344915086689 ], [ 3.065181285792807, 6.399417231156059 ], [ 3.067310869293813, 6.399484786593545 ], [ 3.069425383914023, 6.399547948076588 ], [ 3.071526238617718, 6.399606818847395 ], [ 3.073615108221685, 6.399662062342762 ], [ 3.075695448182281, 6.399714115747909 ], [ 3.077773150713085, 6.399763227926745 ], [ 3.079852880500793, 6.39980966192807 ], [ 3.081939357522284, 6.399853725634381 ], [ 3.084036765287755, 6.399895576335078 ], [ 3.086146240096106, 6.39993557596548 ], [ 3.088269252529785, 6.399974443229093 ], [ 3.090406725300917, 6.400012362735907 ], [ 3.092559337981292, 6.400049723368489 ], [ 3.094727430352166, 6.400086938623958 ], [ 3.096910867902656, 6.400124781290688 ], [ 3.099109593058863, 6.400163715610774 ], [ 3.101322565384343, 6.400204028755045 ], [ 3.103548626140967, 6.400245892357887 ], [ 3.105786266069622, 6.400289727617039 ], [ 3.108033852834076, 6.400335915174305 ], [ 3.110289821209923, 6.400384670570224 ], [ 3.112552358717931, 6.40043627729771 ], [ 3.114819640009644, 6.400491054384198 ], [ 3.117089791744274, 6.40054920008609 ], [ 3.119361193180442, 6.400610814017661 ], [ 3.121632813706942, 6.400676401174246 ], [ 3.123902994080513, 6.40074564279964 ], [ 3.126170181721438, 6.400819025355482 ], [ 3.128433180565384, 6.400896680096575 ], [ 3.130691203071874, 6.400978647634091 ], [ 3.132943931063615, 6.401064947181417 ], [ 3.135191713174854, 6.401155746135219 ], [ 3.137436680526939, 6.401250593744977 ], [ 3.139680291434501, 6.401349356319175 ], [ 3.141924706924504, 6.401451052154651 ], [ 3.144171372757096, 6.401554834376285 ], [ 3.146419129410322, 6.401660241635319 ], [ 3.148668491813176, 6.401767021831213 ], [ 3.150919464246962, 6.401874943671558 ], [ 3.153172337187039, 6.401983781671888 ], [ 3.15542868903673, 6.402093083287492 ], [ 3.157688854986073, 6.402201914259738 ], [ 3.15995327366716, 6.402310062621416 ], [ 3.162222110139731, 6.402416924650393 ], [ 3.164495273843666, 6.40252188720572 ], [ 3.166772720407606, 6.402624112143962 ], [ 3.169053181542001, 6.402722978984114 ], [ 3.171336313899404, 6.402817962223415 ], [ 3.173621349901138, 6.402908741649647 ], [ 3.175906160261785, 6.402994788269175 ], [ 3.178188641690295, 6.403075630192784 ], [ 3.180468610816509, 6.403151203232033 ], [ 3.182747594720294, 6.403221565068791 ], [ 3.185028234444375, 6.403286790150616 ], [ 3.1873155822749, 6.403347034811045 ], [ 3.189613658137335, 6.403402196331919 ], [ 3.191924477531526, 6.403451876612826 ], [ 3.194249865563358, 6.403496579921012 ], [ 3.196589811214588, 6.40353613247278 ], [ 3.198942429130853, 6.403570724082488 ], [ 3.201304278138912, 6.403600707772043 ], [ 3.203670642609894, 6.403626462606576 ], [ 3.206035748157197, 6.403648155564976 ], [ 3.20839222119855, 6.403666209268405 ], [ 3.210732525814206, 6.403680774116979 ], [ 3.213048679680649, 6.403692440434706 ], [ 3.215332852316335, 6.403701933941893 ], [ 3.217578565365696, 6.403709811515665 ], [ 3.219779081848914, 6.403716588768671 ], [ 3.221928311932159, 6.403722775570042 ], [ 3.224020337236894, 6.403728560692846 ], [ 3.226049671509866, 6.403734448032031 ], [ 3.228012223788379, 6.403741069853718 ], [ 3.229904893613114, 6.403748560904377 ], [ 3.231725819890705, 6.403757105122383 ], [ 3.2334745284356, 6.403766729826859 ], [ 3.235151871558192, 6.403777494003457 ], [ 3.236760926528272, 6.403789268574977 ], [ 3.238306291504283, 6.403801790120802 ], [ 3.239794998579462, 6.403814706918861 ], [ 3.241240727964593, 6.403827742324867 ], [ 3.242662446184254, 6.403840621177702 ], [ 3.244079894709774, 6.403852748376525 ], [ 3.245512840016922, 6.403863507190579 ], [ 3.246980413273064, 6.403872121835724 ], [ 3.248495748860274, 6.403877844030748 ], [ 3.250069500807513, 6.403880258592098 ], [ 3.251709231148493, 6.403879194073848 ], [ 3.253418608235082, 6.403874228063716 ], [ 3.2551995346159, 6.403865168748326 ], [ 3.257052392121291, 6.403851826845239 ], [ 3.258976114192171, 6.403834088361909 ], [ 3.260968294738194, 6.403811783439314 ], [ 3.263025147252649, 6.403784782892748 ], [ 3.265141722343769, 6.403752984096774 ], [ 3.267312608044985, 6.403716514126341 ], [ 3.269531604728768, 6.40367556341748 ], [ 3.271791820705972, 6.403630568495131 ], [ 3.274085902993268, 6.403581906734544 ], [ 3.276405715277847, 6.403530012630916 ], [ 3.278741673348559, 6.403474914156122 ], [ 3.281084448974092, 6.403417553104912 ], [ 3.283426979966996, 6.403358085776571 ], [ 3.285763932545789, 6.403296487171001 ], [ 3.288092785434832, 6.403232363734423 ], [ 3.290413512856708, 6.40316495303729 ], [ 3.292725689526903, 6.403093543663499 ], [ 3.295032000824414, 6.403017266183826 ], [ 3.297337205000307, 6.402935016364809 ], [ 3.299644867849218, 6.402846252540825 ], [ 3.301959632322566, 6.402750321567722 ], [ 3.304283068409435, 6.402646579138389 ], [ 3.306616171393083, 6.402534148152865 ], [ 3.308956290675215, 6.402413218112355 ], [ 3.31129834770836, 6.402283744946711 ], [ 3.31363371075742, 6.402146529242406 ], [ 3.315954966575206, 6.40200233966422 ], [ 3.318249816829173, 6.401852398534357 ], [ 3.320508053687522, 6.401697439413085 ], [ 3.322720591691848, 6.401539059158964 ], [ 3.324879476682557, 6.401378854372816 ], [ 3.326979613869801, 6.401218145548026 ], [ 3.329017828616688, 6.401057494018133 ], [ 3.330987850587213, 6.400897952362937 ], [ 3.332882944155471, 6.400740853362215 ], [ 3.334702367935695, 6.400587128759089 ], [ 3.336440995826817, 6.400437864638597 ], [ 3.338092973289371, 6.400294486119402 ], [ 3.339654797337715, 6.40015757861487 ], [ 3.341125123836207, 6.400027836495225 ], [ 3.342506032347181, 6.399905412904979 ], [ 3.343806233674752, 6.399790681064683 ], [ 3.34503966197883, 6.399682481043635 ], [ 3.34622231595784, 6.399579402289748 ], [ 3.347370550978759, 6.399479833574068 ], [ 3.348498102154764, 6.399382186395473 ], [ 3.349616217804873, 6.399285038692773 ], [ 3.35074154165201, 6.399186648198466 ], [ 3.351883041264494, 6.399085504266689 ], [ 3.353042479534853, 6.39898087804786 ], [ 3.354221652645335, 6.398871466269069 ], [ 3.355419276400597, 6.398756271730095 ], [ 3.356634273500099, 6.39863468919206 ], [ 3.357858292166099, 6.398507208384657 ], [ 3.359083628263978, 6.398374080548153 ], [ 3.360299725807358, 6.398236743404321 ], [ 3.361496525380622, 6.398096297584706 ], [ 3.362662799670195, 6.397953998270272 ], [ 3.36379789923381, 6.397810398969186 ], [ 3.364902204574418, 6.39766742091072 ], [ 3.365979200651375, 6.397525446609563 ], [ 3.367033932804328, 6.397384809546829 ], [ 3.368067563692649, 6.397245959901252 ], [ 3.369076255772351, 6.39711081017782 ], [ 3.370082013674824, 6.396980816156703 ], [ 3.371076667369436, 6.396862659784334 ], [ 3.372045014775248, 6.396756724156742 ], [ 3.372985787819344, 6.396659899308789 ], [ 3.373918097720476, 6.396575696902998 ], [ 3.374836963607987, 6.39649659410065 ], [ 3.375744469439113, 6.396417133676443 ], [ 3.376648644875935, 6.396333958391226 ], [ 3.377562620296739, 6.396245462242028 ], [ 3.378496217278643, 6.396151976749794 ], [ 3.379457278853512, 6.396055205113705 ], [ 3.38045494792326, 6.395957342132265 ], [ 3.381499581934737, 6.395861158282479 ], [ 3.382602188770928, 6.395770108994101 ], [ 3.383759600443594, 6.395688559010815 ], [ 3.384966445126429, 6.395621165791201 ], [ 3.386218883323257, 6.395572662709691 ], [ 3.387511500780028, 6.39554873143233 ], [ 3.388841107807688, 6.395555238020376 ], [ 3.39019875210942, 6.395597078488014 ], [ 3.391579013824822, 6.39567966732841 ], [ 3.392977101943919, 6.395808004816502 ], [ 3.394394490322568, 6.395986266817603 ], [ 3.395838017606187, 6.396217698200751 ], [ 3.397318556369879, 6.396505270958177 ], [ 3.398843865486563, 6.396851689345474 ], [ 3.400420993673521, 6.39725810270371 ], [ 3.402055660707117, 6.397725881703958 ], [ 3.40375038255135, 6.39825524256089 ], [ 3.405502759013876, 6.398844531980289 ], [ 3.407312785621107, 6.39949033149982 ], [ 3.409124325484808, 6.400200009672605 ], [ 3.410932703725225, 6.400947123919518 ], [ 3.412734789237481, 6.401708722401116 ], [ 3.414519712489045, 6.402469685003526 ], [ 3.416240277680376, 6.403198944878364 ], [ 3.417898756227421, 6.403888861334147 ], [ 3.419497588481094, 6.404534994406535 ], [ 3.421038263527004, 6.405135195889857 ], [ 3.422514024763799, 6.405688381602782 ], [ 3.423923061867823, 6.406194291606633 ], [ 3.425265617841218, 6.40665435074627 ], [ 3.426540227241896, 6.407071772335636 ], [ 3.42774460918925, 6.407451622515696 ], [ 3.428871021328512, 6.407800247948932 ], [ 3.429917518391108, 6.408124809935271 ], [ 3.430887911724946, 6.408433686569999 ], [ 3.431788118574821, 6.408735803209718 ], [ 3.432626274157713, 6.40903944081134 ], [ 3.433406620361076, 6.409352494621736 ], [ 3.434143134247092, 6.409684942212862 ], [ 3.434852682898166, 6.410045761264191 ], [ 3.435555090197995, 6.410443320579425 ], [ 3.436270220772182, 6.410884759056886 ], [ 3.437016402789415, 6.411376460626541 ], [ 3.437810384291571, 6.411923062300031 ], [ 3.438666926262159, 6.412527205232345 ], [ 3.439598109829518, 6.413189176595913 ], [ 3.440608602150784, 6.413905335990434 ], [ 3.441696023813912, 6.414668903135306 ], [ 3.44286082944942, 6.415471606983527 ], [ 3.444096433912818, 6.416301646278209 ], [ 3.445418649173676, 6.417110413321592 ], [ 3.446820902352276, 6.417880872683385 ], [ 3.448303332025792, 6.418604231613646 ], [ 3.449866958185418, 6.419270644980851 ], [ 3.451530921448076, 6.41988306249913 ], [ 3.453290742009153, 6.420438134791961 ], [ 3.455139564686074, 6.420932500484689 ], [ 3.457068862793971, 6.421363506748063 ], [ 3.459073274608424, 6.421730112330268 ], [ 3.461144901707259, 6.422033549414523 ], [ 3.463274833358439, 6.422275853549957 ], [ 3.465454126752785, 6.422460344031132 ], [ 3.46767298827565, 6.422591208789837 ], [ 3.469924064405666, 6.422673888233942 ], [ 3.472201493402469, 6.422713783493191 ], [ 3.47449830739117, 6.422716454431042 ], [ 3.476807859917091, 6.422688063314233 ], [ 3.479123882911542, 6.422635848227605 ], [ 3.481444818604228, 6.422567971971605 ], [ 3.483767286126121, 6.422491751815679 ], [ 3.486088554672007, 6.422414192824063 ], [ 3.488406485273959, 6.42234180229297 ], [ 3.490719439282125, 6.42228045501941 ], [ 3.493025995440739, 6.42223487348532 ], [ 3.49532516237938, 6.422208335680478 ], [ 3.497615875038583, 6.422202438043106 ], [ 3.499896799050192, 6.422216813178227 ], [ 3.502168704440879, 6.422249691244459 ], [ 3.504434910164782, 6.42229738294225 ], [ 3.506695160551743, 6.422352697183032 ], [ 3.508948711762446, 6.422405698271093 ], [ 3.511199716334888, 6.42246545578911 ], [ 3.513453470129355, 6.422535133853292 ], [ 3.515709799275416, 6.422614286840053 ], [ 3.517966171855995, 6.42270170595836 ], [ 3.52022085769309, 6.42279618740181 ], [ 3.522473848751799, 6.422896245910712 ], [ 3.524725210801141, 6.423000617352998 ], [ 3.526972202313047, 6.423108024114476 ], [ 3.529216946666379, 6.423217081214707 ], [ 3.531461354631103, 6.423325971224076 ], [ 3.533706845951047, 6.42343302509119 ], [ 3.535954425042314, 6.423536601151081 ], [ 3.538204374300405, 6.42363507672876 ], [ 3.540458205551212, 6.423725630347056 ], [ 3.542716035998628, 6.423806957285695 ], [ 3.544977621777635, 6.42387874652397 ], [ 3.547242428039994, 6.42394103073647 ], [ 3.549509677989854, 6.423994104683673 ], [ 3.551778398564789, 6.42403862316961 ], [ 3.554047464111342, 6.424075259818587 ], [ 3.556315638358131, 6.424104847281348 ], [ 3.558581614727137, 6.42412834708499 ], [ 3.560844055609986, 6.424146817471309 ], [ 3.563101629074007, 6.42416137926781 ], [ 3.565353043759762, 6.424173179832955 ], [ 3.567597080871009, 6.424183355119452 ], [ 3.569832626209258, 6.424192989894792 ], [ 3.572058619932572, 6.424203075779774 ], [ 3.57427416808646, 6.424214469494592 ], [ 3.576478651630641, 6.424227996583597 ], [ 3.578671440506774, 6.424243560097213 ], [ 3.580852529258027, 6.424261464994646 ], [ 3.583022030622483, 6.42428184992709 ], [ 3.585180865848919, 6.42430475381422 ], [ 3.587329395447342, 6.424330217139626 ], [ 3.589468059832458, 6.424358142006555 ], [ 3.591598189352089, 6.424388091165949 ], [ 3.593722687623791, 6.424419366763864 ], [ 3.59585109044568, 6.424451406228071 ], [ 3.597985583581888, 6.424483593335894 ], [ 3.60012942406103, 6.424515327335365 ], [ 3.602286690330451, 6.424546092752809 ], [ 3.604460066481185, 6.424575368095564 ], [ 3.606652104895192, 6.424602690012073 ], [ 3.608862970374684, 6.424628502817262 ], [ 3.611091723709951, 6.424653131563001 ], [ 3.613336130090165, 6.424676769365748 ], [ 3.615591641083389, 6.424699601453975 ], [ 3.617855038021198, 6.424721846777316 ], [ 3.620126459403314, 6.424743407685276 ], [ 3.62240378521722, 6.424764457368065 ], [ 3.624682985882595, 6.424785205893827 ], [ 3.626958496794694, 6.424805928830932 ], [ 3.629223216528384, 6.424826791179978 ], [ 3.631469760585869, 6.424848055474857 ], [ 3.633690278772087, 6.424869604559038 ], [ 3.635876704332267, 6.424890879150574 ], [ 3.6380210331599, 6.424911133914088 ], [ 3.640115755971447, 6.424929764106619 ], [ 3.642154194131374, 6.424946303958674 ], [ 3.644130526581654, 6.424960388716032 ], [ 3.646040786947941, 6.424972306124093 ], [ 3.6478818334529, 6.424982234685969 ], [ 3.649652521625674, 6.424990564038126 ], [ 3.65135228215767, 6.424998005272009 ], [ 3.652984259571616, 6.425005105587942 ], [ 3.654555081702398, 6.425012372419097 ], [ 3.656073633749937, 6.425020747910511 ], [ 3.657548792616189, 6.425030844751873 ], [ 3.658989323368905, 6.425043305332608 ], [ 3.660408524003753, 6.425059299252159 ], [ 3.661817976020307, 6.425080034583909 ], [ 3.663226407234817, 6.425105993036393 ], [ 3.664643259465501, 6.425137330453272 ], [ 3.666077274309444, 6.425174112975395 ], [ 3.667536804782623, 6.425216768019916 ], [ 3.669030720058526, 6.425265964190428 ], [ 3.670568722709631, 6.425322281561246 ], [ 3.672165032207753, 6.425386071773501 ], [ 3.673831393016197, 6.425457624334572 ], [ 3.675568594735571, 6.425537057954351 ], [ 3.677376522650485, 6.425625048017826 ], [ 3.679253693935659, 6.425721601162047 ], [ 3.68119732527795, 6.425826152018269 ], [ 3.68320444045558, 6.425937698497894 ], [ 3.685270227267558, 6.426054700225321 ], [ 3.687388936563554, 6.426175713199705 ], [ 3.689554114408244, 6.426300266695956 ], [ 3.691759028329342, 6.426428225001373 ], [ 3.693996618134086, 6.426559894117279 ], [ 3.696259829851832, 6.426696487464525 ], [ 3.69854206838457, 6.426838558428152 ], [ 3.700837004193358, 6.426986643388479 ], [ 3.703139167586194, 6.427141522896132 ], [ 3.70544373631814, 6.427303560488585 ], [ 3.707747635474306, 6.427473118993378 ], [ 3.710048334189865, 6.427650994774851 ], [ 3.712343334122825, 6.427837808873823 ], [ 3.714630781510273, 6.428033842133516 ], [ 3.71691075653146, 6.428239727885529 ], [ 3.719182180496122, 6.428456400496748 ], [ 3.721443248187247, 6.428683100715769 ], [ 3.723693150376892, 6.428919087861982 ], [ 3.725932974657755, 6.429163731852022 ], [ 3.728163930940899, 6.429417113117149 ], [ 3.730388110117911, 6.429679605617441 ], [ 3.732608498480344, 6.429951388353327 ], [ 3.734828253554316, 6.430231842279219 ], [ 3.737050038791488, 6.430520128136675 ], [ 3.739272620769157, 6.430815496973139 ], [ 3.741492953222302, 6.431117082342917 ], [ 3.743712627970397, 6.431424696942559 ], [ 3.745932232650744, 6.431736465028585 ], [ 3.74815218753191, 6.432050922495043 ], [ 3.750372850551959, 6.43236680090522 ], [ 3.752593969197375, 6.432683433893338 ], [ 3.754815509955593, 6.433000336400639 ], [ 3.757037391509236, 6.433317522877919 ], [ 3.759259645358864, 6.433634505744826 ], [ 3.761482109976515, 6.433951453486394 ], [ 3.763704976585577, 6.434268279783663 ], [ 3.765928557530304, 6.434582931580418 ], [ 3.768153062252505, 6.434894321665499 ], [ 3.770378370326097, 6.435201257631677 ], [ 3.772604427449161, 6.435502388107773 ], [ 3.774831189326108, 6.43579735003453 ], [ 3.777058803037463, 6.436085290973537 ], [ 3.779287245873904, 6.436365195066131 ], [ 3.781516986492393, 6.436636399642019 ], [ 3.783748402758851, 6.436897484511904 ], [ 3.785981629201553, 6.437147695959899 ], [ 3.788216825924993, 6.437385444932683 ], [ 3.790454119152272, 6.43761065364165 ], [ 3.79269343855752, 6.437821882009207 ], [ 3.794934750644288, 6.438018638937343 ], [ 3.797178402926936, 6.438200000635693 ], [ 3.799424385409788, 6.438365099479539 ], [ 3.801672713053725, 6.438512893244928 ], [ 3.803923418149468, 6.438642991021145 ], [ 3.806176542292493, 6.438755261290128 ], [ 3.80843220471208, 6.438850007210034 ], [ 3.810690621105511, 6.438927881436024 ], [ 3.812951149239865, 6.438989213482395 ], [ 3.815213441697317, 6.439035162208675 ], [ 3.817477192985431, 6.439066870177651 ], [ 3.819742140320142, 6.439085582549698 ], [ 3.822008020834011, 6.439092283307904 ], [ 3.824274588451966, 6.439088089931722 ], [ 3.826541663724415, 6.43907393547379 ], [ 3.828809052516726, 6.43905091613061 ], [ 3.831076722851408, 6.439019554348763 ], [ 3.833344519695157, 6.438980158046793 ], [ 3.835612201052782, 6.438933924222802 ], [ 3.83787953728537, 6.438881626613568 ], [ 3.840146503020794, 6.4388244322693 ], [ 3.842413108155658, 6.438763724834801 ], [ 3.844679360251836, 6.438700231750983 ], [ 3.846945326835411, 6.438635211748691 ], [ 3.849211241670647, 6.43856975004864 ], [ 3.851477071074369, 6.438504379161659 ], [ 3.853742777896099, 6.438440263299349 ], [ 3.85600844835561, 6.438378056913871 ], [ 3.858274199818781, 6.43831865138073 ], [ 3.860540135746523, 6.438261928849084 ], [ 3.862806379068811, 6.438208537919315 ], [ 3.865072981834283, 6.438158240215659 ], [ 3.867339770305695, 6.43811083522087 ], [ 3.869606649730519, 6.438065727393965 ], [ 3.871873438974567, 6.438022038986955 ], [ 3.874140261514299, 6.437978790577378 ], [ 3.876406999745852, 6.437936160904369 ], [ 3.878673519884525, 6.4378938825189 ], [ 3.880939727182767, 6.437851227804936 ], [ 3.883205347109038, 6.437806650283239 ], [ 3.885470295929432, 6.437758503745905 ], [ 3.887734732316022, 6.437705682552901 ], [ 3.889998522023153, 6.437647171112527 ], [ 3.892260751442507, 6.4375817464502 ], [ 3.8945218628403, 6.437508307228078 ], [ 3.896782120633223, 6.437425373281338 ], [ 3.899041681741, 6.437331717282753 ], [ 3.901300720624784, 6.437226651788123 ], [ 3.903559307323079, 6.437109526486172 ], [ 3.905817442730216, 6.43697962522088 ], [ 3.908075127679224, 6.436837158893344 ], [ 3.910332167743661, 6.436682948355446 ], [ 3.912588396207995, 6.436517652037018 ], [ 3.914843226486735, 6.436341391898332 ], [ 3.917096930092984, 6.436155262299582 ], [ 3.919349600010035, 6.435960269544483 ], [ 3.921601282498256, 6.435757707376773 ], [ 3.923851908279477, 6.435548924920598 ], [ 3.926101291713976, 6.435334554603248 ], [ 3.928349106401282, 6.435114137976553 ], [ 3.930594895972249, 6.434887251147168 ], [ 3.932838219180841, 6.434653282982265 ], [ 3.935078647271173, 6.434411793748823 ], [ 3.93731579000212, 6.434162292033711 ], [ 3.939549350603515, 6.433904454967406 ], [ 3.941779210503812, 6.433638545206325 ], [ 3.944004977689139, 6.433365197738786 ], [ 3.946226500409087, 6.433084053075095 ], [ 3.948443704521847, 6.432794783124051 ], [ 3.95065655793717, 6.432497218160158 ], [ 3.952865345388845, 6.432192028941087 ], [ 3.955070323365697, 6.431880363644495 ], [ 3.957271530491402, 6.43156311320759 ], [ 3.959469320992557, 6.431241157006079 ], [ 3.961665344798803, 6.430913454544476 ], [ 3.963860578408875, 6.430586957339277 ], [ 3.966055558620602, 6.430263319968635 ], [ 3.968250822256646, 6.429944196997267 ], [ 3.970446906164733, 6.42963124297667 ], [ 3.972644347217747, 6.429326112445057 ], [ 3.97484368231385, 6.42903045992732 ], [ 3.977045448376658, 6.428745939934955 ], [ 3.97925018235544, 6.428474206965987 ], [ 3.981458421225387, 6.428216915504869 ], [ 3.9836707019879, 6.427975720022395 ], [ 3.98588756167093, 6.427752274975565 ], [ 3.988109537329359, 6.427548234807476 ], [ 3.990337166045437, 6.427365253947162 ], [ 3.99257098492923, 6.427204986809448 ] ] } }
]
}
