{
"type": "FeatureCollection",
"name": "shorelines_all",
"crs": { "type": "name", "properties": { "name": "urn:ogc:def:crs:OGC:1.3:CRS84" } },
"features": [
{ "type": "Feature", "properties": { "date": "2017-05-21", "scene_id": "S2A_MSIL2A_20170521T100031_N0500_R122_T31NFH_20230908T033050", "tile": "31NFH", "cloud_cover": 3.83 }, "geometry": { "type": "LineString", "coordinates": [ [ 3.904933385512317, 6.436512253050633 ], [ 3.918676909582316, 6.43612592378767 ], [ 3.919580152938059, 6.435581597187824 ], [ 3.93531153206348, 6.434467645069593 ], [ 3.940011438216907, 6.4333736245724 ], [ 3.950319071664181, 6.433173665487146 ], [ 3.962793348599384, 6.431160439319141 ], [ 3.964962061589433, 6.430432757887718 ], [ 3.972193914864277, 6.4295145705407 ], [ 3.973819054142641, 6.428245193823515 ], [ 3.98321984964745, 6.426780032304108 ], [ 3.988825099634762, 6.426407436150118 ], [ 3.989547747449656, 6.426044245067032 ], [ 4.001120915794576, 6.425840837590181 ], [ 4.005640388995827, 6.425108391245709 ], [ 4.005820158571631, 6.424565349489276 ], [ 4.007808633064222, 6.424199645839033 ], [ 4.014679278408606, 6.423643384801347 ], [ 4.015219988968288, 6.422737834430706 ], [ 4.019559282252971, 6.422367420473649 ], [ 4.022631647344802, 6.421456816833468 ], [ 4.028960074368066, 6.421082349621926 ], [ 4.036190445983243, 6.419620614397408 ], [ 4.042157519119956, 6.419427614179865 ], [ 4.051014160935384, 6.417419687533887 ], [ 4.060596269563296, 6.416495476999874 ], [ 4.064210599141425, 6.415402626145549 ], [ 4.068368523686778, 6.414851297793216 ], [ 4.069271533133983, 6.414306736851501 ], [ 4.072887710886022, 6.414118288711811 ], [ 4.076863638018946, 6.413024598749041 ], [ 4.079937314855882, 6.412837241881725 ], [ 4.080297825843499, 6.412293806313556 ], [ 4.082106090753288, 6.412289993567749 ], [ 4.084274096225739, 6.411380954829437 ], [ 4.090059369554493, 6.410826016494743 ], [ 4.091865699509751, 6.40991771741612 ], [ 4.096926090015222, 6.408640683636383 ], [ 4.106689803746512, 6.408257935050868 ], [ 4.113557951540387, 6.406795954404595 ], [ 4.115002961109822, 6.406069256903489 ], [ 4.12639117014741, 6.404416387110454 ], [ 4.127836149155141, 6.403689657742058 ], [ 4.136512724660207, 6.402404304522568 ], [ 4.141753273991243, 6.400945572848289 ], [ 4.153141181657426, 6.399292144597339 ], [ 4.154044050913794, 6.398747454412246 ], [ 4.162357542018111, 6.396919844026625 ], [ 4.172841140579626, 6.395268050091484 ], [ 4.173020718216808, 6.394724980862534 ], [ 4.175732935449417, 6.39471878589752 ], [ 4.184227036319789, 6.392890433973669 ], [ 4.193988413837329, 6.391782553586082 ], [ 4.205194087075639, 6.389766691779745 ], [ 4.213690471667742, 6.389023185165152 ], [ 4.21423204834946, 6.388660139786433 ], [ 4.222908753141156, 6.387735177928059 ], [ 4.225619162403712, 6.38700519837554 ], [ 4.227969670071712, 6.386999596541036 ], [ 4.249658668331319, 6.383691532063211 ], [ 4.265386926970727, 6.382929606297487 ], [ 4.273339618255735, 6.381824727810717 ], [ 4.280390036428174, 6.381445493939479 ], [ 4.283281526038511, 6.380895661871969 ], [ 4.290693952937474, 6.380696267870187 ], [ 4.300996885679686, 6.379585087904819 ], [ 4.303527176872357, 6.379216938088441 ], [ 4.303707062716517, 6.378854727348602 ], [ 4.30623826182767, 6.378848318379895 ], [ 4.320154256396128, 6.376642340820484 ], [ 4.322141180538511, 6.375913743034944 ], [ 4.335152962487946, 6.373709707006022 ], [ 4.33786255633187, 6.37279830878319 ], [ 4.348528989226088, 6.372589661458933 ] ] } },
{ "type": "Feature", "properties": { "date": "2018-01-01", "scene_id": "S2B_MSIL2A_20180101T100409_N0500_R122_T31NEH_20230904T020713", "tile": "31NEH", "cloud_cover": 0.02 }, "geometry": { "type": "LineString", "coordinates": [ [ 3.000090426786584, 6.397148664792121 ], [ 3.021431155450601, 6.397329141751207 ], [ 3.053804138145916, 6.399136008916063 ], [ 3.075325835575867, 6.399495151973637 ], [ 3.08364521810947, 6.400036635609777 ], [ 3.111677677244556, 6.40021223072385 ], [ 3.117103429484673, 6.400753792707811 ], [ 3.133742081666428, 6.400930653891607 ], [ 3.162136719254856, 6.402550783921992 ], [ 3.184020325048337, 6.403086177743567 ], [ 3.189446165954688, 6.403626973007366 ], [ 3.267575354117492, 6.403773128297187 ], [ 3.284936916233684, 6.40304010226253 ], [ 3.304830664383963, 6.402847758340968 ], [ 3.315862024571498, 6.401755566420294 ], [ 3.334670070413693, 6.400839053420655 ], [ 3.336478232695886, 6.400295110434786 ], [ 3.34027611428964, 6.400292609142781 ], [ 3.346786154827335, 6.399383654085595 ], [ 3.360711038672496, 6.398469466932486 ], [ 3.363785239524914, 6.398105459771202 ], [ 3.363965705709958, 6.397562571614507 ], [ 3.367401855909871, 6.397560126955509 ], [ 3.377528253730853, 6.395924510118462 ], [ 3.396155699746788, 6.395910494303621 ], [ 3.397060083246763, 6.396090716102008 ], [ 3.397242049668266, 6.397537931141717 ], [ 3.398327145604142, 6.39753709138002 ], [ 3.405021132080501, 6.400788406998889 ], [ 3.409180975983376, 6.401146948949076 ], [ 3.409363123025064, 6.402775076188947 ], [ 3.410086959688798, 6.403317256108734 ], [ 3.4126188744001, 6.403315228007599 ], [ 3.415332224126736, 6.404036716739575 ], [ 3.421662013991335, 6.404031557854504 ], [ 3.426184039551339, 6.404932418309033 ], [ 3.427631451963241, 6.405654889623807 ], [ 3.430706078434445, 6.405833237849935 ], [ 3.433057909976624, 6.406735852116849 ], [ 3.435770992661038, 6.407095392876442 ], [ 3.436135308523347, 6.410170697780494 ], [ 3.439933683197208, 6.410710209627773 ], [ 3.441200120458253, 6.411251876977456 ], [ 3.441381440340173, 6.411794476017683 ], [ 3.442828266806991, 6.411793228824427 ], [ 3.443011931739381, 6.41504959951325 ], [ 3.443373796970373, 6.415230204928369 ], [ 3.443559816388658, 6.421200346179419 ], [ 3.444825969442471, 6.421380166189755 ], [ 3.457667586022734, 6.422273440346405 ], [ 3.502700734580668, 6.422231209519199 ], [ 3.52114832670734, 6.422574598784862 ], [ 3.535617655253118, 6.423464245949431 ], [ 3.569075915743154, 6.423609062374161 ], [ 3.593492188986287, 6.42448590867577 ], [ 3.678493805817661, 6.425284849962562 ], [ 3.678675136028672, 6.425646431661462 ], [ 3.686814630189911, 6.426540126659281 ], [ 3.704900427259233, 6.427058262090295 ], [ 3.718827151799247, 6.427943433632247 ], [ 3.719370464754545, 6.428485398447561 ], [ 3.722083983591456, 6.429024303487796 ], [ 3.732031776727464, 6.429733799524681 ], [ 3.738905646251059, 6.430809367086558 ], [ 3.742341800588522, 6.43080439037718 ], [ 3.742704288670508, 6.431346589707129 ], [ 3.743789653528825, 6.431525920548888 ], [ 3.750663023207017, 6.432239508672714 ], [ 3.757356354744588, 6.433495992761752 ], [ 3.759888260764655, 6.433492235038829 ], [ 3.760431618783701, 6.434034150444002 ], [ 3.77707340997217, 6.436360912243029 ], [ 3.780690421555154, 6.43635539827194 ], [ 3.781957204998961, 6.436896181773656 ], [ 3.803120085737044, 6.439034223400029 ], [ 3.831875204997249, 6.438988195267425 ], [ 3.903849916159996, 6.437418677713971 ], [ 3.91216781366365, 6.436861189743513 ], [ 3.913975288000012, 6.436315256744701 ], [ 3.917592170598495, 6.436308773720032 ], [ 3.923558058091008, 6.435212622044952 ], [ 3.937842994032345, 6.434282106184997 ], [ 3.940735470987728, 6.43373409159095 ], [ 3.940915647318486, 6.433371960898329 ], [ 3.949053182795274, 6.433176017397329 ], [ 3.95411471092161, 6.432081201643851 ], [ 3.962793348599384, 6.431160439319141 ], [ 3.963334846377693, 6.430616724257615 ], [ 3.979968241163552, 6.428595245718759 ], [ 3.98087104461793, 6.427869925397236 ], [ 3.992625475493535, 6.427847252692518 ] ] } },
{ "type": "Feature", "properties": { "date": "2018-01-06", "scene_id": "S2A_MSIL2A_20180106T100401_N0500_R122_T31NEH_20230802T011345", "tile": "31NEH", "cloud_cover": 0.01 }, "geometry": { "type": "LineString", "coordinates": [ [ 3.000090426818387, 6.39732958850928 ], [ 3.015101278493949, 6.397329366689213 ], [ 3.060314931118112, 6.399497133185213 ], [ 3.085996355427, 6.400217170973913 ], [ 3.107156319278393, 6.400213193589249 ], [ 3.126146150997184, 6.400751651941294 ], [ 3.136093236737378, 6.401110959619328 ], [ 3.141338214254379, 6.401833235952528 ], [ 3.149295818179092, 6.401830984726431 ], [ 3.162317631133856, 6.402731649745968 ], [ 3.190893004746973, 6.403626437208395 ], [ 3.26703288636388, 6.403954332417325 ], [ 3.283851795816342, 6.403040703162938 ], [ 3.306639194241218, 6.402846681722029 ], [ 3.330510711531666, 6.401203587630776 ], [ 3.33394666332475, 6.400839524168329 ], [ 3.334127162381799, 6.400296644785441 ], [ 3.340637817219378, 6.400292369460384 ], [ 3.356009301971635, 6.399015506294552 ], [ 3.357817431325076, 6.398471489739713 ], [ 3.364689362404048, 6.397923898907541 ], [ 3.36486995589241, 6.397561930510203 ], [ 3.369391205410968, 6.397558701127859 ], [ 3.378432632706208, 6.39610476507748 ], [ 3.397060083246763, 6.396090716102008 ], [ 3.397242049668266, 6.397537931141717 ], [ 3.399593512323365, 6.398078866615655 ], [ 3.414971982903147, 6.405846198042902 ], [ 3.420397536749846, 6.405841783483027 ], [ 3.426367443707348, 6.408007884521985 ], [ 3.436135462225321, 6.410351616130105 ], [ 3.448615569787303, 6.411788199239202 ], [ 3.448804814028874, 6.421376694706804 ], [ 3.453688418981353, 6.42191514551244 ], [ 3.458029299245154, 6.422273116919608 ], [ 3.522233456607663, 6.422573493160335 ], [ 3.530915238808026, 6.423288228255777 ], [ 3.568895061824645, 6.423609263381961 ], [ 3.574863441093266, 6.423783510759313 ], [ 3.575225554979496, 6.42414493315471 ], [ 3.592407068249119, 6.424487165687191 ], [ 3.666738023364777, 6.424938476670387 ], [ 3.674876789996194, 6.425289632281038 ], [ 3.680845345649918, 6.425643549072325 ], [ 3.685729524960834, 6.426541581962208 ], [ 3.717922901215089, 6.427944703388834 ], [ 3.726425160185014, 6.429560884318546 ], [ 3.740171598164863, 6.43080753624779 ], [ 3.755366731787714, 6.433318028825814 ], [ 3.759164859198737, 6.43349330995339 ], [ 3.768390938049837, 6.435288598913393 ], [ 3.801492431242216, 6.439036780363763 ], [ 3.839470861523795, 6.438975766651063 ], [ 3.850140022215088, 6.438415406514929 ], [ 3.905477201444861, 6.437234894587951 ], [ 3.917592170598495, 6.436308773720032 ], [ 3.923738901430945, 6.435212295165746 ], [ 3.937119624842972, 6.434283433091003 ], [ 3.941819856181225, 6.433370295625291 ], [ 3.949234024091184, 6.433175681602028 ], [ 3.953030003878163, 6.4322641237518 ], [ 3.979968241163552, 6.428595245718759 ], [ 3.982498583721731, 6.427866802202525 ], [ 3.992625475493535, 6.427847252692518 ] ] } },
{ "type": "Feature", "properties": { "date": "2019-01-06", "scene_id": "S2B_MSIL2A_20190106T100409_N0500_R122_T31NEH_20221202T051220", "tile": "31NEH", "cloud_cover": 0.03 }, "geometry": { "type": "LineString", "coordinates": [ [ 2.999909573213399, 6.397148664792121 ], [ 3.018175790186935, 6.397329267169258 ], [ 3.056336096775312, 6.399135737577041 ], [ 3.081113227961376, 6.399856118046242 ], [ 3.133018617217569, 6.400749918510197 ], [ 3.133561274259907, 6.401111624137822 ], [ 3.138263490074135, 6.401110380099699 ], [ 3.139348714747127, 6.401471933201949 ], [ 3.157796038299965, 6.402009366830239 ], [ 3.165753872153662, 6.402730552250672 ], [ 3.18022231202253, 6.402906601803403 ], [ 3.194329246379788, 6.403625148348476 ], [ 3.26341571328526, 6.40377527892423 ], [ 3.307543242543531, 6.402484298913306 ], [ 3.314776799167657, 6.40157531159135 ], [ 3.345701291869837, 6.399746226022622 ], [ 3.378070801286834, 6.395924111432628 ], [ 3.397240792393731, 6.395909657047382 ], [ 3.397422899001005, 6.397537791340504 ], [ 3.399774361794326, 6.398078725975254 ], [ 3.415333686611445, 6.405845905522799 ], [ 3.420578388478853, 6.405841635343521 ], [ 3.431432371944897, 6.409270081539477 ], [ 3.446807038104172, 6.411789777999175 ], [ 3.447169059742504, 6.412151298891847 ], [ 3.447357803775822, 6.421197042643738 ], [ 3.450974932758565, 6.421193870235338 ], [ 3.458390850600971, 6.422091875523856 ], [ 3.495647195046451, 6.4220571688159 ], [ 3.526573974295988, 6.422569047667515 ], [ 3.526936056096063, 6.42293050722131 ], [ 3.540320071347869, 6.423640220177769 ], [ 3.569075915743154, 6.423609062374161 ], [ 3.594939016298304, 6.424484229082681 ], [ 3.630567014537786, 6.424441579011924 ], [ 3.679940611375466, 6.425282929879017 ], [ 3.686814387531129, 6.426359216231644 ], [ 3.717560947353169, 6.427764301623974 ], [ 3.722626534609449, 6.429023537284808 ], [ 3.731850667824474, 6.429553149710303 ], [ 3.738362834273055, 6.430629242412732 ], [ 3.74288435102496, 6.430803602470743 ], [ 3.744693905195096, 6.431524604344632 ], [ 3.75844145750948, 6.433494383844399 ], [ 3.761335063526, 6.433490082139056 ], [ 3.761516721913197, 6.434032534864126 ], [ 3.762421244002666, 6.434212094122535 ], [ 3.776168607291518, 6.436000473269598 ], [ 3.782318075733843, 6.436352908633022 ], [ 3.78249947995983, 6.436714444600393 ], [ 3.788287251364695, 6.437067360419942 ], [ 3.792629061807061, 6.437965174628491 ], [ 3.802938951029676, 6.438853602222116 ], [ 3.824822082020166, 6.438999635001828 ], [ 3.904934666472849, 6.437235855947491 ], [ 3.915964573889499, 6.436311694248641 ], [ 3.924461620585614, 6.434849187516373 ], [ 3.937119624842972, 6.434283433091003 ], [ 3.942723731380679, 6.433187729940288 ], [ 3.947787293454191, 6.433178366173655 ], [ 3.953571851745534, 6.431901315594621 ], [ 3.9579116849177, 6.431712304069596 ], [ 3.965503897368949, 6.430069938603978 ], [ 3.980690206889911, 6.427870272099369 ], [ 3.992625124725623, 6.427666356519215 ] ] } },
{ "type": "Feature", "properties": { "date": "2020-01-26", "scene_id": "S2A_MSIL2A_20200126T100321_N0500_R122_T31NEH_20230429T154603", "tile": "31NEH", "cloud_cover": 1.29 }, "geometry": { "type": "LineString", "coordinates": [ [ 2.999909573245201, 6.39696774107369 ], [ 3.022697130812465, 6.39732908740975 ], [ 3.026314230976242, 6.397871686054147 ], [ 3.046931612444471, 6.398412987940665 ], [ 3.063570308382865, 6.39949674076202 ], [ 3.117465014403272, 6.400210940198122 ], [ 3.117826805856124, 6.400572703995687 ], [ 3.120720518459211, 6.400752955500838 ], [ 3.131210073660322, 6.400750383589422 ], [ 3.140795600694631, 6.401652461820381 ], [ 3.15616829194001, 6.401828941278551 ], [ 3.167743274572469, 6.402729906350667 ], [ 3.181669149546164, 6.402906092049466 ], [ 3.187275841605639, 6.403446846362513 ], [ 3.265043492310703, 6.403955363109327 ], [ 3.277883925151513, 6.403586731731132 ], [ 3.27987302006814, 6.403042886849178 ], [ 3.308809320956801, 6.402664460339808 ], [ 3.324904527532053, 6.401569005614691 ], [ 3.343169254367377, 6.39956700282693 ], [ 3.356913555503611, 6.399014879045623 ], [ 3.35854083324941, 6.398470985565221 ], [ 3.364870212560349, 6.397923770552105 ], [ 3.368486566903636, 6.397016590334033 ], [ 3.372645979383963, 6.396832671885336 ], [ 3.377889952105343, 6.395924244391518 ], [ 3.394528060505024, 6.395911745894209 ], [ 3.397060083246763, 6.396090716102008 ], [ 3.397242189385601, 6.397718850479166 ], [ 3.399955351944804, 6.39825950454488 ], [ 3.400317473450411, 6.398801980727138 ], [ 3.402488377684729, 6.3997048816433 ], [ 3.402669794385639, 6.400428416748043 ], [ 3.407373189256613, 6.40205298169209 ], [ 3.410991938502193, 6.404221128150162 ], [ 3.415152980967379, 6.406026970690178 ], [ 3.420397684804763, 6.406022702236982 ], [ 3.424015914629537, 6.407467076565378 ], [ 3.431975234391213, 6.409631461935069 ], [ 3.442647101454379, 6.411431548584027 ], [ 3.449158287535127, 6.411968642386165 ], [ 3.44952015238097, 6.412149243485475 ], [ 3.449708937822208, 6.421194983484053 ], [ 3.454954414998046, 6.421914022301219 ], [ 3.465625437002695, 6.422447183464502 ], [ 3.526754829133009, 6.422568861640221 ], [ 3.526936056096063, 6.42293050722131 ], [ 3.539777697519127, 6.423821707986368 ], [ 3.568895262736036, 6.42379017793604 ], [ 3.594034959091827, 6.424666193044534 ], [ 3.680302312695914, 6.425282449219188 ], [ 3.680483644115423, 6.425644030142825 ], [ 3.686452928474762, 6.426540612015882 ], [ 3.705081277591351, 6.42705801290435 ], [ 3.71900800189419, 6.427943179489172 ], [ 3.722083983591456, 6.429024303487796 ], [ 3.725339288707849, 6.429019697639418 ], [ 3.725882352472339, 6.429380745739118 ], [ 3.72986131579728, 6.429555992414454 ], [ 3.738363095318278, 6.430810150772553 ], [ 3.742160950427965, 6.430804652884767 ], [ 3.744694168515486, 6.431705512437706 ], [ 3.751568072073543, 6.432780903571228 ], [ 3.757175504256845, 6.433496260690741 ], [ 3.760792512548426, 6.43349088995626 ], [ 3.761155020900943, 6.43403307364666 ], [ 3.766219645387706, 6.434568228919717 ], [ 3.769657164722555, 6.435467600781421 ], [ 3.78937291247673, 6.437427497223513 ], [ 3.798417688313971, 6.438860690292756 ], [ 3.826811718390255, 6.439177322730571 ], [ 3.846342510043688, 6.43860261728558 ], [ 3.848331540900566, 6.438418413470077 ], [ 3.848873183997391, 6.437874801729008 ], [ 3.851223302899751, 6.437328179269078 ], [ 3.852664351822146, 6.433888604091801 ], [ 3.853026044540757, 6.433888000567832 ], [ 3.853740374171693, 6.428459694909559 ], [ 3.854643991979874, 6.428096378507353 ], [ 3.85482392996359, 6.427553366646323 ], [ 3.855547306001436, 6.427552157472739 ], [ 3.856259794734328, 6.42103843242213 ], [ 3.856802319671154, 6.421037525031823 ], [ 3.857647652080394, 6.385759873725793 ], [ 3.858551797867658, 6.385758366926755 ], [ 3.858731722663336, 6.385215355338968 ], [ 3.861263326920474, 6.385211127331258 ], [ 3.864684261083946, 6.376371268334975 ], [ 3.86595003972871, 6.376369144188583 ], [ 3.866490643316884, 6.375252664128385 ], [ 3.867214652732814, 6.375673555412817 ], [ 3.869381050728362, 6.373589518387184 ], [ 3.870101655449551, 6.371990323387942 ], [ 3.870816717589387, 6.367104725514727 ], [ 3.872441672670503, 6.365654755956296 ], [ 3.873345779692136, 6.365653227986104 ], [ 3.873525684075987, 6.365110213875059 ], [ 3.875876052243242, 6.364925330603384 ], [ 3.876778623363099, 6.364019283676204 ], [ 3.878224266544918, 6.363474118970833 ], [ 3.880575854926766, 6.364012825339487 ], [ 3.881481499114979, 6.364915795502449 ], [ 3.884558236073876, 6.366538660878 ], [ 3.892332912418266, 6.366163480697979 ], [ 3.89305525730127, 6.365619525050263 ], [ 3.894140179569175, 6.365617648009898 ], [ 3.895222282461306, 6.363987653253515 ], [ 3.896126067484666, 6.363805184141823 ], [ 3.897209415778559, 6.362898793052675 ], [ 3.898836474246079, 6.362715063204502 ], [ 3.901894005990727, 6.353302832683842 ], [ 3.923914471431729, 6.331374964822712 ], [ 3.924279624270132, 6.333364226481704 ], [ 3.924822690930009, 6.333725061231889 ], [ 3.925375428461005, 6.339512906944483 ], [ 3.925557205790589, 6.340055285345193 ], [ 3.926280445090796, 6.340053993912049 ], [ 3.926466099235772, 6.342767175395543 ], [ 3.927190958640058, 6.343670383394384 ], [ 3.927555492108554, 6.345297838299855 ], [ 3.927743425142534, 6.349277318827864 ], [ 3.928289752568769, 6.351447148380115 ], [ 3.929195767543073, 6.352530926784903 ], [ 3.929926494863571, 6.356690328424494 ], [ 3.935895360988697, 6.35776496384312 ], [ 3.936258300894244, 6.358487907937891 ], [ 3.936981891217247, 6.358667497435776 ], [ 3.950362894705236, 6.359004874617593 ], [ 3.951265972861711, 6.358460515329488 ], [ 3.952712491963905, 6.358457852070449 ], [ 3.953975528398042, 6.357008328390621 ], [ 3.960302679870692, 6.356273022578855 ], [ 3.961383531446252, 6.354100226740665 ], [ 3.96626547529966, 6.354091132723208 ], [ 3.966447300657028, 6.354633489355018 ], [ 3.967170551709616, 6.354632137808102 ], [ 3.967353392125528, 6.355717188101123 ], [ 3.9718747355749, 6.356251408419304 ], [ 3.972056567611757, 6.356793762026149 ], [ 3.974045512606726, 6.356790020012058 ], [ 3.974408841453532, 6.357693827133723 ], [ 3.979474352262514, 6.359131441629677 ], [ 3.979656878325833, 6.36003558584953 ], [ 3.981829391544159, 6.361478647179809 ], [ 3.982009519083082, 6.361116509202356 ], [ 3.982915652405196, 6.362200173690995 ], [ 3.991956713634171, 6.362363795179583 ] ] } },
{ "type": "Feature", "properties": { "date": "2021-01-20", "scene_id": "S2A_MSIL2A_20210120T100331_N0500_R122_T31NEH_20230603T115026", "tile": "31NEH", "cloud_cover": 4.42 }, "geometry": { "type": "LineString", "coordinates": [ [ 2.999909573181596, 6.39732958850928 ], [ 3.034633518022303, 6.398052116481668 ], [ 3.046931661973247, 6.398955758878414 ], [ 3.073698080610018, 6.399029493285077 ], [ 3.081112037383335, 6.392303940808278 ], [ 3.23899292324493, 6.387685152116308 ], [ 3.242610662931729, 6.389311759502479 ], [ 3.243158425072477, 6.40034775119641 ], [ 3.245510724297931, 6.40287954131212 ], [ 3.245692010676287, 6.403784064825263 ], [ 3.270830724202258, 6.403771421694843 ], [ 3.278607143753734, 6.403224496717035 ], [ 3.305734929351392, 6.402847220827542 ], [ 3.329967923369044, 6.400842095073034 ], [ 3.330510246308681, 6.400479904983141 ], [ 3.332318763298952, 6.400478738366456 ], [ 3.333222552680521, 6.399754470202613 ], [ 3.34280719023312, 6.399024482934861 ], [ 3.343530110719457, 6.398300318111827 ], [ 3.344976916255668, 6.398299348991744 ], [ 3.34515436878688, 6.393233455719137 ], [ 3.345519468274008, 6.398298984521703 ], [ 3.346604572215928, 6.398298253863432 ], [ 3.346782008691728, 6.393232360892561 ], [ 3.349675221348941, 6.392687640749949 ], [ 3.349855209363101, 6.39142107526801 ], [ 3.350578478819423, 6.391239662492276 ], [ 3.352204874127749, 6.389429347597948 ], [ 3.352565330701998, 6.387619896632077 ], [ 3.35310749904379, 6.387076763785804 ], [ 3.354554271554175, 6.387075769444048 ], [ 3.355277034017943, 6.386170669295638 ], [ 3.355457131525678, 6.385085022716691 ], [ 3.357988470212626, 6.38435958793912 ], [ 3.35853062928274, 6.383816449821811 ], [ 3.359254136645278, 6.383996866026239 ], [ 3.359435486642509, 6.384720420753458 ], [ 3.359977391783123, 6.383815440753174 ], [ 3.361604999316458, 6.383814300693879 ], [ 3.361785590647243, 6.38345233333897 ], [ 3.36196668983909, 6.383814046648967 ], [ 3.362502741971617, 6.374586734972755 ], [ 3.363406187936035, 6.37350057742542 ], [ 3.366660565622373, 6.372412753256367 ], [ 3.366839094169733, 6.369156061661517 ], [ 3.370274794646401, 6.368791768461821 ], [ 3.370805558261365, 6.352387951253303 ], [ 3.434653977102224, 6.369284338196665 ], [ 3.435016111193365, 6.369826789536337 ], [ 3.435205796323581, 6.380319917012442 ], [ 3.437944763222476, 6.411254666854343 ], [ 3.441019422766038, 6.411432950735784 ], [ 3.441208524587783, 6.421021458961761 ], [ 3.449528081384448, 6.421195142264131 ], [ 3.453869435816112, 6.422095903074424 ], [ 3.493296072658998, 6.422059439170907 ], [ 3.519701486543975, 6.422576069373934 ], [ 3.527840330812671, 6.422929575754463 ], [ 3.530192006133767, 6.423469893679473 ], [ 3.537788103454585, 6.423642886268953 ], [ 3.537969338326777, 6.424004527254445 ], [ 3.540501498827523, 6.424182775542461 ], [ 3.587704253178083, 6.423949844317272 ], [ 3.592405603713357, 6.423220769117456 ], [ 3.592766053907771, 6.422134867699679 ], [ 3.592948162767922, 6.42322014102409 ], [ 3.594033700272595, 6.423580710603321 ], [ 3.602895920771311, 6.423932177894073 ], [ 3.603619972018374, 6.424474065655809 ], [ 3.606513835022249, 6.42465155845679 ], [ 3.637258765296027, 6.424614204279353 ], [ 3.643044208818372, 6.423159669930412 ], [ 3.64467073181266, 6.422253062905486 ], [ 3.645755837052131, 6.422251695576753 ], [ 3.648832362672985, 6.423876015720954 ], [ 3.651364050419777, 6.423691888562327 ], [ 3.652086303639825, 6.422786408904325 ], [ 3.653352259179081, 6.42278479499713 ], [ 3.654258592414885, 6.424411845219037 ], [ 3.6548011463139, 6.424411151451161 ], [ 3.655161460585638, 6.423325218875785 ], [ 3.655884864105365, 6.42332429260424 ], [ 3.656245870618578, 6.422781094314249 ], [ 3.656608267518538, 6.423323365310685 ], [ 3.657693140185194, 6.423141060917759 ], [ 3.658412359066822, 6.419883723697487 ], [ 3.659855895456987, 6.417349101082552 ], [ 3.660218291488108, 6.417891369640657 ], [ 3.66148469966913, 6.418251559735036 ], [ 3.661845229799538, 6.417346535514255 ], [ 3.663110233667076, 6.416621253331976 ], [ 3.664014943267161, 6.416981905211296 ], [ 3.664375936798019, 6.416438702398188 ], [ 3.665100502423246, 6.417342320655757 ], [ 3.666366441186617, 6.417340675960279 ], [ 3.666911104148989, 6.418968171234846 ], [ 3.668538744199581, 6.418966049766206 ], [ 3.669263320585851, 6.419869660918557 ], [ 3.669450551714759, 6.424754024565297 ], [ 3.670174191871941, 6.424933988959468 ], [ 3.680664013988732, 6.425281968303787 ], [ 3.680845345649918, 6.425643549072325 ], [ 3.684282234077024, 6.426181697738272 ], [ 3.698389070265784, 6.426524460278376 ], [ 3.7106886388512, 6.42777389442231 ], [ 3.717380350777102, 6.42794546447576 ], [ 3.723712148056898, 6.429383821082075 ], [ 3.731489226094211, 6.429734575788659 ], [ 3.741256699512175, 6.430805964463513 ], [ 3.741438336151389, 6.431348426968918 ], [ 3.755547047845142, 6.432955946282703 ], [ 3.763866696992426, 6.433305397434527 ], [ 3.764952609403043, 6.433846496438198 ], [ 3.767484512661618, 6.43384270088471 ], [ 3.77616723420154, 6.435095939581453 ], [ 3.781052951717713, 6.436897565023964 ], [ 3.784127412063603, 6.436892855444437 ], [ 3.788288088316998, 6.437610079017171 ], [ 3.793171051952973, 6.437602520474907 ], [ 3.793714164954126, 6.437963489672058 ], [ 3.806918229310559, 6.439209142345692 ], [ 3.83241804706928, 6.439168215457447 ], [ 3.867500784527417, 6.43802440892597 ], [ 3.902765164758137, 6.437601497283866 ], [ 3.910359690290063, 6.437045315982935 ], [ 3.913071066769791, 6.436316873501485 ], [ 3.918134377789437, 6.436126898997304 ], [ 3.924461947636554, 6.435030087263403 ], [ 3.940375117644852, 6.434458352881977 ], [ 3.945436689239167, 6.433363618543471 ], [ 3.957009513752109, 6.43279938577704 ], [ 3.958455900460228, 6.432615777277649 ], [ 3.959177227729011, 6.431529032804171 ], [ 3.960623269577233, 6.431164520928609 ], [ 3.979606565086967, 6.428595938498724 ], [ 3.979966855878286, 6.427871658268886 ], [ 3.992624423220034, 6.427304564168725 ] ] } },
{ "type": "Feature", "properties": { "date": "2021-12-21", "scene_id": "S2B_MSIL2A_20211221T100329_N0500_R122_T31NEH_20221226T132339", "tile": "31NEH", "cloud_cover": 5.2 }, "geometry": { "type": "LineString", "coordinates": [ [ 3.013835211923801, 6.393939236368322 ], [ 3.015643833882494, 6.397148426752761 ], [ 3.017271522047071, 6.397329298348784 ], [ 3.063931994462595, 6.399315772297809 ], [ 3.131933491099309, 6.400750198321716 ], [ 3.165572959096751, 6.402549687667932 ], [ 3.199754889608053, 6.403623066491892 ], [ 3.266128522685535, 6.403773880162991 ], [ 3.278245338682737, 6.403043771291181 ], [ 3.279872724518344, 6.402500122332198 ], [ 3.280385605764853, 6.347861475765068 ], [ 3.281281051534565, 6.331758934280519 ], [ 3.331740989258236, 6.345660076450483 ], [ 3.595374060043214, 6.331312878597697 ], [ 3.595555502619789, 6.33185541425888 ], [ 3.596821248809577, 6.331853960903637 ], [ 3.597185801172343, 6.334386344918697 ], [ 3.598090118020997, 6.334566218103643 ], [ 3.598635502261857, 6.337098391589322 ], [ 3.599539824185177, 6.33727826173717 ], [ 3.600264369570521, 6.338362910193616 ], [ 3.60098766157902, 6.338362072667306 ], [ 3.601712211524378, 6.339446718627642 ], [ 3.605148908463107, 6.34034729092929 ], [ 3.607140718528468, 6.342696846320955 ], [ 3.609130422571938, 6.343237254157186 ], [ 3.609856272499927, 6.345407368871148 ], [ 3.613114332823797, 6.348117232283933 ], [ 3.614563299952545, 6.35010556712156 ], [ 3.615105779802124, 6.350104922931778 ], [ 3.616011418171817, 6.351370242639163 ], [ 3.617277638200687, 6.351730561742846 ], [ 3.618002241390267, 6.352815179314907 ], [ 3.62071595324082, 6.353897413314523 ], [ 3.622346881497775, 6.356790070819179 ], [ 3.622711150596708, 6.358960594376116 ], [ 3.62433927006392, 6.359501371285204 ], [ 3.624521846497152, 6.360948458147909 ], [ 3.626149316871657, 6.360946489231165 ], [ 3.626511853251923, 6.361669703324255 ], [ 3.627234296835445, 6.360945173773665 ], [ 3.627777664868661, 6.361668167340823 ], [ 3.629585966636565, 6.361665967701757 ], [ 3.629767237276187, 6.362027573318475 ], [ 3.631213437681413, 6.361663982617958 ], [ 3.631755044213306, 6.360939668190686 ], [ 3.632478363422632, 6.360938783628813 ], [ 3.632840908207356, 6.361661992410191 ], [ 3.639350785095341, 6.361653980339614 ], [ 3.639532285889393, 6.362196494471629 ], [ 3.641522088425655, 6.362736766715206 ], [ 3.642246756752285, 6.363821343317512 ], [ 3.64369452618926, 6.364724105284856 ], [ 3.644965081452575, 6.368521686731898 ], [ 3.64641196354836, 6.36870078980954 ], [ 3.646955818699751, 6.369785584099908 ], [ 3.648584445420556, 6.370688102922106 ], [ 3.648947247115869, 6.371592209395663 ], [ 3.649851866949378, 6.371952895933817 ], [ 3.650214671886347, 6.372857001156641 ], [ 3.650757399831283, 6.373037229324804 ], [ 3.652207494838951, 6.375749083736784 ], [ 3.652569163364167, 6.37574862621464 ], [ 3.653114642572825, 6.378099795821678 ], [ 3.653657606121623, 6.378460932234649 ], [ 3.655115321129909, 6.387142867676621 ], [ 3.656744017393653, 6.388045353078048 ], [ 3.656924394419487, 6.387683298689762 ], [ 3.657286532613596, 6.388044660600613 ], [ 3.658914077912934, 6.388042579738128 ], [ 3.660361712071856, 6.388764372497728 ], [ 3.660543478647697, 6.389487787126206 ], [ 3.661628743640966, 6.389667304906589 ], [ 3.664524498317097, 6.39147269184352 ], [ 3.665430097907853, 6.392556991937823 ], [ 3.666153456583799, 6.392556055643625 ], [ 3.666335467176904, 6.393460378568824 ], [ 3.667963261381091, 6.393639178682504 ], [ 3.66832611594517, 6.394543265553464 ], [ 3.671039427005201, 6.395082466574902 ], [ 3.671944809997965, 6.395985841751956 ], [ 3.672126832396837, 6.396890161319591 ], [ 3.673031510481871, 6.397250800532159 ], [ 3.674299532246301, 6.398877341330952 ], [ 3.675023135953481, 6.399057302696885 ], [ 3.675205878032483, 6.40050435353736 ], [ 3.675748642120209, 6.400684551247898 ], [ 3.677017157981981, 6.402672905265258 ], [ 3.679368113899066, 6.402669800751543 ], [ 3.6797307564156, 6.403392965623135 ], [ 3.681177499865532, 6.403391048568025 ], [ 3.681720748538859, 6.403933060966054 ], [ 3.683710503362434, 6.404292237439907 ], [ 3.684616165269104, 6.405376496563209 ], [ 3.685701225976772, 6.40537504838512 ], [ 3.687873526978595, 6.407000339919891 ], [ 3.693299085628405, 6.407173950150494 ], [ 3.694384881945702, 6.407715214025448 ], [ 3.694748283125532, 6.408981096252101 ], [ 3.696015419692101, 6.409883931516779 ], [ 3.696198227209326, 6.41133096756023 ], [ 3.70216611249627, 6.411322832047331 ], [ 3.702709390224845, 6.411864818771708 ], [ 3.704156150486027, 6.411862834371261 ], [ 3.705061369613232, 6.412585231342611 ], [ 3.712114578911174, 6.412756394957684 ], [ 3.712478027375134, 6.414022259203381 ], [ 3.715552651100255, 6.414198886881018 ], [ 3.716097460152001, 6.41582631366795 ], [ 3.717363128464303, 6.415643634093747 ], [ 3.717722795121505, 6.414195853307198 ], [ 3.718446176228896, 6.414194840074933 ], [ 3.718990994113464, 6.415822262764056 ], [ 3.721161143358587, 6.415819213868214 ], [ 3.721532001391503, 6.422331433276675 ], [ 3.722797937274645, 6.422329647793198 ], [ 3.722985424735417, 6.42703302714061 ], [ 3.725156132005736, 6.427391773840732 ], [ 3.725881326214882, 6.428657110224242 ], [ 3.736915250410706, 6.430088604104476 ], [ 3.73782028346457, 6.430630025500999 ], [ 3.742341800588522, 6.43080439037718 ], [ 3.743789390535657, 6.431345012417203 ], [ 3.74993909148082, 6.431878754581245 ], [ 3.753195726023542, 6.432778508027257 ], [ 3.755908481229553, 6.432774503940247 ], [ 3.756813535577549, 6.433315888781117 ], [ 3.763144106143093, 6.433849199870812 ], [ 3.76350634700525, 6.434210474274248 ], [ 3.76820900029123, 6.434565242490047 ], [ 3.768752095384895, 6.434926240787769 ], [ 3.773273629197229, 6.435100326336168 ], [ 3.773455026862248, 6.435461866356163 ], [ 3.777977387875083, 6.436178629495709 ], [ 3.784126857094637, 6.436531042674521 ], [ 3.785393643599676, 6.437071817157349 ], [ 3.788829802592732, 6.437066522957505 ], [ 3.789192061971452, 6.437427776649515 ], [ 3.804566889177925, 6.439031946189685 ], [ 3.834768790200338, 6.438983473873068 ], [ 3.857554786559408, 6.438403011070614 ], [ 3.859724350112751, 6.438037556923888 ], [ 3.903126535592446, 6.437419957130931 ], [ 3.918134377789437, 6.436126898997304 ], [ 3.919218465562565, 6.435582247976119 ], [ 3.923557731350468, 6.43503172225288 ], [ 3.935854059446899, 6.434466651876938 ], [ 3.940915647318486, 6.433371960898329 ], [ 3.949052847142903, 6.432995118915068 ], [ 3.95085991395839, 6.432268164618406 ], [ 3.956103619360296, 6.431896587194302 ], [ 3.958091847694951, 6.431350169187141 ] ] } },
{ "type": "Feature", "properties": { "date": "2022-12-26", "scene_id": "S2B_MSIL2A_20221226T100329_N0510_R122_T31NEH_20240803T090404", "tile": "31NEH", "cloud_cover": 0.011075 }, "geometry": { "type": "LineString", "coordinates": [ [ 2.999909573213399, 6.397148664792121 ], [ 3.031558980193586, 6.397690467092186 ], [ 3.057963804798975, 6.399316480167085 ], [ 3.133380372849259, 6.400930747928776 ], [ 3.175881860666359, 6.403089029428309 ], [ 3.260341286895062, 6.403957768652917 ], [ 3.307181645008684, 6.402665436433429 ], [ 3.320021629542945, 6.401752991768614 ], [ 3.322914925838367, 6.401208418455622 ], [ 3.337744312238075, 6.400475200321017 ], [ 3.348232840399298, 6.399201755295361 ], [ 3.355285899080985, 6.399016006948108 ], [ 3.363061966241506, 6.398286891352827 ], [ 3.377709235733571, 6.396105297055434 ], [ 3.396155839046303, 6.396091413676404 ], [ 3.396337942343429, 6.397719548550718 ], [ 3.397603888174252, 6.397718570805138 ], [ 3.403574329510758, 6.400789545589822 ], [ 3.406287656025009, 6.401511083834142 ], [ 3.409544550605476, 6.403498608099402 ], [ 3.415152980967379, 6.406026970690178 ], [ 3.420759388385882, 6.406022405885822 ], [ 3.427091154018429, 6.408369120128018 ], [ 3.43233693996649, 6.409631157255419 ], [ 3.446445489088466, 6.411971011071764 ], [ 3.446634062424401, 6.420835838026382 ], [ 3.453868955088608, 6.421553149583229 ], [ 3.455859019632096, 6.422275053647965 ], [ 3.508488104814017, 6.422225495094759 ], [ 3.527840330812671, 6.422929575754463 ], [ 3.537245538766604, 6.423643455945157 ], [ 3.537426773271984, 6.424005097154661 ], [ 3.539597414354574, 6.424364645006777 ], [ 3.587704668313911, 6.42431167221253 ], [ 3.672525490677352, 6.425111816107525 ], [ 3.68482502845572, 6.426361882453921 ], [ 3.701825722537126, 6.426881578627267 ], [ 3.718465451587469, 6.427943941726636 ], [ 3.722445684277453, 6.429023792749732 ], [ 3.72787144830908, 6.429197009790664 ], [ 3.738905646251059, 6.430809367086558 ], [ 3.743065463870162, 6.430984247872742 ], [ 3.753014875615222, 6.43277877445467 ], [ 3.755185080009892, 6.432775573104014 ], [ 3.755366464626244, 6.43313712118817 ], [ 3.764591179267051, 6.434027944880267 ], [ 3.766762468071029, 6.434748322353119 ], [ 3.777434286004307, 6.435817641960246 ], [ 3.778701065575982, 6.436358434124016 ], [ 3.788106122035232, 6.436886733236514 ], [ 3.794075865938689, 6.437962927507795 ], [ 3.808545882174299, 6.439206568022372 ], [ 3.843087835545412, 6.438969808568632 ], [ 3.852310198652849, 6.438411789718685 ], [ 3.903488225894569, 6.437419317550455 ], [ 3.915422365413195, 6.436493566804353 ], [ 3.924100261150267, 6.435030741451124 ], [ 3.931695339848703, 6.434836050394097 ], [ 3.937662151749281, 6.434282438007449 ], [ 3.942181539659393, 6.433369629068361 ], [ 3.947787293454191, 6.433178366173655 ], [ 3.953029666867611, 6.432083225472902 ], [ 3.961708309264071, 6.431162481274707 ], [ 3.969300150602794, 6.429339165001731 ], [ 3.96948030413508, 6.428977027401656 ], [ 3.971830863313108, 6.428791668736338 ], [ 3.972011014785942, 6.428429530535509 ], [ 3.975446597882193, 6.428242092882094 ], [ 3.982135173219897, 6.426963012941958 ], [ 3.992623721754756, 6.426942771813055 ] ] } },
{ "type": "Feature", "properties": { "date": "2023-01-10", "scene_id": "S2A_MSIL2A_20230110T100401_N0510_R122_T31NEH_20240810T212703", "tile": "31NEH", "cloud_cover": 0.0 }, "geometry": { "type": "LineString", "coordinates": [ [ 3.017633217417319, 6.396982515625385 ], [ 3.045303910879519, 6.398232210347674 ], [ 3.051272161371923, 6.39895534414819 ], [ 3.136093236737378, 6.401110959619328 ], [ 3.137359362896955, 6.401653392174579 ], [ 3.143689375373775, 6.402013506759836 ], [ 3.162498314346625, 6.402188823712057 ], [ 3.165934726927459, 6.402730493850914 ], [ 3.178594808279633, 6.403449938776734 ], [ 3.189988596747937, 6.403264927215745 ], [ 3.206627441148598, 6.403801269669327 ], [ 3.242075010737796, 6.403966704752523 ], [ 3.263054097931916, 6.403956386094184 ], [ 3.299043472037505, 6.403032081922908 ], [ 3.308447615212453, 6.402664677695272 ], [ 3.309894110881533, 6.402121043693402 ], [ 3.312425937839102, 6.401938588878596 ], [ 3.349320158566314, 6.402457584336781 ], [ 3.349679647748251, 6.399200772798824 ], [ 3.356190152685267, 6.399015380972054 ], [ 3.363604389282817, 6.39810558774849 ], [ 3.380242462118821, 6.397912627763818 ], [ 3.382593644193469, 6.398091802690688 ], [ 3.387297363424496, 6.4002453985082 ], [ 3.390914383279361, 6.400256576101794 ], [ 3.391999899591575, 6.400798507644117 ], [ 3.394712935886258, 6.401158269296793 ], [ 3.399415192338213, 6.401335554139818 ], [ 3.402671778429699, 6.402961285386118 ], [ 3.40646907878588, 6.402234617169658 ], [ 3.410266944273663, 6.402231597600989 ], [ 3.412256882100449, 6.402953680577292 ], [ 3.4128001613962, 6.403857839503684 ], [ 3.413704563037766, 6.40403803069896 ], [ 3.413886434415925, 6.405304317352771 ], [ 3.420397092610707, 6.405299027213515 ], [ 3.422749353350532, 6.406744446182224 ], [ 3.424015317202948, 6.406743401921518 ], [ 3.424920924141779, 6.408370921837827 ], [ 3.427091154018429, 6.408369120128018 ], [ 3.431432980063443, 6.409993755408287 ], [ 3.437220888001039, 6.410712529066705 ], [ 3.439391898595354, 6.411615265984165 ], [ 3.443732689621899, 6.411973365408935 ], [ 3.44427556283095, 6.412334731964402 ], [ 3.444463942376321, 6.421018644108049 ], [ 3.451517820750391, 6.421555227956047 ], [ 3.453507882632525, 6.422277141390864 ], [ 3.512105208528815, 6.422221890366378 ], [ 3.515903711678642, 6.422760826376281 ], [ 3.52892546029571, 6.422928455886282 ], [ 3.532542933285855, 6.423286537721906 ], [ 3.534894613457119, 6.423826833492835 ], [ 3.53507584644752, 6.424188475664756 ], [ 3.540501880635778, 6.42454460638866 ], [ 3.594577099502652, 6.4243037356439 ], [ 3.595843493629023, 6.42466409093789 ], [ 3.616279891415358, 6.424639893117592 ], [ 3.619535677172223, 6.424997789023707 ], [ 3.645035850531475, 6.424966287250832 ], [ 3.668185539549314, 6.425479323328735 ], [ 3.670175138820532, 6.425657633207746 ], [ 3.671803748387061, 6.426379143142824 ], [ 3.680484365321714, 6.426186762157275 ], [ 3.685910618196089, 6.426722250032259 ], [ 3.70688978051846, 6.427055517529821 ], [ 3.710507035273904, 6.427231417112162 ], [ 3.711773992421475, 6.427953295355434 ], [ 3.715572101725564, 6.428128906575302 ], [ 3.717924169849479, 6.42884924939787 ], [ 3.729137914837659, 6.429557024207029 ], [ 3.731128559483859, 6.430458727614703 ], [ 3.745236719616323, 6.431704721925299 ], [ 3.747046279475575, 6.432425714697284 ], [ 3.757717251718575, 6.432952734094858 ], [ 3.763144106143093, 6.433849199870812 ], [ 3.76603960790858, 6.435111221557102 ], [ 3.779604766690225, 6.435995241981494 ], [ 3.782861735130228, 6.437075703361261 ], [ 3.792267641117664, 6.438146641788056 ], [ 3.800949596060886, 6.438856725902987 ], [ 3.824460966800645, 6.439362028165884 ], [ 3.849598680906714, 6.439139922888186 ], [ 3.85249134839298, 6.438592391171902 ], [ 3.872565427079321, 6.438558490742549 ], [ 3.875459908743363, 6.439096245651627 ], [ 3.87781433931642, 6.441082132544329 ], [ 3.879624061958227, 6.441802627702543 ], [ 3.883783247678923, 6.441614541818559 ], [ 3.884144316652769, 6.441252112079646 ], [ 3.89626107603347, 6.441230984464637 ], [ 3.896438748818662, 6.439421655707734 ], [ 3.908012565585028, 6.439220306786945 ], [ 3.909458685804095, 6.438855931413039 ], [ 3.909817478237857, 6.437227182975645 ], [ 3.910902224240426, 6.437044348890809 ], [ 3.91831652155253, 6.436850174192294 ], [ 3.919400935835944, 6.436486422604773 ], [ 3.924465218662233, 6.436839084662519 ], [ 3.927900265507986, 6.436290156674284 ], [ 3.930248926300739, 6.435019585456684 ], [ 3.935673216995259, 6.434466983005127 ], [ 3.942002697136727, 6.43445535545641 ], [ 3.943628273189256, 6.433366960282306 ], [ 3.944893830333447, 6.43318372303728 ], [ 3.958997743963153, 6.432252963888211 ], [ 3.962070329239542, 6.431342698683793 ], [ 3.964420906942379, 6.431157372070178 ], [ 3.966588591482963, 6.429886991368921 ], [ 3.972735399680819, 6.428970847248273 ], [ 3.980691246605525, 6.428412962570735 ], [ 3.982136561372124, 6.427686599945461 ], [ 3.99262477396779, 6.427485460344617 ] ] } },
{ "type": "Feature", "properties": { "date": "2024-12-20", "scene_id": "S2A_MSIL2A_20241220T100431_N0511_R122_T31NEH_20241220T144159", "tile": "31NEH", "cloud_cover": 0.01 }, "geometry": { "type": "LineString", "coordinates": [ [ 2.999909573181596, 6.39732958850928 ], [ 3.019080065032825, 6.397510158104733 ], [ 3.077496168210218, 6.400037599849567 ], [ 3.133561274259907, 6.401111624137822 ], [ 3.171179635142254, 6.40309061828415 ], [ 3.191797278929221, 6.403626100264 ], [ 3.267213740352485, 6.40395423833588 ], [ 3.308085909455578, 6.40266489479601 ], [ 3.359083510969423, 6.398651526897556 ], [ 3.377890084982487, 6.396105164156367 ], [ 3.396155839046303, 6.396091413676404 ], [ 3.396337942343429, 6.397719548550718 ], [ 3.397603888174252, 6.397718570805138 ], [ 3.404840709174017, 6.40133130697846 ], [ 3.406287656025009, 6.401511083834142 ], [ 3.407735321183625, 6.402595451905891 ], [ 3.415152980967379, 6.406026970690178 ], [ 3.420759388385882, 6.406022405885822 ], [ 3.431432523967963, 6.409451000008595 ], [ 3.438667557627241, 6.410530375532209 ], [ 3.440476397360968, 6.410890662258778 ], [ 3.44065756101946, 6.411252343391622 ], [ 3.445540908603784, 6.411609961227437 ], [ 3.445904815839823, 6.414142500178424 ], [ 3.446809716270673, 6.414865385132127 ], [ 3.446994828519419, 6.41975001438619 ], [ 3.448623007309297, 6.420291345359918 ], [ 3.451335848950658, 6.420288962081361 ], [ 3.45205975193014, 6.420831077768316 ], [ 3.454592220393662, 6.421371590097704 ], [ 3.470146017389151, 6.421538464827534 ], [ 3.471955077386208, 6.422079553353204 ], [ 3.475391511772879, 6.422257291972731 ], [ 3.511924534145113, 6.422402987481334 ], [ 3.530010776744687, 6.423108249462609 ], [ 3.530734571264557, 6.423469331493724 ], [ 3.536884018554982, 6.423824750945519 ], [ 3.537065252890582, 6.424186392296399 ], [ 3.538874184288506, 6.42454632256037 ], [ 3.594034749273541, 6.424485279307538 ], [ 3.676866388142036, 6.425467915980122 ], [ 3.682835668538916, 6.426364540943736 ], [ 3.717561200930385, 6.427945210844038 ], [ 3.721540922461, 6.428663251006991 ], [ 3.721722282876132, 6.429024813970141 ], [ 3.72841425628201, 6.429377146203258 ], [ 3.738363095318278, 6.430810150772553 ], [ 3.741799250084244, 6.430805177708105 ], [ 3.743246839637044, 6.431345801349947 ], [ 3.745236192599512, 6.431342905782696 ], [ 3.745598420312381, 6.431704194597252 ], [ 3.75590874856752, 6.432955411557729 ], [ 3.75753720522464, 6.433495724768789 ], [ 3.761516183187599, 6.433670720115138 ], [ 3.765134542316099, 6.434569854618256 ], [ 3.775444656202029, 6.43563975811595 ], [ 3.775626055547099, 6.436001297150587 ], [ 3.785212237293788, 6.43671028248649 ], [ 3.802939235270214, 6.43903450776321 ], [ 3.8351304881983, 6.43898288254637 ], [ 3.904934986735953, 6.437416756668471 ], [ 3.916507430520934, 6.436491621457892 ], [ 3.922111637272314, 6.435396134640189 ], [ 3.936939113957125, 6.434464663764436 ], [ 3.942000697925092, 6.433369962378806 ], [ 3.948510658849734, 6.433177024399493 ], [ 3.953752692352439, 6.43190097826737 ], [ 3.961346629407497, 6.431163161415082 ], [ 3.9662265715001, 6.429706777232929 ], [ 3.968938472847618, 6.429339850318241 ], [ 3.969118626655159, 6.428977712807113 ], [ 3.976530936401077, 6.427878228611759 ], [ 3.977434089908071, 6.427333810797449 ], [ 3.979242466614511, 6.427330352697098 ], [ 3.97978428703716, 6.426967520260904 ], [ 3.992623371037235, 6.426761875633278 ] ] } },
{ "type": "Feature", "properties": { "date": "2025-01-24", "scene_id": "S2B_MSIL2A_20250124T100219_N0511_R022_T31NEH_20250124T125425", "tile": "31NEH", "cloud_cover": 11.306559 }, "geometry": { "type": "LineString", "coordinates": [ [ 2.999909573213399, 6.397148664792121 ], [ 3.033910102589243, 6.398052164719974 ], [ 3.058687242410664, 6.399497321662936 ], [ 3.138263538731664, 6.40129130325878 ], [ 3.142965906197374, 6.401832785503438 ], [ 3.151646927875005, 6.401830295999495 ], [ 3.159423897906647, 6.402551633146549 ], [ 3.189084456237345, 6.403627106320176 ], [ 3.268841426127614, 6.403953388736583 ], [ 3.306096635316647, 6.402847005376387 ], [ 3.357275131204964, 6.398833707535765 ], [ 3.377528386480821, 6.396105429890888 ], [ 3.394528199232251, 6.396092665302678 ], [ 3.397964047479711, 6.395728178270097 ], [ 3.39814643632695, 6.397718150816876 ], [ 3.399231532523159, 6.397717309122356 ], [ 3.406287513040864, 6.401330164724936 ], [ 3.408277298991597, 6.40187134466229 ], [ 3.415149619250323, 6.401865836231665 ], [ 3.420030658501727, 6.399509922084165 ], [ 3.420934906007226, 6.399509182124701 ], [ 3.43830368953231, 6.407997828462087 ], [ 3.4388487199103, 6.410892057404781 ], [ 3.446264321203544, 6.411609332292096 ], [ 3.446632958889992, 6.419569411868488 ], [ 3.448984719587499, 6.420291028419548 ], [ 3.451154992873245, 6.420289121413578 ], [ 3.452421624126267, 6.421011676247431 ], [ 3.454411364015996, 6.421371750606642 ], [ 3.467794888525737, 6.421540617923927 ], [ 3.473944662405658, 6.422258633201666 ], [ 3.511743678939602, 6.422403168265792 ], [ 3.529829921812659, 6.42310843665558 ], [ 3.530553716226347, 6.423469518952856 ], [ 3.536884018554982, 6.423824750945519 ], [ 3.537065632271772, 6.424548223347953 ], [ 3.578843040891286, 6.424502684262066 ], [ 3.675781044209108, 6.425288439097457 ], [ 3.685728798155294, 6.425998850551549 ], [ 3.694592682877022, 6.4276150904146 ], [ 3.702550365314645, 6.427785134949258 ], [ 3.705625823396054, 6.428504542497138 ], [ 3.723530274706906, 6.428660441052243 ], [ 3.724073081079502, 6.428840582311873 ], [ 3.724440160058708, 6.432639157600156 ], [ 3.726069364348145, 6.433722301527034 ], [ 3.726615775874889, 6.436435162633328 ], [ 3.73873263462786, 6.436236878130511 ] ] } }
]
}
