{
"type": "FeatureCollection",
"name": "transects",
"crs": { "type": "name", "properties": { "name": "urn:ogc:def:crs:OGC:1.3:CRS84" } },
"features": [
{ "type": "Feature", "properties": { "transect_id": 0, "anchor_lon": 3.0000005057251307, "anchor_lat": 6.3972064076582678 }, "geometry": { "type": "LineString", "coordinates": [ [ 3.000003605645519, 6.398111020913852 ], [ 2.999981906431664, 6.391778727457494 ] ] } },
{ "type": "Feature", "properties": { "transect_id": 1, "anchor_lon": 3.0045218245284149, "anchor_lat": 6.3972044441995752 }, "geometry": { "type": "LineString", "coordinates": [ [ 3.004514931596245, 6.398109036486139 ], [ 3.004563181636058, 6.391776889811783 ] ] } },
{ "type": "Feature", "properties": { "transect_id": 2, "anchor_lon": 3.0090429077518128, "anchor_lat": 6.3972511010784672 }, "geometry": { "type": "LineString", "coordinates": [ [ 3.009027363985971, 6.398155585981867 ], [ 3.009136169246428, 6.391824190983137 ] ] } },
{ "type": "Feature", "properties": { "transect_id": 3, "anchor_lon": 3.0135633754159254, "anchor_lat": 6.3973393653302937 }, "geometry": { "type": "LineString", "coordinates": [ [ 3.013540454975479, 6.398243693231183 ], [ 3.01370089643734, 6.391913397240622 ] ] } },
{ "type": "Feature", "properties": { "transect_id": 4, "anchor_lon": 3.0180830264710736, "anchor_lat": 6.3974627349293129 }, "geometry": { "type": "LineString", "coordinates": [ [ 3.01805394771117, 6.398366885599387 ], [ 3.018257496978481, 6.392037830214185 ] ] } },
{ "type": "Feature", "properties": { "transect_id": 5, "anchor_lon": 3.0226017973038819, "anchor_lat": 6.3976151129697927 }, "geometry": { "type": "LineString", "coordinates": [ [ 3.022567734277302, 6.398519089419155 ], [ 3.022806173067323, 6.392191253569136 ] ] } },
{ "type": "Feature", "properties": { "transect_id": 6, "anchor_lon": 3.0271197296001984, "anchor_lat": 6.3977907100509093 }, "geometry": { "type": "LineString", "coordinates": [ [ 3.027081823121191, 6.398694533335777 ], [ 3.02734716581835, 6.392367769629092 ] ] } },
{ "type": "Feature", "properties": { "transect_id": 7, "anchor_lon": 3.0316369420617129, "anchor_lat": 6.3979840205376792 }, "geometry": { "type": "LineString", "coordinates": [ [ 3.031597538185762, 6.398887779686931 ], [ 3.031873362574541, 6.392561464927424 ] ] } },
{ "type": "Feature", "properties": { "transect_id": 8, "anchor_lon": 3.0361536650764065, "anchor_lat": 6.3981885190973102 }, "geometry": { "type": "LineString", "coordinates": [ [ 3.03611248301291, 6.399092198855332 ], [ 3.036400754606833, 6.392766439831454 ] ] } },
{ "type": "Feature", "properties": { "transect_id": 9, "anchor_lon": 3.0406701769477342, "anchor_lat": 6.3983976716428295 }, "geometry": { "type": "LineString", "coordinates": [ [ 3.040628225685553, 6.399301315937902 ], [ 3.040921881636907, 6.392975805154586 ] ] } },
{ "type": "Feature", "properties": { "transect_id": 10, "anchor_lon": 3.0451866965354282, "anchor_lat": 6.3986066917664228 }, "geometry": { "type": "LineString", "coordinates": [ [ 3.045145069128851, 6.399510350990001 ], [ 3.045436458138114, 6.393184735710228 ] ] } },
{ "type": "Feature", "properties": { "transect_id": 11, "anchor_lon": 3.0497034490890442, "anchor_lat": 6.398810637574563 }, "geometry": { "type": "LineString", "coordinates": [ [ 3.049663087023974, 6.399714354177773 ], [ 3.049945618759196, 6.393388337246147 ] ] } },
{ "type": "Feature", "properties": { "transect_id": 12, "anchor_lon": 3.0542206004165449, "anchor_lat": 6.3990055636165035 }, "geometry": { "type": "LineString", "coordinates": [ [ 3.05418225878345, 6.399909368190986 ], [ 3.054450647667049, 6.393582735467642 ] ] } },
{ "type": "Feature", "properties": { "transect_id": 13, "anchor_lon": 3.0587382967945991, "anchor_lat": 6.3991874228537355 }, "geometry": { "type": "LineString", "coordinates": [ [ 3.058704326223107, 6.400091402330867 ], [ 3.058942118021089, 6.393763545300651 ] ] } },
{ "type": "Feature", "properties": { "transect_id": 14, "anchor_lon": 3.063256642927692, "anchor_lat": 6.3993523416549589 }, "geometry": { "type": "LineString", "coordinates": [ [ 3.063226182585923, 6.400256446233604 ], [ 3.063439403058144, 6.393927713501059 ] ] } },
{ "type": "Feature", "properties": { "transect_id": 15, "anchor_lon": 3.0677756290401925, "anchor_lat": 6.3994986699195291 }, "geometry": { "type": "LineString", "coordinates": [ [ 3.067748639348652, 6.400402884758517 ], [ 3.067937565548781, 6.394073380210414 ] ] } },
{ "type": "Feature", "properties": { "transect_id": 16, "anchor_lon": 3.0722951582777385, "anchor_lat": 6.3996271551460771 }, "geometry": { "type": "LineString", "coordinates": [ [ 3.072271260358018, 6.400531456956017 ], [ 3.072438544407055, 6.394201343616374 ] ] } },
{ "type": "Feature", "properties": { "transect_id": 17, "anchor_lon": 3.0768150917893959, "anchor_lat": 6.3997405826304599 }, "geometry": { "type": "LineString", "coordinates": [ [ 3.076793731111521, 6.400644947882545 ], [ 3.076943254678409, 6.394314390451487 ] ] } },
{ "type": "Feature", "properties": { "transect_id": 18, "anchor_lon": 3.0813353344659555, "anchor_lat": 6.3998409703180696 }, "geometry": { "type": "LineString", "coordinates": [ [ 3.081316249716866, 6.400745386398739 ], [ 3.08144984197378, 6.394414473170239 ] ] } },
{ "type": "Feature", "properties": { "transect_id": 19, "anchor_lon": 3.0858558145891206, "anchor_lat": 6.3999300694634025 }, "geometry": { "type": "LineString", "coordinates": [ [ 3.085838678844416, 6.400834524493734 ], [ 3.085958628238052, 6.394503338619512 ] ] } },
{ "type": "Feature", "properties": { "transect_id": 20, "anchor_lon": 3.0903764344693534, "anchor_lat": 6.4000118254282388 }, "geometry": { "type": "LineString", "coordinates": [ [ 3.090360402834988, 6.400916300606298 ], [ 3.090472623561277, 6.394584973699176 ] ] } },
{ "type": "Feature", "properties": { "transect_id": 21, "anchor_lon": 3.0948971201299136, "anchor_lat": 6.4000898799677133 }, "geometry": { "type": "LineString", "coordinates": [ [ 3.094881454266686, 6.400994361442459 ], [ 3.094991114645505, 6.39466299045943 ] ] } },
{ "type": "Feature", "properties": { "transect_id": 22, "anchor_lon": 3.0994177814746791, "anchor_lat": 6.4001693303712219 }, "geometry": { "type": "LineString", "coordinates": [ [ 3.099401316184471, 6.401073797512388 ], [ 3.09951657251658, 6.394742526865128 ] ] } },
{ "type": "Feature", "properties": { "transect_id": 23, "anchor_lon": 3.1039383568297283, "anchor_lat": 6.4002535278650594 }, "geometry": { "type": "LineString", "coordinates": [ [ 3.103920651039116, 6.401157971425984 ], [ 3.104044590805895, 6.394826865841071 ] ] } },
{ "type": "Feature", "properties": { "transect_id": 24, "anchor_lon": 3.1084587885366766, "anchor_lat": 6.4003450995312772 }, "geometry": { "type": "LineString", "coordinates": [ [ 3.108439256401932, 6.401249505330835 ], [ 3.108575980466195, 6.394918664075951 ] ] } },
{ "type": "Feature", "properties": { "transect_id": 25, "anchor_lon": 3.1129790083439852, "anchor_lat": 6.4004465858373303 }, "geometry": { "type": "LineString", "coordinates": [ [ 3.112957174729833, 6.401350938822148 ], [ 3.113110009003399, 6.395020467270645 ] ] } },
{ "type": "Feature", "properties": { "transect_id": 26, "anchor_lon": 3.1174989370217219, "anchor_lat": 6.400560299285182 }, "geometry": { "type": "LineString", "coordinates": [ [ 3.117474424826829, 6.401464583433377 ], [ 3.117646008991173, 6.395134593738019 ] ] } },
{ "type": "Feature", "properties": { "transect_id": 27, "anchor_lon": 3.122018487455581, "anchor_lat": 6.4006881651236203 }, "geometry": { "type": "LineString", "coordinates": [ [ 3.121990928661881, 6.401592361332821 ], [ 3.122183838816286, 6.39526298720962 ] ] } },
{ "type": "Feature", "properties": { "transect_id": 28, "anchor_lon": 3.1265375698003273, "anchor_lat": 6.4008316329468489 }, "geometry": { "type": "LineString", "coordinates": [ [ 3.126506568378282, 6.401735717425016 ], [ 3.126723576700273, 6.395407125417396 ] ] } },
{ "type": "Feature", "properties": { "transect_id": 29, "anchor_lon": 3.1310560624213655, "anchor_lat": 6.4009926256699226 }, "geometry": { "type": "LineString", "coordinates": [ [ 3.131021457881629, 6.40189657914239 ], [ 3.131263687784803, 6.395568904172232 ] ] } },
{ "type": "Feature", "properties": { "transect_id": 30, "anchor_lon": 3.1355738679902121, "anchor_lat": 6.4011718924873025 }, "geometry": { "type": "LineString", "coordinates": [ [ 3.13553571055573, 6.402075702677485 ], [ 3.135802810483191, 6.395749030680294 ] ] } },
{ "type": "Feature", "properties": { "transect_id": 31, "anchor_lon": 3.1400909779115249, "anchor_lat": 6.4013679655108371 }, "geometry": { "type": "LineString", "coordinates": [ [ 3.140050060949292, 6.402271654708994 ], [ 3.140336477390652, 6.395945829653658 ] ] } },
{ "type": "Feature", "properties": { "transect_id": 32, "anchor_lon": 3.1446075884166458, "anchor_lat": 6.4015752912328496 }, "geometry": { "type": "LineString", "coordinates": [ [ 3.144565244359058, 6.402478914453669 ], [ 3.144861650385873, 6.39615355123942 ] ] } },
{ "type": "Feature", "properties": { "transect_id": 33, "anchor_lon": 3.1491239096751431, "anchor_lat": 6.4017888574321686 }, "geometry": { "type": "LineString", "coordinates": [ [ 3.149080619579854, 6.402692435602628 ], [ 3.149383647824046, 6.396367387741459 ] ] } },
{ "type": "Feature", "properties": { "transect_id": 34, "anchor_lon": 3.1536400405825065, "anchor_lat": 6.4020064388585372 }, "geometry": { "type": "LineString", "coordinates": [ [ 3.153596302599819, 6.402909995249109 ], [ 3.153902466046008, 6.396585099848619 ] ] } },
{ "type": "Feature", "properties": { "transect_id": 35, "anchor_lon": 3.1581561621673724, "anchor_lat": 6.4022242336163107 }, "geometry": { "type": "LineString", "coordinates": [ [ 3.158113038377563, 6.403127819350996 ], [ 3.158414902542204, 6.396802718544979 ] ] } },
{ "type": "Feature", "properties": { "transect_id": 36, "anchor_lon": 3.1626724897385925, "anchor_lat": 6.4024377215776518 }, "geometry": { "type": "LineString", "coordinates": [ [ 3.162630794095378, 6.403341374184938 ], [ 3.162922661362559, 6.397015805275136 ] ] } },
{ "type": "Feature", "properties": { "transect_id": 37, "anchor_lon": 3.1671892348877639, "anchor_lat": 6.4026421704226104 }, "geometry": { "type": "LineString", "coordinates": [ [ 3.167150081310846, 6.403545936616089 ], [ 3.167424154324945, 6.397219572608456 ] ] } },
{ "type": "Feature", "properties": { "transect_id": 38, "anchor_lon": 3.1717065888785907, "anchor_lat": 6.4028326731225276 }, "geometry": { "type": "LineString", "coordinates": [ [ 3.17167070448376, 6.40373657490878 ], [ 3.171921893488057, 6.397409261757147 ] ] } },
{ "type": "Feature", "properties": { "transect_id": 39, "anchor_lon": 3.1762246309290498, "anchor_lat": 6.4030060686133821 }, "geometry": { "type": "LineString", "coordinates": [ [ 3.176192633568588, 6.4039101162317 ], [ 3.176416613642876, 6.397581782260167 ] ] } },
{ "type": "Feature", "properties": { "transect_id": 40, "anchor_lon": 3.1807433880284823, "anchor_lat": 6.4031596873001524 }, "geometry": { "type": "LineString", "coordinates": [ [ 3.180715491502978, 6.404063870625788 ], [ 3.18091076605906, 6.397734586706016 ] ] } },
{ "type": "Feature", "properties": { "transect_id": 41, "anchor_lon": 3.185262790520722, "anchor_lat": 6.4032929684089472 }, "geometry": { "type": "LineString", "coordinates": [ [ 3.185238989127913, 6.404197268655969 ], [ 3.185405598081303, 6.397867166287692 ] ] } },
{ "type": "Feature", "properties": { "transect_id": 42, "anchor_lon": 3.1897827484814179, "anchor_lat": 6.4034058319565341 }, "geometry": { "type": "LineString", "coordinates": [ [ 3.189763317539876, 6.404310236509787 ], [ 3.189899333681, 6.397979403997177 ] ] } },
{ "type": "Feature", "properties": { "transect_id": 43, "anchor_lon": 3.1943031865332889, "anchor_lat": 6.4034974813344716 }, "geometry": { "type": "LineString", "coordinates": [ [ 3.194287907362743, 6.404401965373117 ], [ 3.194394861437378, 6.398070576460276 ] ] } },
{ "type": "Feature", "properties": { "transect_id": 44, "anchor_lon": 3.1988239878543667, "anchor_lat": 6.4035689828444875 }, "geometry": { "type": "LineString", "coordinates": [ [ 3.198810700192187, 6.404473498109616 ], [ 3.198903713879006, 6.398141890609924 ] ] } },
{ "type": "Feature", "properties": { "transect_id": 45, "anchor_lon": 3.2033450324627291, "anchor_lat": 6.4036229194061765 }, "geometry": { "type": "LineString", "coordinates": [ [ 3.20333519639703, 6.404527478571861 ], [ 3.203404049187209, 6.3981955637641 ] ] } },
{ "type": "Feature", "properties": { "transect_id": 46, "anchor_lon": 3.2078662276056846, "anchor_lat": 6.4036621803988991 }, "geometry": { "type": "LineString", "coordinates": [ [ 3.207859303635737, 6.404566766306496 ], [ 3.20790777199448, 6.398234664300868 ] ] } },
{ "type": "Feature", "properties": { "transect_id": 47, "anchor_lon": 3.2123875124210124, "anchor_lat": 6.4036891112434997 }, "geometry": { "type": "LineString", "coordinates": [ [ 3.212382960312913, 6.404593711946332 ], [ 3.212414825837581, 6.398261506369723 ] ] } },
{ "type": "Feature", "properties": { "transect_id": 48, "anchor_lon": 3.216908840024983, "anchor_lat": 6.4037074632626201 }, "geometry": { "type": "LineString", "coordinates": [ [ 3.216905670018586, 6.404612069602448 ], [ 3.216927860957017, 6.398279824564099 ] ] } },
{ "type": "Feature", "properties": { "transect_id": 49, "anchor_lon": 3.2214301828260137, "anchor_lat": 6.4037213424501065 }, "geometry": { "type": "LineString", "coordinates": [ [ 3.221427581798739, 6.404625950334255 ], [ 3.221445789948876, 6.398293694484527 ] ] } },
{ "type": "Feature", "properties": { "transect_id": 50, "anchor_lon": 3.2259515275774118, "anchor_lat": 6.4037341634894238 }, "geometry": { "type": "LineString", "coordinates": [ [ 3.225948906806631, 6.404638771039035 ], [ 3.225967253183368, 6.39830651753128 ] ] } },
{ "type": "Feature", "properties": { "transect_id": 51, "anchor_lon": 3.2304728565920384, "anchor_lat": 6.4037512266144603 }, "geometry": { "type": "LineString", "coordinates": [ [ 3.230468614586564, 6.404655827726517 ], [ 3.230498309509817, 6.398323619285648 ] ] } },
{ "type": "Feature", "properties": { "transect_id": 52, "anchor_lon": 3.2349941454876583, "anchor_lat": 6.4037764820461112 }, "geometry": { "type": "LineString", "coordinates": [ [ 3.234988345926382, 6.404681074217703 ], [ 3.235028943648603, 6.398348928363912 ] ] } },
{ "type": "Feature", "properties": { "transect_id": 53, "anchor_lon": 3.239515362252122, "anchor_lat": 6.4038122809777871 }, "geometry": { "type": "LineString", "coordinates": [ [ 3.239507520386943, 6.404716857443515 ], [ 3.239562414108973, 6.398384821535607 ] ] } },
{ "type": "Feature", "properties": { "transect_id": 54, "anchor_lon": 3.2440365425593232, "anchor_lat": 6.4038523775285681 }, "geometry": { "type": "LineString", "coordinates": [ [ 3.244028810293237, 6.404756954637624 ], [ 3.244082936853221, 6.398424914226617 ] ] } },
{ "type": "Feature", "properties": { "transect_id": 55, "anchor_lon": 3.2485578213604098, "anchor_lat": 6.4038779393581349 }, "geometry": { "type": "LineString", "coordinates": [ [ 3.248556433236983, 6.404782548166737 ], [ 3.248566151290904, 6.398450285843495 ] ] } },
{ "type": "Feature", "properties": { "transect_id": 56, "anchor_lon": 3.2530791689040441, "anchor_lat": 6.4038752146412738 }, "geometry": { "type": "LineString", "coordinates": [ [ 3.25308179590209, 6.40477982038773 ], [ 3.253063408425949, 6.398447579487732 ] ] } },
{ "type": "Feature", "properties": { "transect_id": 57, "anchor_lon": 3.2576004269112149, "anchor_lat": 6.4038467741953822 }, "geometry": { "type": "LineString", "coordinates": [ [ 3.257608760958102, 6.404751345023898 ], [ 3.257550424585147, 6.398419348529936 ] ] } },
{ "type": "Feature", "properties": { "transect_id": 58, "anchor_lon": 3.2621214962230796, "anchor_lat": 6.4037966462413438 }, "geometry": { "type": "LineString", "coordinates": [ [ 3.262133361490113, 6.404701177292717 ], [ 3.262050306860331, 6.398369459224852 ] ] } },
{ "type": "Feature", "properties": { "transect_id": 59, "anchor_lon": 3.2666423178200006, "anchor_lat": 6.403727775700605 }, "geometry": { "type": "LineString", "coordinates": [ [ 3.266657502129956, 6.404632256761084 ], [ 3.266551214468118, 6.39830088861512 ] ] } },
{ "type": "Feature", "properties": { "transect_id": 60, "anchor_lon": 3.2711628701193263, "anchor_lat": 6.4036430902368311 }, "geometry": { "type": "LineString", "coordinates": [ [ 3.271180862365332, 6.404547519429213 ], [ 3.271054919381723, 6.398216514346683 ] ] } },
{ "type": "Feature", "properties": { "transect_id": 61, "anchor_lon": 3.2756831754823974, "anchor_lat": 6.403546176939642 }, "geometry": { "type": "LineString", "coordinates": [ [ 3.275703392134874, 6.404450558773589 ], [ 3.275561878493419, 6.398119885188755 ] ] } },
{ "type": "Feature", "properties": { "transect_id": 62, "anchor_lon": 3.2802032501686473, "anchor_lat": 6.4034391298310629 }, "geometry": { "type": "LineString", "coordinates": [ [ 3.280225376126837, 6.404343466593465 ], [ 3.280070497509548, 6.398013108499046 ] ] } },
{ "type": "Feature", "properties": { "transect_id": 63, "anchor_lon": 3.2847231218280806, "anchor_lat": 6.4033239227123646 }, "geometry": { "type": "LineString", "coordinates": [ [ 3.284746940068378, 6.404228216107892 ], [ 3.284580215624437, 6.397898161571822 ] ] } },
{ "type": "Feature", "properties": { "transect_id": 64, "anchor_lon": 3.2892427306786041, "anchor_lat": 6.4031989623247858 }, "geometry": { "type": "LineString", "coordinates": [ [ 3.289268976262854, 6.404103188124312 ], [ 3.289085260613413, 6.397773606746106 ] ] } },
{ "type": "Feature", "properties": { "transect_id": 65, "anchor_lon": 3.2937619032325776, "anchor_lat": 6.4030592738696939 }, "geometry": { "type": "LineString", "coordinates": [ [ 3.293791782682012, 6.403963386444503 ], [ 3.293582630267084, 6.39763459761757 ] ] } },
{ "type": "Feature", "properties": { "transect_id": 66, "anchor_lon": 3.2982803772085632, "anchor_lat": 6.4028987386749945 }, "geometry": { "type": "LineString", "coordinates": [ [ 3.298315120590233, 6.403802676912395 ], [ 3.298071921030587, 6.397475108416563 ] ] } },
{ "type": "Feature", "properties": { "transect_id": 67, "anchor_lon": 3.3027978761612657, "anchor_lat": 6.4027128948309908 }, "geometry": { "type": "LineString", "coordinates": [ [ 3.30283819617892, 6.403616600954996 ], [ 3.302555960600142, 6.397290657215042 ] ] } },
{ "type": "Feature", "properties": { "transect_id": 68, "anchor_lon": 3.3073140852053307, "anchor_lat": 6.4024980832703635 }, "geometry": { "type": "LineString", "coordinates": [ [ 3.307360734224077, 6.403401484203489 ], [ 3.307034196124841, 6.3970776767533 ] ] } },
{ "type": "Feature", "properties": { "transect_id": 69, "anchor_lon": 3.3118287279153988, "anchor_lat": 6.4022525830644801 }, "geometry": { "type": "LineString", "coordinates": [ [ 3.311881746060564, 6.403155631952937 ], [ 3.311510624565558, 6.396834288764913 ] ] } },
{ "type": "Feature", "properties": { "transect_id": 70, "anchor_lon": 3.3163416383286322, "anchor_lat": 6.401977075992936 }, "geometry": { "type": "LineString", "coordinates": [ [ 3.316400572016726, 6.402879757470819 ], [ 3.315988042176251, 6.396560986106193 ] ] } },
{ "type": "Feature", "properties": { "transect_id": 71, "anchor_lon": 3.3208526960878868, "anchor_lat": 6.4016727694842297 }, "geometry": { "type": "LineString", "coordinates": [ [ 3.32091723519261, 6.402575066837132 ], [ 3.320465467867201, 6.396258984296133 ] ] } },
{ "type": "Feature", "properties": { "transect_id": 72, "anchor_lon": 3.3253618855262332, "anchor_lat": 6.4013419397603375 }, "geometry": { "type": "LineString", "coordinates": [ [ 3.325430853707159, 6.402243908742198 ], [ 3.324948083193383, 6.395930124755098 ] ] } },
{ "type": "Feature", "properties": { "transect_id": 73, "anchor_lon": 3.3298693583262731, "anchor_lat": 6.4009885340681389 }, "geometry": { "type": "LineString", "coordinates": [ [ 3.329942322937274, 6.401890187922341 ], [ 3.329431577725985, 6.395578609787642 ] ] } },
{ "type": "Feature", "properties": { "transect_id": 74, "anchor_lon": 3.3343751868628364, "anchor_lat": 6.4006147730354233 }, "geometry": { "type": "LineString", "coordinates": [ [ 3.334451289574472, 6.401516166846505 ], [ 3.333918577909003, 6.395206408979285 ] ] } },
{ "type": "Feature", "properties": { "transect_id": 75, "anchor_lon": 3.3388797016652894, "anchor_lat": 6.4002255231130416 }, "geometry": { "type": "LineString", "coordinates": [ [ 3.338958635217778, 6.401126672850423 ], [ 3.338406107893986, 6.394818623466751 ] ] } },
{ "type": "Feature", "properties": { "transect_id": 76, "anchor_lon": 3.3433834889331857, "anchor_lat": 6.3998279851003224 }, "geometry": { "type": "LineString", "coordinates": [ [ 3.343462943530534, 6.400729088597503 ], [ 3.342906768953105, 6.394421362885922 ] ] } },
{ "type": "Feature", "properties": { "transect_id": 77, "anchor_lon": 3.3478876738815115, "anchor_lat": 6.3994350504692621 }, "geometry": { "type": "LineString", "coordinates": [ [ 3.347965661807672, 6.400336281765439 ], [ 3.34741975384519, 6.394027661471915 ] ] } },
{ "type": "Feature", "properties": { "transect_id": 78, "anchor_lon": 3.352391631885304, "anchor_lat": 6.3990396100287308 }, "geometry": { "type": "LineString", "coordinates": [ [ 3.352472869514353, 6.399940553562129 ], [ 3.351904213889252, 6.393633947570388 ] ] } },
{ "type": "Feature", "properties": { "transect_id": 79, "anchor_lon": 3.3568922154788168, "anchor_lat": 6.3986078249365557 }, "geometry": { "type": "LineString", "coordinates": [ [ 3.356985850151555, 6.399507563181319 ], [ 3.356330416135996, 6.393209394068974 ] ] } },
{ "type": "Feature", "properties": { "transect_id": 80, "anchor_lon": 3.3613858786289201, "anchor_lat": 6.3981092822288872 }, "geometry": { "type": "LineString", "coordinates": [ [ 3.361491231381221, 6.399007722308031 ], [ 3.360753771669809, 6.392718640209174 ] ] } },
{ "type": "Feature", "properties": { "transect_id": 81, "anchor_lon": 3.3658711058644379, "anchor_lat": 6.397539696238602 }, "geometry": { "type": "LineString", "coordinates": [ [ 3.365989241697041, 6.39843654332573 ], [ 3.365162301354299, 6.39215861199883 ] ] } },
{ "type": "Feature", "properties": { "transect_id": 82, "anchor_lon": 3.3703535399576277, "anchor_lat": 6.3969485613461146 }, "geometry": { "type": "LineString", "coordinates": [ [ 3.370460166028969, 6.397846850189381 ], [ 3.369713793219021, 6.391558826715023 ] ] } },
{ "type": "Feature", "properties": { "transect_id": 83, "anchor_lon": 3.3748517173314649, "anchor_lat": 6.3964953022903499 }, "geometry": { "type": "LineString", "coordinates": [ [ 3.374930559653638, 6.397396456569831 ], [ 3.374378671116271, 6.391088375360692 ] ] } },
{ "type": "Feature", "properties": { "transect_id": 84, "anchor_lon": 3.3793524614023545, "anchor_lat": 6.3960657595272883 }, "geometry": { "type": "LineString", "coordinates": [ [ 3.379443019967093, 6.396965810594138 ], [ 3.378809118598284, 6.390665451739575 ] ] } },
{ "type": "Feature", "properties": { "transect_id": 85, "anchor_lon": 3.3838571912561326, "anchor_lat": 6.3956831094018245 }, "geometry": { "type": "LineString", "coordinates": [ [ 3.383907587628284, 6.396586301829088 ], [ 3.383554818721071, 6.390263953849219 ] ] } },
{ "type": "Feature", "properties": { "transect_id": 86, "anchor_lon": 3.3883755182028463, "anchor_lat": 6.3955529599943484 }, "geometry": { "type": "LineString", "coordinates": [ [ 3.388371095349858, 6.396457547141934 ], [ 3.388402057013801, 6.390125436462686 ] ] } },
{ "type": "Feature", "properties": { "transect_id": 87, "anchor_lon": 3.3928881237827229, "anchor_lat": 6.3957998371827331 }, "geometry": { "type": "LineString", "coordinates": [ [ 3.392805499182213, 6.396700650402717 ], [ 3.393383867321254, 6.390394957296561 ] ] } },
{ "type": "Feature", "properties": { "transect_id": 88, "anchor_lon": 3.3973509241419571, "anchor_lat": 6.3965126221707926 }, "geometry": { "type": "LineString", "coordinates": [ [ 3.397150730243329, 6.397394771236135 ], [ 3.398552074984936, 6.391219726402663 ] ] } },
{ "type": "Feature", "properties": { "transect_id": 89, "anchor_lon": 3.4017301705021543, "anchor_lat": 6.3976327393839583 }, "geometry": { "type": "LineString", "coordinates": [ [ 3.401481484780987, 6.398502453370493 ], [ 3.403222268947714, 6.39241445342987 ] ] } },
{ "type": "Feature", "properties": { "transect_id": 90, "anchor_lon": 3.4060288470107278, "anchor_lat": 6.3990322357962439 }, "geometry": { "type": "LineString", "coordinates": [ [ 3.405725084103535, 6.399884263479348 ], [ 3.407851404957884, 6.393920066675636 ] ] } },
{ "type": "Feature", "properties": { "transect_id": 91, "anchor_lon": 3.4102451120118902, "anchor_lat": 6.4006630529833979 }, "geometry": { "type": "LineString", "coordinates": [ [ 3.409899947951342, 6.401499153495395 ], [ 3.412316074318461, 6.395646445981924 ] ] } },
{ "type": "Feature", "properties": { "transect_id": 92, "anchor_lon": 3.414410046585878, "anchor_lat": 6.4024229316183048 }, "geometry": { "type": "LineString", "coordinates": [ [ 3.414055535058263, 6.403255108772291 ], [ 3.416537093144285, 6.397429864550652 ] ] } },
{ "type": "Feature", "properties": { "transect_id": 93, "anchor_lon": 3.4185823640208692, "anchor_lat": 6.4041651272950721 }, "geometry": { "type": "LineString", "coordinates": [ [ 3.418243658380146, 6.405003866708398 ], [ 3.420614576217913, 6.399132687066281 ] ] } },
{ "type": "Feature", "properties": { "transect_id": 94, "anchor_lon": 3.4228009664583339, "anchor_lat": 6.4057914074507476 }, "geometry": { "type": "LineString", "coordinates": [ [ 3.42249549393105, 6.406642822417825 ], [ 3.424633782061607, 6.40068291464214 ] ] } },
{ "type": "Feature", "properties": { "transect_id": 95, "anchor_lon": 3.4270827124590402, "anchor_lat": 6.4072428672474118 }, "geometry": { "type": "LineString", "coordinates": [ [ 3.426810814825743, 6.408105599164509 ], [ 3.428714080901536, 6.402066473390244 ] ] } },
{ "type": "Feature", "properties": { "transect_id": 96, "anchor_lon": 3.4313944050342031, "anchor_lat": 6.4086036700307227 }, "geometry": { "type": "LineString", "coordinates": [ [ 3.431106791736973, 6.409461286649987 ], [ 3.433120066437873, 6.403457967686518 ] ] } },
{ "type": "Feature", "properties": { "transect_id": 97, "anchor_lon": 3.4355227477204919, "anchor_lat": 6.4104250149211115 }, "geometry": { "type": "LineString", "coordinates": [ [ 3.435077455377991, 6.411212325929245 ], [ 3.438194474265641, 6.405701142197065 ] ] } },
{ "type": "Feature", "properties": { "transect_id": 98, "anchor_lon": 3.4392688731390719, "anchor_lat": 6.4129551251243155 }, "geometry": { "type": "LineString", "coordinates": [ [ 3.438745058211675, 6.413692491166298 ], [ 3.442411731847926, 6.408530919356727 ] ] } },
{ "type": "Feature", "properties": { "transect_id": 99, "anchor_lon": 3.4429737701739476, "anchor_lat": 6.415547477170473 }, "geometry": { "type": "LineString", "coordinates": [ [ 3.442469642088345, 6.416298450993886 ], [ 3.445998508566572, 6.411041625496972 ] ] } },
{ "type": "Feature", "properties": { "transect_id": 100, "anchor_lon": 3.4468383489401293, "anchor_lat": 6.4178893858706534 }, "geometry": { "type": "LineString", "coordinates": [ [ 3.446441902977997, 6.418702408553735 ], [ 3.449216999748356, 6.41301124462759 ] ] } },
{ "type": "Feature", "properties": { "transect_id": 101, "anchor_lon": 3.4509854462897249, "anchor_lat": 6.4196823025067644 }, "geometry": { "type": "LineString", "coordinates": [ [ 3.45067320550531, 6.420531255930746 ], [ 3.452858871069154, 6.414588578901459 ] ] } },
{ "type": "Feature", "properties": { "transect_id": 102, "anchor_lon": 3.4553164275008728, "anchor_lat": 6.420972012073352 }, "geometry": { "type": "LineString", "coordinates": [ [ 3.455119332656803, 6.421854853582042 ], [ 3.456498984452474, 6.415674961801584 ] ] } },
{ "type": "Feature", "properties": { "transect_id": 103, "anchor_lon": 3.459754180306144, "anchor_lat": 6.4218298474894642 }, "geometry": { "type": "LineString", "coordinates": [ [ 3.459623168524681, 6.422724892260045 ], [ 3.460540243677224, 6.416459578195044 ] ] } },
{ "type": "Feature", "properties": { "transect_id": 104, "anchor_lon": 3.4642435725121379, "anchor_lat": 6.4223578643981449 }, "geometry": { "type": "LineString", "coordinates": [ [ 3.464167317587719, 6.423259230600472 ], [ 3.4647010988061, 6.416949666689244 ] ] } },
{ "type": "Feature", "properties": { "transect_id": 105, "anchor_lon": 3.4687560762044889, "anchor_lat": 6.4226309906091439 }, "geometry": { "type": "LineString", "coordinates": [ [ 3.468722896416909, 6.423534969070097 ], [ 3.468955154903014, 6.417207119310835 ] ] } },
{ "type": "Feature", "properties": { "transect_id": 106, "anchor_lon": 3.4732763517039564, "anchor_lat": 6.4227150347159974 }, "geometry": { "type": "LineString", "coordinates": [ [ 3.473275300406721, 6.423619621100257 ], [ 3.473282661870447, 6.417287515748983 ] ] } },
{ "type": "Feature", "properties": { "transect_id": 107, "anchor_lon": 3.4777973348141598, "anchor_lat": 6.422665756734923 }, "geometry": { "type": "LineString", "coordinates": [ [ 3.477817709730639, 6.423570113495994 ], [ 3.477675089307276, 6.417239615372763 ] ] } },
{ "type": "Feature", "properties": { "transect_id": 108, "anchor_lon": 3.4823169428652876, "anchor_lat": 6.4225393513004585 }, "geometry": { "type": "LineString", "coordinates": [ [ 3.482346593742066, 6.423443450704922 ], [ 3.482139042304008, 6.417114754006876 ] ] } },
{ "type": "Feature", "properties": { "transect_id": 109, "anchor_lon": 3.4868359054645062, "anchor_lat": 6.422390853702141 }, "geometry": { "type": "LineString", "coordinates": [ [ 3.486864122835425, 6.423294998418086 ], [ 3.486666605856201, 6.416965984549541 ] ] } },
{ "type": "Feature", "properties": { "transect_id": 110, "anchor_lon": 3.4913556005052171, "anchor_lat": 6.4222678844116672 }, "geometry": { "type": "LineString", "coordinates": [ [ 3.491373460280246, 6.42317229258873 ], [ 3.491248445731656, 6.416841434568636 ] ] } },
{ "type": "Feature", "properties": { "transect_id": 111, "anchor_lon": 3.4958765131154386, "anchor_lat": 6.4222069171167426 }, "geometry": { "type": "LineString", "coordinates": [ [ 3.495878839480544, 6.423111498136642 ], [ 3.495862557675741, 6.416779430316996 ] ] } },
{ "type": "Feature", "properties": { "transect_id": 112, "anchor_lon": 3.5003977997997753, "anchor_lat": 6.4222240643196251 }, "geometry": { "type": "LineString", "coordinates": [ [ 3.500384718176867, 6.423128553057873 ], [ 3.500476291168616, 6.416797131291756 ] ] } },
{ "type": "Feature", "properties": { "transect_id": 113, "anchor_lon": 3.5049183559285773, "anchor_lat": 6.422309214966452 }, "geometry": { "type": "LineString", "coordinates": [ [ 3.504896238868137, 6.423213527134606 ], [ 3.505051059274684, 6.416883341399541 ] ] } },
{ "type": "Feature", "properties": { "transect_id": 114, "anchor_lon": 3.509438414420309, "anchor_lat": 6.4224186992744832 }, "geometry": { "type": "LineString", "coordinates": [ [ 3.509414423986724, 6.4233229630193 ], [ 3.509582357889442, 6.416993116256276 ] ] } },
{ "type": "Feature", "properties": { "transect_id": 115, "anchor_lon": 3.5139577913663866, "anchor_lat": 6.4225528265243694 }, "geometry": { "type": "LineString", "coordinates": [ [ 3.513926098046221, 6.423456852272145 ], [ 3.514147951605435, 6.417128671517951 ] ] } },
{ "type": "Feature", "properties": { "transect_id": 116, "anchor_lon": 3.5184759569711694, "anchor_lat": 6.4227230691145767 }, "geometry": { "type": "LineString", "coordinates": [ [ 3.518438108610304, 6.423626857290994 ], [ 3.518703047019705, 6.417300339557412 ] ] } },
{ "type": "Feature", "properties": { "transect_id": 117, "anchor_lon": 3.5229930299273695, "anchor_lat": 6.422920315642866 }, "geometry": { "type": "LineString", "coordinates": [ [ 3.522951166337117, 6.423823925965191 ], [ 3.523244211076631, 6.417498653223477 ] ] } },
{ "type": "Feature", "properties": { "transect_id": 118, "anchor_lon": 3.5275093521841296, "anchor_lat": 6.4231341215343223 }, "geometry": { "type": "LineString", "coordinates": [ [ 3.527465484908284, 6.424037636080049 ], [ 3.527772555321031, 6.417713033781944 ] ] } },
{ "type": "Feature", "properties": { "transect_id": 119, "anchor_lon": 3.5320254381012717, "anchor_lat": 6.4233528648549658 }, "geometry": { "type": "LineString", "coordinates": [ [ 3.531982389080586, 6.424256418120573 ], [ 3.5322837317914, 6.417931544783477 ] ] } },
{ "type": "Feature", "properties": { "transect_id": 120, "anchor_lon": 3.5365419594558047, "anchor_lat": 6.4235623172658558 }, "geometry": { "type": "LineString", "coordinates": [ [ 3.536502431357001, 6.42446603084762 ], [ 3.536779127900116, 6.418140035289693 ] ] } },
{ "type": "Feature", "properties": { "transect_id": 121, "anchor_lon": 3.5410595362061072, "anchor_lat": 6.4237472912253111 }, "geometry": { "type": "LineString", "coordinates": [ [ 3.541026995349352, 6.424651282884507 ], [ 3.54125478174172, 6.418323340763493 ] ] } },
{ "type": "Feature", "properties": { "transect_id": 122, "anchor_lon": 3.5455784695128116, "anchor_lat": 6.42389527135831 }, "geometry": { "type": "LineString", "coordinates": [ [ 3.545553617948879, 6.424799506557353 ], [ 3.545727579887173, 6.418469859628687 ] ] } },
{ "type": "Feature", "properties": { "transect_id": 123, "anchor_lon": 3.5500984768205806, "anchor_lat": 6.4240056594913248 }, "geometry": { "type": "LineString", "coordinates": [ [ 3.550080740919463, 6.424910061669904 ], [ 3.550204893770754, 6.418579245852983 ] ] } },
{ "type": "Feature", "properties": { "transect_id": 124, "anchor_lon": 3.5546191768642559, "anchor_lat": 6.4240827185408751 }, "geometry": { "type": "LineString", "coordinates": [ [ 3.554607384965558, 6.424987217124599 ], [ 3.554689930265169, 6.418655726441783 ] ] } },
{ "type": "Feature", "properties": { "transect_id": 125, "anchor_lon": 3.5591402567622481, "anchor_lat": 6.4241329087243964 }, "geometry": { "type": "LineString", "coordinates": [ [ 3.559132876109643, 6.425037453398671 ], [ 3.559184543037716, 6.418705640057676 ] ] } },
{ "type": "Feature", "properties": { "transect_id": 126, "anchor_lon": 3.5636615068021436, "anchor_lat": 6.424164314736573 }, "geometry": { "type": "LineString", "coordinates": [ [ 3.563656767860973, 6.425068876423456 ], [ 3.56368994302859, 6.418736943978791 ] ] } },
{ "type": "Feature", "properties": { "transect_id": 127, "anchor_lon": 3.5681828132250484, "anchor_lat": 6.4241858804588832 }, "geometry": { "type": "LineString", "coordinates": [ [ 3.568178916449031, 6.425090445466749 ], [ 3.568206196546576, 6.418758489770296 ] ] } },
{ "type": "Feature", "properties": { "transect_id": 128, "anchor_lon": 3.572704121341983, "anchor_lat": 6.4242063963365661 }, "geometry": { "type": "LineString", "coordinates": [ [ 3.572699471885173, 6.425110957079289 ], [ 3.572732020715916, 6.418779031243799 ] ] } },
{ "type": "Feature", "properties": { "transect_id": 129, "anchor_lon": 3.5772253917754622, "anchor_lat": 6.4242332976936307 }, "geometry": { "type": "LineString", "coordinates": [ [ 3.577218975385941, 6.42513784690841 ], [ 3.577263892638018, 6.418806001779769 ] ] } },
{ "type": "Feature", "properties": { "transect_id": 130, "anchor_lon": 3.5817465906513828, "anchor_lat": 6.4242698668332157 }, "geometry": { "type": "LineString", "coordinates": [ [ 3.581738096944, 6.425174398196938 ], [ 3.58179755529036, 6.418842678038728 ] ] } },
{ "type": "Feature", "properties": { "transect_id": 131, "anchor_lon": 3.586267681627775, "anchor_lat": 6.4243176353537343 }, "geometry": { "type": "LineString", "coordinates": [ [ 3.586256969080658, 6.425222142419957 ], [ 3.586331959163847, 6.418890592357988 ] ] } },
{ "type": "Feature", "properties": { "transect_id": 132, "anchor_lon": 3.5907886362774142, "anchor_lat": 6.4243767100712796 }, "geometry": { "type": "LineString", "coordinates": [ [ 3.590775928464033, 6.425281190557489 ], [ 3.590864885286298, 6.418949826567899 ] ] } },
{ "type": "Feature", "properties": { "transect_id": 133, "anchor_lon": 3.5953094852972618, "anchor_lat": 6.4244432541299847 }, "geometry": { "type": "LineString", "coordinates": [ [ 3.595295880151738, 6.425347720818205 ], [ 3.595391118255785, 6.41901645342045 ] ] } },
{ "type": "Feature", "properties": { "transect_id": 134, "anchor_lon": 3.5998303151074551, "anchor_lat": 6.4245109003428826 }, "geometry": { "type": "LineString", "coordinates": [ [ 3.599816937126404, 6.425415369679443 ], [ 3.599910585119511, 6.419084083742741 ] ] } },
{ "type": "Feature", "properties": { "transect_id": 135, "anchor_lon": 3.6043512084416083, "anchor_lat": 6.4245739019993779 }, "geometry": { "type": "LineString", "coordinates": [ [ 3.604339034935696, 6.425478387612509 ], [ 3.604424251715842, 6.419146987733409 ] ] } },
{ "type": "Feature", "properties": { "transect_id": 136, "anchor_lon": 3.608872206511089, "anchor_lat": 6.4246286049008523 }, "geometry": { "type": "LineString", "coordinates": [ [ 3.608862216004534, 6.425533116524742 ], [ 3.608932151974879, 6.419201534557692 ] ] } },
{ "type": "Feature", "properties": { "transect_id": 137, "anchor_lon": 3.6133932696940332, "anchor_lat": 6.4246773479014303 }, "geometry": { "type": "LineString", "coordinates": [ [ 3.613384117685002, 6.425581867645263 ], [ 3.613448184258467, 6.419250228833904 ] ] } },
{ "type": "Feature", "properties": { "transect_id": 138, "anchor_lon": 3.6179143677603305, "anchor_lat": 6.4247224100786058 }, "geometry": { "type": "LineString", "coordinates": [ [ 3.617905785657891, 6.42562693464888 ], [ 3.617965862951045, 6.419295262049315 ] ] } },
{ "type": "Feature", "properties": { "transect_id": 139, "anchor_lon": 3.6224354887390073, "anchor_lat": 6.4247647460482904 }, "geometry": { "type": "LineString", "coordinates": [ [ 3.622427258031522, 6.42566927311693 ], [ 3.622484875609593, 6.419337583027021 ] ] } },
{ "type": "Feature", "properties": { "transect_id": 140, "anchor_lon": 3.6269566170678398, "anchor_lat": 6.4248059117165566 }, "geometry": { "type": "LineString", "coordinates": [ [ 3.626948387155376, 6.425710438017341 ], [ 3.627005999191854, 6.419378753302905 ] ] } },
{ "type": "Feature", "properties": { "transect_id": 141, "anchor_lon": 3.6314777321187175, "anchor_lat": 6.424848132852083 }, "geometry": { "type": "LineString", "coordinates": [ [ 3.631468958126856, 6.425752653254785 ], [ 3.631530378702201, 6.419421009831001 ] ] } },
{ "type": "Feature", "properties": { "transect_id": 142, "anchor_lon": 3.6359988276938471, "anchor_lat": 6.4248920329371169 }, "geometry": { "type": "LineString", "coordinates": [ [ 3.635990287885411, 6.425796554796197 ], [ 3.636050069217669, 6.419464901176707 ] ] } },
{ "type": "Feature", "properties": { "transect_id": 143, "anchor_lon": 3.6405199464647136, "anchor_lat": 6.4249330443472497 }, "geometry": { "type": "LineString", "coordinates": [ [ 3.64051261096955, 6.425837575989779 ], [ 3.640563962221846, 6.419505853878555 ] ] } },
{ "type": "Feature", "properties": { "transect_id": 144, "anchor_lon": 3.6450411262172273, "anchor_lat": 6.4249660705004024 }, "geometry": { "type": "LineString", "coordinates": [ [ 3.645035486850364, 6.425870613518445 ], [ 3.645074965354015, 6.419538811767358 ] ] } },
{ "type": "Feature", "properties": { "transect_id": 145, "anchor_lon": 3.6495623590813775, "anchor_lat": 6.4249901400598457 }, "geometry": { "type": "LineString", "coordinates": [ [ 3.649558108367537, 6.425894689871896 ], [ 3.649587866426615, 6.419562840553282 ] ] } },
{ "type": "Feature", "properties": { "transect_id": 146, "anchor_lon": 3.6540836084157062, "anchor_lat": 6.4250101918278943 }, "geometry": { "type": "LineString", "coordinates": [ [ 3.654079427260164, 6.4259147411564 ], [ 3.654108698439821, 6.41958289522239 ] ] } },
{ "type": "Feature", "properties": { "transect_id": 147, "anchor_lon": 3.6586047962395165, "anchor_lat": 6.4250399795728139 }, "geometry": { "type": "LineString", "coordinates": [ [ 3.658596977970403, 6.425944503947106 ], [ 3.658651708698489, 6.41961283271866 ] ] } },
{ "type": "Feature", "properties": { "transect_id": 148, "anchor_lon": 3.663125603734791, "anchor_lat": 6.4251041352807645 }, "geometry": { "type": "LineString", "coordinates": [ [ 3.663108947079909, 6.426008539171941 ], [ 3.66322554587478, 6.419677711384471 ] ] } },
{ "type": "Feature", "properties": { "transect_id": 149, "anchor_lon": 3.6676453703981435, "anchor_lat": 6.4252203433453543 }, "geometry": { "type": "LineString", "coordinates": [ [ 3.667615617205762, 6.426124410097382 ], [ 3.667823890811161, 6.419795942360951 ] ] } },
{ "type": "Feature", "properties": { "transect_id": 150, "anchor_lon": 3.6721635978892087, "anchor_lat": 6.4253860144588701 }, "geometry": { "type": "LineString", "coordinates": [ [ 3.672127505079923, 6.426289849326937 ], [ 3.672380155554232, 6.419963004811955 ] ] } },
{ "type": "Feature", "properties": { "transect_id": 151, "anchor_lon": 3.6766802110134029, "anchor_lat": 6.4255911599829192 }, "geometry": { "type": "LineString", "coordinates": [ [ 3.676636268731802, 6.426494646175533 ], [ 3.676943864949785, 6.420170242426317 ] ] } },
{ "type": "Feature", "properties": { "transect_id": 152, "anchor_lon": 3.681195377636767, "anchor_lat": 6.4258260472554527 }, "geometry": { "type": "LineString", "coordinates": [ [ 3.681146824368106, 6.426729296385894 ], [ 3.681486697174404, 6.420406552093057 ] ] } },
{ "type": "Feature", "properties": { "transect_id": 153, "anchor_lon": 3.685709528855555, "anchor_lat": 6.4260797922654138 }, "geometry": { "type": "LineString", "coordinates": [ [ 3.685657981028483, 6.426982874484017 ], [ 3.686018815543149, 6.42066129858805 ] ] } },
{ "type": "Feature", "properties": { "transect_id": 154, "anchor_lon": 3.6902233623771132, "anchor_lat": 6.4263391063433701 }, "geometry": { "type": "LineString", "coordinates": [ [ 3.690170990161984, 6.427242140237772 ], [ 3.690537595354612, 6.420920902616992 ] ] } },
{ "type": "Feature", "properties": { "transect_id": 155, "anchor_lon": 3.6947368355430186, "anchor_lat": 6.4266045701415093 }, "geometry": { "type": "LineString", "coordinates": [ [ 3.694682376715171, 6.427507479655639 ], [ 3.695063588064023, 6.42118711270715 ] ] } },
{ "type": "Feature", "properties": { "transect_id": 156, "anchor_lon": 3.6992494485517695, "anchor_lat": 6.4268842045508663 }, "geometry": { "type": "LineString", "coordinates": [ [ 3.699191239290903, 6.427786879014448 ], [ 3.699598703413649, 6.421468157435656 ] ] } },
{ "type": "Feature", "properties": { "transect_id": 157, "anchor_lon": 3.7037606809039265, "anchor_lat": 6.4271852234453926 }, "geometry": { "type": "LineString", "coordinates": [ [ 3.703697277864288, 6.428087546870861 ], [ 3.704141098073158, 6.421771282578279 ] ] } },
{ "type": "Feature", "properties": { "transect_id": 158, "anchor_lon": 3.7082700078303379, "anchor_lat": 6.427513506516684 }, "geometry": { "type": "LineString", "coordinates": [ [ 3.708200326148065, 6.428415365615942 ], [ 3.708688096408805, 6.422102351627283 ] ] } },
{ "type": "Feature", "properties": { "transect_id": 159, "anchor_lon": 3.7127767934577749, "anchor_lat": 6.4278749569574982 }, "geometry": { "type": "LineString", "coordinates": [ [ 3.712699606144072, 6.428776203411335 ], [ 3.713239915286344, 6.422467477960845 ] ] } },
{ "type": "Feature", "properties": { "transect_id": 160, "anchor_lon": 3.7172803164024897, "anchor_lat": 6.4282749811493138 }, "geometry": { "type": "LineString", "coordinates": [ [ 3.717194475264567, 6.429175443155033 ], [ 3.717795360551977, 6.422872208859164 ] ] } },
{ "type": "Feature", "properties": { "transect_id": 161, "anchor_lon": 3.721779775934694, "anchor_lat": 6.4287183990001111 }, "geometry": { "type": "LineString", "coordinates": [ [ 3.721685477246666, 6.429618013182111 ], [ 3.722345564775159, 6.423320713664595 ] ] } },
{ "type": "Feature", "properties": { "transect_id": 162, "anchor_lon": 3.7262750372784743, "anchor_lat": 6.429202582332616 }, "geometry": { "type": "LineString", "coordinates": [ [ 3.726173023879715, 6.430101352927115 ], [ 3.726887113829334, 6.423809958529369 ] ] } },
{ "type": "Feature", "properties": { "transect_id": 163, "anchor_lon": 3.7307659183413096, "anchor_lat": 6.4297258512799509 }, "geometry": { "type": "LineString", "coordinates": [ [ 3.730656088433506, 6.430623698710295 ], [ 3.731424893385086, 6.424338766464585 ] ] } },
{ "type": "Feature", "properties": { "transect_id": 164, "anchor_lon": 3.7352522487542048, "anchor_lat": 6.4302868581983468 }, "geometry": { "type": "LineString", "coordinates": [ [ 3.735135929138277, 6.431183886505845 ], [ 3.735950161584604, 6.424904688120201 ] ] } },
{ "type": "Feature", "properties": { "transect_id": 165, "anchor_lon": 3.7397346810005541, "anchor_lat": 6.4308782589542179 }, "geometry": { "type": "LineString", "coordinates": [ [ 3.739613011968734, 6.431774575989142 ], [ 3.740464689949365, 6.425500356510555 ] ] } },
{ "type": "Feature", "properties": { "transect_id": 166, "anchor_lon": 3.7442136920840214, "anchor_lat": 6.4314950778421975 }, "geometry": { "type": "LineString", "coordinates": [ [ 3.744087952643397, 6.432390831649363 ], [ 3.744968123204073, 6.426120554764569 ] ] } },
{ "type": "Feature", "properties": { "transect_id": 167, "anchor_lon": 3.7486905336609286, "anchor_lat": 6.4321275005253007 }, "geometry": { "type": "LineString", "coordinates": [ [ 3.74856322854958, 6.433023032094513 ], [ 3.749454358710204, 6.426754310878889 ] ] } },
{ "type": "Feature", "properties": { "transect_id": 168, "anchor_lon": 3.7531666394477718, "anchor_lat": 6.4327651262091923 }, "geometry": { "type": "LineString", "coordinates": [ [ 3.753038979153569, 6.433660606253843 ], [ 3.753932595589119, 6.4273922457159 ] ] } },
{ "type": "Feature", "properties": { "transect_id": 169, "anchor_lon": 3.7576425898102301, "anchor_lat": 6.4334038495339891 }, "geometry": { "type": "LineString", "coordinates": [ [ 3.757514937818188, 6.434299329828121 ], [ 3.758408496160627, 6.428030967550288 ] ] } },
{ "type": "Feature", "properties": { "transect_id": 170, "anchor_lon": 3.7621185980094514, "anchor_lat": 6.434042173491628 }, "geometry": { "type": "LineString", "coordinates": [ [ 3.761991042154704, 6.434937666553258 ], [ 3.762883927564634, 6.428669214909559 ] ] } },
{ "type": "Feature", "properties": { "transect_id": 171, "anchor_lon": 3.7665952085988446, "anchor_lat": 6.4346762516435883 }, "geometry": { "type": "LineString", "coordinates": [ [ 3.766469889369451, 6.435572059697148 ], [ 3.767347118590028, 6.429301403119991 ] ] } },
{ "type": "Feature", "properties": { "transect_id": 172, "anchor_lon": 3.7710739112071261, "anchor_lat": 6.4352953482087889 }, "geometry": { "type": "LineString", "coordinates": [ [ 3.770952728379175, 6.436191724595964 ], [ 3.771801003119761, 6.429917089695242 ] ] } },
{ "type": "Feature", "properties": { "transect_id": 173, "anchor_lon": 3.7755557853151411, "anchor_lat": 6.4358910122975388 }, "geometry": { "type": "LineString", "coordinates": [ [ 3.775439900622408, 6.436788088493169 ], [ 3.77625108883385, 6.430508554943941 ] ] } },
{ "type": "Feature", "properties": { "transect_id": 174, "anchor_lon": 3.7800415036292656, "anchor_lat": 6.4364569369891251 }, "geometry": { "type": "LineString", "coordinates": [ [ 3.779932355929223, 6.437354857332575 ], [ 3.780696385717476, 6.431069414756501 ] ] } },
{ "type": "Feature", "properties": { "transect_id": 175, "anchor_lon": 3.7845317942753285, "anchor_lat": 6.4369852571183159 }, "geometry": { "type": "LineString", "coordinates": [ [ 3.784431141327195, 6.437884168957238 ], [ 3.785135708510194, 6.431591785915083 ] ] } },
{ "type": "Feature", "properties": { "transect_id": 176, "anchor_lon": 3.7890273031166317, "anchor_lat": 6.437467029740449 }, "geometry": { "type": "LineString", "coordinates": [ [ 3.788936764449979, 6.438367016229782 ], [ 3.789570532443126, 6.432067110627532 ] ] } },
{ "type": "Feature", "properties": { "transect_id": 177, "anchor_lon": 3.7935282225861546, "anchor_lat": 6.4378951659514412 }, "geometry": { "type": "LineString", "coordinates": [ [ 3.7934491689695, 6.438796233578541 ], [ 3.794002542496939, 6.43248875999159 ] ] } },
{ "type": "Feature", "properties": { "transect_id": 178, "anchor_lon": 3.798034461471429, "anchor_lat": 6.4382629294188938 }, "geometry": { "type": "LineString", "coordinates": [ [ 3.797968189697427, 6.439165026827865 ], [ 3.79843209130851, 6.432850344730545 ] ] } },
{ "type": "Feature", "properties": { "transect_id": 179, "anchor_lon": 3.8025456727610774, "anchor_lat": 6.4385633542334224 }, "geometry": { "type": "LineString", "coordinates": [ [ 3.802493506670715, 6.439466376710804 ], [ 3.802858669577861, 6.433145219075983 ] ] } },
{ "type": "Feature", "properties": { "transect_id": 180, "anchor_lon": 3.8070610634824873, "anchor_lat": 6.4387924155536584 }, "geometry": { "type": "LineString", "coordinates": [ [ 3.807023126256772, 6.43969614705523 ], [ 3.807288688201257, 6.433370026173886 ] ] } },
{ "type": "Feature", "properties": { "transect_id": 181, "anchor_lon": 3.8115794458580661, "anchor_lat": 6.4389519979917429 }, "geometry": { "type": "LineString", "coordinates": [ [ 3.811554928067044, 6.439856192342209 ], [ 3.811726554996222, 6.433526831429321 ] ] } },
{ "type": "Feature", "properties": { "transect_id": 182, "anchor_lon": 3.8160996432625987, "anchor_lat": 6.4390475762771748 }, "geometry": { "type": "LineString", "coordinates": [ [ 3.81608698232189, 6.439952013495989 ], [ 3.816175612207561, 6.433620952412521 ] ] } },
{ "type": "Feature", "properties": { "transect_id": 183, "anchor_lon": 3.8206206777215019, "anchor_lat": 6.4390881817917673 }, "geometry": { "type": "LineString", "coordinates": [ [ 3.820618004107763, 6.439992702708693 ], [ 3.820636723471951, 6.433661055651084 ] ] } },
{ "type": "Feature", "properties": { "transect_id": 184, "anchor_lon": 3.8251418965455253, "anchor_lat": 6.4390826760916742 }, "geometry": { "type": "LineString", "coordinates": [ [ 3.825147540024333, 6.439987182326436 ], [ 3.825108040382094, 6.433655637964249 ] ] } },
{ "type": "Feature", "properties": { "transect_id": 185, "anchor_lon": 3.8296629112243381, "anchor_lat": 6.4390391084823158 }, "geometry": { "type": "LineString", "coordinates": [ [ 3.82967541155646, 6.439943544876747 ], [ 3.829587914472759, 6.433612489326221 ] ] } },
{ "type": "Feature", "properties": { "transect_id": 186, "anchor_lon": 3.8341834945500217, "anchor_lat": 6.4389630540745264 }, "geometry": { "type": "LineString", "coordinates": [ [ 3.834201920631979, 6.439867388060464 ], [ 3.834072943761193, 6.433537049304598 ] ] } },
{ "type": "Feature", "properties": { "transect_id": 187, "anchor_lon": 3.8387035617704361, "anchor_lat": 6.4388608380743513 }, "geometry": { "type": "LineString", "coordinates": [ [ 3.838726360790414, 6.439765071288603 ], [ 3.838566773699776, 6.433435437884246 ] ] } },
{ "type": "Feature", "properties": { "transect_id": 188, "anchor_lon": 3.8432231953879987, "anchor_lat": 6.438741029952558 }, "geometry": { "type": "LineString", "coordinates": [ [ 3.843248511313002, 6.439645195122657 ], [ 3.843071306096178, 6.433316037997021 ] ] } },
{ "type": "Feature", "properties": { "transect_id": 189, "anchor_lon": 3.8477425760216519, "anchor_lat": 6.438612180567624 }, "geometry": { "type": "LineString", "coordinates": [ [ 3.84776868005883, 6.439516322270992 ], [ 3.847585958138265, 6.433187329401942 ] ] } },
{ "type": "Feature", "properties": { "transect_id": 190, "anchor_lon": 3.8522619172009134, "anchor_lat": 6.4384821704129767 }, "geometry": { "type": "LineString", "coordinates": [ [ 3.852287487266024, 6.439386326336291 ], [ 3.852108503134006, 6.433057233932702 ] ] } },
{ "type": "Feature", "properties": { "transect_id": 191, "anchor_lon": 3.8567814093702029, "anchor_lat": 6.4383577918461468 }, "geometry": { "type": "LineString", "coordinates": [ [ 3.856805101684707, 6.439261997899476 ], [ 3.856639261691972, 6.432932554606761 ] ] } },
{ "type": "Feature", "properties": { "transect_id": 192, "anchor_lon": 3.8613011732447036, "anchor_lat": 6.4382440005169013 }, "geometry": { "type": "LineString", "coordinates": [ [ 3.861322463471645, 6.439148265294743 ], [ 3.86117343793812, 6.432818410957429 ] ] } },
{ "type": "Feature", "properties": { "transect_id": 193, "anchor_lon": 3.86582122541388, "anchor_lat": 6.438142593424339 }, "geometry": { "type": "LineString", "coordinates": [ [ 3.865840125133111, 6.439046910290354 ], [ 3.865707833000547, 6.432716691362469 ] ] } },
{ "type": "Feature", "properties": { "transect_id": 194, "anchor_lon": 3.8703414932681657, "anchor_lat": 6.4380515656672248 }, "geometry": { "type": "LineString", "coordinates": [ [ 3.870358911707236, 6.438955911223998 ], [ 3.870236988449826, 6.432625491476909 ] ] } },
{ "type": "Feature", "properties": { "transect_id": 195, "anchor_lon": 3.8748618475218888, "anchor_lat": 6.437965221076789 }, "geometry": { "type": "LineString", "coordinates": [ [ 3.874878844316847, 6.438869573583777 ], [ 3.874759872560528, 6.43253910518918 ] ] } },
{ "type": "Feature", "properties": { "transect_id": 196, "anchor_lon": 3.8793822271757357, "anchor_lat": 6.4378805442588201 }, "geometry": { "type": "LineString", "coordinates": [ [ 3.879399237886877, 6.438784895420714 ], [ 3.879280168741773, 6.432454436440842 ] ] } },
{ "type": "Feature", "properties": { "transect_id": 197, "anchor_lon": 3.8839025218521486, "anchor_lat": 6.4377918313475124 }, "geometry": { "type": "LineString", "coordinates": [ [ 3.883921732470403, 6.438696137336667 ], [ 3.883787264161449, 6.432365994539608 ] ] } },
{ "type": "Feature", "properties": { "transect_id": 198, "anchor_lon": 3.8884224824400264, "anchor_lat": 6.4376879075566951 }, "geometry": { "type": "LineString", "coordinates": [ [ 3.888445838208592, 6.438592114828674 ], [ 3.888282354176687, 6.432262663001505 ] ] } },
{ "type": "Feature", "properties": { "transect_id": 199, "anchor_lon": 3.8929418054100502, "anchor_lat": 6.4375596273731635 }, "geometry": { "type": "LineString", "coordinates": [ [ 3.89297114900821, 6.438463658929246 ], [ 3.892765750633375, 6.432135437038111 ] ] } },
{ "type": "Feature", "properties": { "transect_id": 200, "anchor_lon": 3.8974600173441143, "anchor_lat": 6.4373972763527316 }, "geometry": { "type": "LineString", "coordinates": [ [ 3.897497452220191, 6.43830100773058 ], [ 3.897235415517151, 6.431974886980528 ] ] } },
{ "type": "Feature", "properties": { "transect_id": 201, "anchor_lon": 3.9019764514738529, "anchor_lat": 6.4371916109285943 }, "geometry": { "type": "LineString", "coordinates": [ [ 3.902023264771027, 6.43809490368242 ], [ 3.90169557982913, 6.43177185316988 ] ] } },
{ "type": "Feature", "properties": { "transect_id": 202, "anchor_lon": 3.9064903888572502, "anchor_lat": 6.4369371614535025 }, "geometry": { "type": "LineString", "coordinates": [ [ 3.906547316695327, 6.437839871732755 ], [ 3.906148830726022, 6.431520898392699 ] ] } },
{ "type": "Feature", "properties": { "transect_id": 203, "anchor_lon": 3.9110013112442856, "anchor_lat": 6.4366339264534318 }, "geometry": { "type": "LineString", "coordinates": [ [ 3.91106735873097, 6.437536013836485 ], [ 3.910605035904346, 6.43122140062692 ] ] } },
{ "type": "Feature", "properties": { "transect_id": 204, "anchor_lon": 3.9155090355628044, "anchor_lat": 6.4362864048809492 }, "geometry": { "type": "LineString", "coordinates": [ [ 3.915583436888894, 6.437187840185663 ], [ 3.9150626378107, 6.430877791386751 ] ] } },
{ "type": "Feature", "properties": { "transect_id": 205, "anchor_lon": 3.9200136405466912, "anchor_lat": 6.4359005332539905 }, "geometry": { "type": "LineString", "coordinates": [ [ 3.920094631840854, 6.436801398897303 ], [ 3.919527703481059, 6.430495337614284 ] ] } },
{ "type": "Feature", "properties": { "transect_id": 206, "anchor_lon": 3.924515667237515, "anchor_lat": 6.4354856685238619 }, "geometry": { "type": "LineString", "coordinates": [ [ 3.92460142518021, 6.436386091499568 ], [ 3.924001130643555, 6.430083128803716 ] ] } },
{ "type": "Feature", "properties": { "transect_id": 207, "anchor_lon": 3.929015410881648, "anchor_lat": 6.4350468238406986 }, "geometry": { "type": "LineString", "coordinates": [ [ 3.929106270463752, 6.43594674488277 ], [ 3.928470264836635, 6.429647295628084 ] ] } },
{ "type": "Feature", "properties": { "transect_id": 208, "anchor_lon": 3.9335123906600171, "anchor_lat": 6.4345806170388098 }, "geometry": { "type": "LineString", "coordinates": [ [ 3.933609261533197, 6.435479909322588 ], [ 3.932931177316805, 6.429184861262498 ] ] } },
{ "type": "Feature", "properties": { "transect_id": 209, "anchor_lon": 3.9380059500771845, "anchor_lat": 6.4340826226046017 }, "geometry": { "type": "LineString", "coordinates": [ [ 3.93810960906175, 6.434981156113528 ], [ 3.937384008566493, 6.42869141934588 ] ] } },
{ "type": "Feature", "properties": { "transect_id": 210, "anchor_lon": 3.9424955966123787, "anchor_lat": 6.4335505665775363 }, "geometry": { "type": "LineString", "coordinates": [ [ 3.942605780403079, 6.434448321679745 ], [ 3.941834506744572, 6.428164033628553 ] ] } },
{ "type": "Feature", "properties": { "transect_id": 211, "anchor_lon": 3.9469812102599233, "anchor_lat": 6.4329855901277879 }, "geometry": { "type": "LineString", "coordinates": [ [ 3.94709815071776, 6.433882488426566 ], [ 3.946279580882503, 6.427604197860317 ] ] } },
{ "type": "Feature", "properties": { "transect_id": 212, "anchor_lon": 3.951462304705438, "anchor_lat": 6.4323858888692085 }, "geometry": { "type": "LineString", "coordinates": [ [ 3.951586024755988, 6.433281875386793 ], [ 3.950719998263634, 6.427009967145227 ] ] } },
{ "type": "Feature", "properties": { "transect_id": 213, "anchor_lon": 3.9559391331678446, "anchor_lat": 6.4317551470106507 }, "geometry": { "type": "LineString", "coordinates": [ [ 3.956068078988711, 6.432650394747289 ], [ 3.955165472486118, 6.42638365785733 ] ] } },
{ "type": "Feature", "properties": { "transect_id": 214, "anchor_lon": 3.9604125087727202, "anchor_lat": 6.4311004106435146 }, "geometry": { "type": "LineString", "coordinates": [ [ 3.96054591914577, 6.43199500235563 ], [ 3.959612061105804, 6.425732857536095 ] ] } },
{ "type": "Feature", "properties": { "transect_id": 215, "anchor_lon": 3.9648844521746573, "anchor_lat": 6.4304359941630445 }, "geometry": { "type": "LineString", "coordinates": [ [ 3.965016303943552, 6.431330815875556 ], [ 3.964093356047035, 6.425067061080044 ] ] } },
{ "type": "Feature", "properties": { "transect_id": 216, "anchor_lon": 3.9693585451697202, "anchor_lat": 6.4297863415986249 }, "geometry": { "type": "LineString", "coordinates": [ [ 3.969486069396988, 6.430681789494083 ], [ 3.968593414015801, 6.424413651503376 ] ] } },
{ "type": "Feature", "properties": { "transect_id": 217, "anchor_lon": 3.9738367457998418, "anchor_lat": 6.4291658217186853 }, "geometry": { "type": "LineString", "coordinates": [ [ 3.973957173526436, 6.430062251028282 ], [ 3.973114193181515, 6.423787243280338 ] ] } },
{ "type": "Feature", "properties": { "transect_id": 218, "anchor_lon": 3.9783207222221759, "anchor_lat": 6.428588763891617 }, "geometry": { "type": "LineString", "coordinates": [ [ 3.978431291987715, 6.429486462051259 ], [ 3.977657316706707, 6.423202572546857 ] ] } },
{ "type": "Feature", "properties": { "transect_id": 219, "anchor_lon": 3.9828117068205215, "anchor_lat": 6.4280693737256565 }, "geometry": { "type": "LineString", "coordinates": [ [ 3.982909675195398, 6.42896853410935 ], [ 3.982223908787611, 6.422674409276402 ] ] } },
{ "type": "Feature", "properties": { "transect_id": 220, "anchor_lon": 3.9873103579426425, "anchor_lat": 6.4276216231781618 }, "geometry": { "type": "LineString", "coordinates": [ [ 3.98739301407988, 6.428522320011502 ], [ 3.98681443227364, 6.4222174403087 ] ] } },
{ "type": "Feature", "properties": { "transect_id": 221, "anchor_lon": 3.9918166354592839, "anchor_lat": 6.4272591093108282 }, "geometry": { "type": "LineString", "coordinates": [ [ 3.991881320474129, 6.428161274601482 ], [ 3.9914285352608, 6.421846116002848 ] ] } }
]
}
